{
  "type": "FeatureCollection",
  "metadata": {
    "state": "交州",
    "color": "#EC407A",
    "gcps": 19,
    "max_err_km": 0.1,
    "avg_err_km": 0.1
  },
  "pixels": {
    "gcps": [
      {
        "px": 1031.5,
        "py": 941.2,
        "lon": 111.33,
        "lat": 23.48,
        "name": "广信/梧州"
      },
      {
        "px": 1195.2,
        "py": 909.6,
        "lon": 113.27,
        "lat": 23.13,
        "name": "番禺/广州"
      },
      {
        "px": 1031.5,
        "py": 941.2,
        "lon": 111.33,
        "lat": 23.48,
        "name": "苍梧/梧州"
      },
      {
        "px": 926.0,
        "py": 934.0,
        "lon": 110.08,
        "lat": 23.4,
        "name": "郁林/桂平"
      },
      {
        "px": 880.5,
        "py": 777.7,
        "lon": 109.54,
        "lat": 21.67,
        "name": "合浦/合浦"
      },
      {
        "px": 569.1,
        "py": 719.8,
        "lon": 105.85,
        "lat": 21.03,
        "name": "交趾/河内"
      },
      {
        "px": 563.1,
        "py": 613.2,
        "lon": 105.78,
        "lat": 19.85,
        "name": "九真/清化"
      },
      {
        "px": 767.4,
        "py": 315.1,
        "lon": 108.2,
        "lat": 16.55,
        "name": "日南/顺化"
      },
      {
        "px": 1127.7,
        "py": 902.3,
        "lon": 112.47,
        "lat": 23.05,
        "name": "高要/肇庆"
      },
      {
        "px": 886.4,
        "py": 905.0,
        "lon": 109.61,
        "lat": 23.08,
        "name": "布山/贵港"
      },
      {
        "px": 943.8,
        "py": 1102.9,
        "lon": 110.29,
        "lat": 25.27,
        "name": "始安/桂林"
      },
      {
        "px": 1223.1,
        "py": 1061.3,
        "lon": 113.6,
        "lat": 24.81,
        "name": "始兴/韶关"
      },
      {
        "px": 1456.9,
        "py": 947.5,
        "lon": 116.37,
        "lat": 23.55,
        "name": "揭阳/揭阳"
      },
      {
        "px": 932.8,
        "py": 656.6,
        "lon": 110.16,
        "lat": 20.33,
        "name": "徐闻/徐闻"
      },
      {
        "px": 947.1,
        "py": 629.5,
        "lon": 110.33,
        "lat": 20.03,
        "name": "珠崖/海口"
      },
      {
        "px": 1086.4,
        "py": 794.8,
        "lon": 111.98,
        "lat": 21.86,
        "name": "高凉/阳江"
      },
      {
        "px": 697.3,
        "py": 843.6,
        "lon": 107.37,
        "lat": 22.4,
        "name": "临尘/崇左"
      },
      {
        "px": 577.5,
        "py": 728.9,
        "lon": 105.95,
        "lat": 21.13,
        "name": "龙编/河内北"
      },
      {
        "px": 1195.2,
        "py": 909.6,
        "lon": 113.27,
        "lat": 23.13,
        "name": "南海/广州"
      }
    ],
    "bnd": [
      [
        1832,
        350
      ],
      [
        1788,
        352
      ],
      [
        1731,
        378
      ],
      [
        1711,
        361
      ],
      [
        1692,
        307
      ],
      [
        1663,
        312
      ],
      [
        1647,
        289
      ],
      [
        1585,
        284
      ],
      [
        1584,
        322
      ],
      [
        1570,
        322
      ],
      [
        1542,
        293
      ],
      [
        1434,
        324
      ],
      [
        1399,
        309
      ],
      [
        1404,
        358
      ],
      [
        1384,
        386
      ],
      [
        1339,
        398
      ],
      [
        1309,
        396
      ],
      [
        1292,
        382
      ],
      [
        1250,
        388
      ],
      [
        1184,
        342
      ],
      [
        1153,
        352
      ],
      [
        1141,
        300
      ],
      [
        1165,
        273
      ],
      [
        1150,
        238
      ],
      [
        1115,
        238
      ],
      [
        1062,
        215
      ],
      [
        1038,
        249
      ],
      [
        1036,
        281
      ],
      [
        928,
        304
      ],
      [
        898,
        282
      ],
      [
        903,
        224
      ],
      [
        880,
        137
      ],
      [
        862,
        136
      ],
      [
        849,
        172
      ],
      [
        756,
        141
      ],
      [
        733,
        146
      ],
      [
        726,
        163
      ],
      [
        736,
        203
      ],
      [
        720,
        207
      ],
      [
        725,
        246
      ],
      [
        710,
        282
      ],
      [
        672,
        305
      ],
      [
        627,
        294
      ],
      [
        643,
        356
      ],
      [
        564,
        311
      ],
      [
        514,
        359
      ],
      [
        508,
        396
      ],
      [
        550,
        428
      ],
      [
        573,
        465
      ],
      [
        572,
        495
      ],
      [
        552,
        520
      ],
      [
        504,
        529
      ],
      [
        421,
        506
      ],
      [
        389,
        473
      ],
      [
        350,
        491
      ],
      [
        346,
        518
      ],
      [
        295,
        552
      ],
      [
        278,
        552
      ],
      [
        262,
        535
      ],
      [
        245,
        576
      ],
      [
        230,
        576
      ],
      [
        204,
        548
      ],
      [
        191,
        573
      ],
      [
        220,
        660
      ],
      [
        254,
        656
      ],
      [
        388,
        752
      ],
      [
        405,
        860
      ],
      [
        384,
        895
      ],
      [
        402,
        902
      ],
      [
        402,
        919
      ],
      [
        381,
        915
      ],
      [
        375,
        1041
      ],
      [
        578,
        1304
      ],
      [
        621,
        1339
      ],
      [
        679,
        1356
      ],
      [
        707,
        1347
      ],
      [
        681,
        1335
      ],
      [
        682,
        1315
      ],
      [
        661,
        1292
      ],
      [
        631,
        1295
      ],
      [
        630,
        1262
      ],
      [
        579,
        1238
      ],
      [
        582,
        1212
      ],
      [
        567,
        1211
      ],
      [
        519,
        1148
      ],
      [
        513,
        1106
      ],
      [
        449,
        1055
      ],
      [
        415,
        990
      ],
      [
        416,
        968
      ],
      [
        440,
        967
      ],
      [
        463,
        882
      ],
      [
        529,
        838
      ],
      [
        534,
        799
      ],
      [
        556,
        793
      ],
      [
        583,
        750
      ],
      [
        596,
        759
      ],
      [
        622,
        751
      ],
      [
        641,
        734
      ],
      [
        639,
        714
      ],
      [
        710,
        678
      ],
      [
        752,
        681
      ],
      [
        749,
        645
      ],
      [
        762,
        644
      ],
      [
        763,
        661
      ],
      [
        779,
        672
      ],
      [
        821,
        676
      ],
      [
        826,
        700
      ],
      [
        859,
        695
      ],
      [
        873,
        679
      ],
      [
        906,
        692
      ],
      [
        884,
        764
      ],
      [
        917,
        839
      ],
      [
        946,
        847
      ],
      [
        979,
        817
      ],
      [
        959,
        796
      ],
      [
        959,
        778
      ],
      [
        942,
        776
      ],
      [
        941,
        740
      ],
      [
        964,
        723
      ],
      [
        993,
        723
      ],
      [
        1038,
        689
      ],
      [
        1107,
        691
      ],
      [
        1126,
        665
      ],
      [
        1144,
        666
      ],
      [
        1151,
        655
      ],
      [
        1192,
        666
      ],
      [
        1199,
        655
      ],
      [
        1221,
        656
      ],
      [
        1237,
        636
      ],
      [
        1264,
        633
      ],
      [
        1274,
        501
      ],
      [
        1287,
        499
      ],
      [
        1289,
        482
      ],
      [
        1304,
        483
      ],
      [
        1296,
        502
      ],
      [
        1311,
        512
      ],
      [
        1320,
        494
      ],
      [
        1345,
        494
      ],
      [
        1339,
        531
      ],
      [
        1377,
        563
      ],
      [
        1372,
        586
      ],
      [
        1391,
        586
      ],
      [
        1404,
        600
      ],
      [
        1421,
        583
      ],
      [
        1414,
        558
      ],
      [
        1442,
        571
      ],
      [
        1449,
        537
      ],
      [
        1462,
        538
      ],
      [
        1464,
        557
      ],
      [
        1479,
        557
      ],
      [
        1506,
        528
      ],
      [
        1554,
        545
      ],
      [
        1560,
        519
      ],
      [
        1588,
        533
      ],
      [
        1659,
        509
      ],
      [
        1665,
        483
      ],
      [
        1690,
        475
      ],
      [
        1709,
        425
      ],
      [
        1749,
        427
      ],
      [
        1752,
        413
      ],
      [
        1820,
        378
      ]
    ],
    "seats": []
  },
  "features": [
    {
      "type": "Feature",
      "properties": {
        "kind": "state_boundary",
        "state": "交州",
        "color": "#EC407A"
      },
      "geometry": {
        "type": "Polygon",
        "coordinates": [
          [
            [
              120.81528,
              16.93619
            ],
            [
              120.29391,
              16.95833
            ],
            [
              119.61848,
              17.24612
            ],
            [
              119.38149,
              17.05795
            ],
            [
              119.15635,
              16.46022
            ],
            [
              118.81272,
              16.51556
            ],
            [
              118.62313,
              16.26097
            ],
            [
              117.88846,
              16.20563
            ],
            [
              117.87661,
              16.62625
            ],
            [
              117.71072,
              16.62625
            ],
            [
              117.37893,
              16.30525
            ],
            [
              116.09919,
              16.64839
            ],
            [
              115.68445,
              16.48236
            ],
            [
              115.7437,
              17.02474
            ],
            [
              115.50671,
              17.33468
            ],
            [
              114.97348,
              17.46751
            ],
            [
              114.618,
              17.44537
            ],
            [
              114.41656,
              17.2904
            ],
            [
              113.91888,
              17.35682
            ],
            [
              113.13681,
              16.84764
            ],
            [
              112.76948,
              16.95833
            ],
            [
              112.62728,
              16.38273
            ],
            [
              112.91167,
              16.08387
            ],
            [
              112.73393,
              15.69645
            ],
            [
              112.3192,
              15.69645
            ],
            [
              111.69117,
              15.44186
            ],
            [
              111.40679,
              15.81821
            ],
            [
              111.38309,
              16.17242
            ],
            [
              110.10334,
              16.42701
            ],
            [
              109.74786,
              16.18349
            ],
            [
              109.8071,
              15.54148
            ],
            [
              109.53457,
              14.57847
            ],
            [
              109.32128,
              14.5674
            ],
            [
              109.16723,
              14.96589
            ],
            [
              108.06523,
              14.62274
            ],
            [
              107.79269,
              14.67809
            ],
            [
              107.70974,
              14.86627
            ],
            [
              107.82824,
              15.30903
            ],
            [
              107.63865,
              15.35331
            ],
            [
              107.69789,
              15.785
            ],
            [
              107.52015,
              16.18349
            ],
            [
              107.06987,
              16.43808
            ],
            [
              106.53664,
              16.31632
            ],
            [
              106.72624,
              17.0026
            ],
            [
              105.79013,
              16.50449
            ],
            [
              105.19765,
              17.03581
            ],
            [
              105.12655,
              17.44537
            ],
            [
              105.62423,
              17.79958
            ],
            [
              105.89677,
              18.20914
            ],
            [
              105.88492,
              18.54121
            ],
            [
              105.64793,
              18.81794
            ],
            [
              105.07916,
              18.91756
            ],
            [
              104.09565,
              18.66297
            ],
            [
              103.71646,
              18.29769
            ],
            [
              103.25433,
              18.49693
            ],
            [
              103.20694,
              18.7958
            ],
            [
              102.60261,
              19.17215
            ],
            [
              102.40117,
              19.17215
            ],
            [
              102.21158,
              18.98397
            ],
            [
              102.01014,
              19.43781
            ],
            [
              101.8324,
              19.43781
            ],
            [
              101.52431,
              19.12787
            ],
            [
              101.37027,
              19.4046
            ],
            [
              101.7139,
              20.36761
            ],
            [
              102.11678,
              20.32334
            ],
            [
              103.70462,
              21.38597
            ],
            [
              103.90606,
              22.58144
            ],
            [
              103.65722,
              22.96885
            ],
            [
              103.87051,
              23.04634
            ],
            [
              103.87051,
              23.23451
            ],
            [
              103.62167,
              23.19024
            ],
            [
              103.55057,
              24.58494
            ],
            [
              105.95602,
              27.49612
            ],
            [
              106.46555,
              27.88354
            ],
            [
              107.15282,
              28.07172
            ],
            [
              107.4846,
              27.97209
            ],
            [
              107.17652,
              27.83926
            ],
            [
              107.18837,
              27.61788
            ],
            [
              106.93953,
              27.36329
            ],
            [
              106.58404,
              27.3965
            ],
            [
              106.57219,
              27.03122
            ],
            [
              105.96787,
              26.76556
            ],
            [
              106.00342,
              26.47776
            ],
            [
              105.82567,
              26.46669
            ],
            [
              105.2569,
              25.76934
            ],
            [
              105.1858,
              25.30444
            ],
            [
              104.42743,
              24.73991
            ],
            [
              104.02455,
              24.02042
            ],
            [
              104.0364,
              23.7769
            ],
            [
              104.32079,
              23.76583
            ],
            [
              104.59333,
              22.82496
            ],
            [
              105.37539,
              22.33792
            ],
            [
              105.43464,
              21.90622
            ],
            [
              105.69533,
              21.83981
            ],
            [
              106.01527,
              21.36383
            ],
            [
              106.16931,
              21.46346
            ],
            [
              106.4774,
              21.3749
            ],
            [
              106.70254,
              21.18673
            ],
            [
              106.67884,
              20.96535
            ],
            [
              107.52015,
              20.56686
            ],
            [
              108.01783,
              20.60006
            ],
            [
              107.98228,
              20.20158
            ],
            [
              108.13633,
              20.19051
            ],
            [
              108.14818,
              20.37868
            ],
            [
              108.33777,
              20.50044
            ],
            [
              108.83545,
              20.54472
            ],
            [
              108.89469,
              20.81038
            ],
            [
              109.28573,
              20.75503
            ],
            [
              109.45162,
              20.57793
            ],
            [
              109.84265,
              20.72183
            ],
            [
              109.58196,
              21.5188
            ],
            [
              109.973,
              22.34898
            ],
            [
              110.31663,
              22.43754
            ],
            [
              110.70767,
              22.10546
            ],
            [
              110.47068,
              21.87301
            ],
            [
              110.47068,
              21.67377
            ],
            [
              110.26923,
              21.65163
            ],
            [
              110.25738,
              21.25314
            ],
            [
              110.52992,
              21.06497
            ],
            [
              110.87356,
              21.06497
            ],
            [
              111.40679,
              20.68862
            ],
            [
              112.2244,
              20.71076
            ],
            [
              112.44954,
              20.42296
            ],
            [
              112.66283,
              20.43403
            ],
            [
              112.74578,
              20.31227
            ],
            [
              113.23161,
              20.43403
            ],
            [
              113.31455,
              20.31227
            ],
            [
              113.57524,
              20.32334
            ],
            [
              113.76483,
              20.10195
            ],
            [
              114.08477,
              20.06875
            ],
            [
              114.20327,
              18.60762
            ],
            [
              114.35731,
              18.58549
            ],
            [
              114.38101,
              18.39731
            ],
            [
              114.55875,
              18.40838
            ],
            [
              114.46395,
              18.61869
            ],
            [
              114.6417,
              18.72939
            ],
            [
              114.74834,
              18.53014
            ],
            [
              115.04458,
              18.53014
            ],
            [
              114.97348,
              18.9397
            ],
            [
              115.42376,
              19.29391
            ],
            [
              115.36452,
              19.5485
            ],
            [
              115.58966,
              19.5485
            ],
            [
              115.7437,
              19.70347
            ],
            [
              115.94514,
              19.51529
            ],
            [
              115.8622,
              19.23856
            ],
            [
              116.19398,
              19.38246
            ],
            [
              116.27693,
              19.00611
            ],
            [
              116.43097,
              19.01718
            ],
            [
              116.45467,
              19.2275
            ],
            [
              116.63241,
              19.2275
            ],
            [
              116.95235,
              18.90649
            ],
            [
              117.52112,
              19.09467
            ],
            [
              117.59222,
              18.80687
            ],
            [
              117.92401,
              18.96184
            ],
            [
              118.76532,
              18.69618
            ],
            [
              118.83642,
              18.40838
            ],
            [
              119.13266,
              18.31983
            ],
            [
              119.3578,
              17.76637
            ],
            [
              119.83178,
              17.78851
            ],
            [
              119.86732,
              17.63354
            ],
            [
              120.67309,
              17.24612
            ],
            [
              120.81528,
              16.93619
            ]
          ]
        ]
      }
    }
  ]
}