{
  "type": "FeatureCollection",
  "metadata": {
    "state": "兖州",
    "color": "#C62828",
    "gcps": 0,
    "max_err_km": null,
    "avg_err_km": null,
    "verified": false
  },
  "pixels": {
    "gcps": [],
    "bnd": [
      [
        21,
        165
      ],
      [
        36,
        178
      ],
      [
        51,
        191
      ],
      [
        61,
        205
      ],
      [
        56,
        225
      ],
      [
        56,
        243
      ],
      [
        71,
        256
      ],
      [
        86,
        268
      ],
      [
        101,
        281
      ],
      [
        118,
        291
      ],
      [
        137,
        296
      ],
      [
        156,
        301
      ],
      [
        175,
        307
      ],
      [
        195,
        312
      ],
      [
        213,
        318
      ],
      [
        227,
        332
      ],
      [
        241,
        347
      ],
      [
        254,
        361
      ],
      [
        269,
        373
      ],
      [
        289,
        377
      ],
      [
        308,
        381
      ],
      [
        328,
        385
      ],
      [
        347,
        390
      ],
      [
        366,
        394
      ],
      [
        366,
        413
      ],
      [
        365,
        433
      ],
      [
        363,
        453
      ],
      [
        362,
        472
      ],
      [
        372,
        489
      ],
      [
        383,
        505
      ],
      [
        394,
        522
      ],
      [
        390,
        541
      ],
      [
        384,
        560
      ],
      [
        378,
        579
      ],
      [
        364,
        591
      ],
      [
        348,
        602
      ],
      [
        331,
        613
      ],
      [
        314,
        624
      ],
      [
        312,
        643
      ],
      [
        309,
        663
      ],
      [
        307,
        682
      ],
      [
        304,
        702
      ],
      [
        294,
        716
      ],
      [
        276,
        726
      ],
      [
        259,
        736
      ],
      [
        249,
        753
      ],
      [
        238,
        769
      ],
      [
        227,
        786
      ],
      [
        217,
        803
      ],
      [
        198,
        807
      ],
      [
        209,
        824
      ],
      [
        220,
        840
      ],
      [
        230,
        857
      ],
      [
        241,
        874
      ],
      [
        252,
        890
      ],
      [
        257,
        909
      ],
      [
        261,
        929
      ],
      [
        265,
        948
      ],
      [
        269,
        967
      ],
      [
        273,
        987
      ],
      [
        277,
        1006
      ],
      [
        282,
        1025
      ],
      [
        299,
        1034
      ],
      [
        317,
        1043
      ],
      [
        335,
        1051
      ],
      [
        353,
        1060
      ],
      [
        355,
        1077
      ],
      [
        352,
        1097
      ],
      [
        341,
        1108
      ],
      [
        322,
        1113
      ],
      [
        302,
        1117
      ],
      [
        283,
        1122
      ],
      [
        264,
        1126
      ],
      [
        246,
        1133
      ],
      [
        239,
        1151
      ],
      [
        232,
        1170
      ],
      [
        239,
        1183
      ],
      [
        257,
        1191
      ],
      [
        275,
        1200
      ],
      [
        291,
        1210
      ],
      [
        304,
        1225
      ],
      [
        316,
        1241
      ],
      [
        322,
        1260
      ],
      [
        329,
        1278
      ],
      [
        335,
        1297
      ],
      [
        342,
        1316
      ],
      [
        348,
        1335
      ],
      [
        354,
        1353
      ],
      [
        369,
        1344
      ],
      [
        385,
        1332
      ],
      [
        400,
        1319
      ],
      [
        416,
        1307
      ],
      [
        431,
        1295
      ],
      [
        447,
        1283
      ],
      [
        463,
        1270
      ],
      [
        478,
        1258
      ],
      [
        494,
        1246
      ],
      [
        509,
        1234
      ],
      [
        528,
        1231
      ],
      [
        548,
        1232
      ],
      [
        565,
        1239
      ],
      [
        580,
        1251
      ],
      [
        596,
        1264
      ],
      [
        611,
        1276
      ],
      [
        627,
        1288
      ],
      [
        642,
        1301
      ],
      [
        660,
        1294
      ],
      [
        678,
        1285
      ],
      [
        688,
        1273
      ],
      [
        685,
        1253
      ],
      [
        685,
        1234
      ],
      [
        693,
        1216
      ],
      [
        700,
        1197
      ],
      [
        687,
        1182
      ],
      [
        674,
        1167
      ],
      [
        661,
        1152
      ],
      [
        661,
        1133
      ],
      [
        663,
        1114
      ],
      [
        671,
        1098
      ],
      [
        690,
        1092
      ],
      [
        709,
        1086
      ],
      [
        727,
        1080
      ],
      [
        744,
        1073
      ],
      [
        745,
        1053
      ],
      [
        746,
        1033
      ],
      [
        746,
        1013
      ],
      [
        747,
        993
      ],
      [
        762,
        982
      ],
      [
        778,
        971
      ],
      [
        796,
        962
      ],
      [
        815,
        961
      ],
      [
        817,
        981
      ],
      [
        819,
        1001
      ],
      [
        821,
        1020
      ],
      [
        823,
        1040
      ],
      [
        825,
        1060
      ],
      [
        827,
        1080
      ],
      [
        842,
        1084
      ],
      [
        862,
        1083
      ],
      [
        882,
        1082
      ],
      [
        902,
        1082
      ],
      [
        921,
        1081
      ],
      [
        941,
        1080
      ],
      [
        960,
        1082
      ],
      [
        978,
        1091
      ],
      [
        995,
        1100
      ],
      [
        1015,
        1104
      ],
      [
        1034,
        1107
      ],
      [
        1054,
        1110
      ],
      [
        1073,
        1113
      ],
      [
        1092,
        1115
      ],
      [
        1098,
        1096
      ],
      [
        1103,
        1077
      ],
      [
        1107,
        1058
      ],
      [
        1099,
        1040
      ],
      [
        1090,
        1022
      ],
      [
        1094,
        1003
      ],
      [
        1101,
        985
      ],
      [
        1107,
        966
      ],
      [
        1118,
        952
      ],
      [
        1137,
        947
      ],
      [
        1156,
        941
      ],
      [
        1175,
        936
      ],
      [
        1195,
        939
      ],
      [
        1214,
        941
      ],
      [
        1234,
        944
      ],
      [
        1254,
        947
      ],
      [
        1263,
        936
      ],
      [
        1267,
        916
      ],
      [
        1270,
        897
      ],
      [
        1273,
        877
      ],
      [
        1286,
        863
      ],
      [
        1301,
        850
      ],
      [
        1307,
        834
      ],
      [
        1303,
        815
      ],
      [
        1299,
        796
      ],
      [
        1302,
        776
      ],
      [
        1307,
        757
      ],
      [
        1312,
        738
      ],
      [
        1318,
        719
      ],
      [
        1323,
        700
      ],
      [
        1322,
        683
      ],
      [
        1306,
        671
      ],
      [
        1291,
        659
      ],
      [
        1301,
        643
      ],
      [
        1308,
        630
      ],
      [
        1288,
        630
      ],
      [
        1289,
        612
      ],
      [
        1291,
        593
      ],
      [
        1294,
        573
      ],
      [
        1297,
        554
      ],
      [
        1300,
        534
      ],
      [
        1303,
        514
      ],
      [
        1306,
        495
      ],
      [
        1324,
        499
      ],
      [
        1343,
        505
      ],
      [
        1357,
        519
      ],
      [
        1372,
        532
      ],
      [
        1386,
        546
      ],
      [
        1401,
        559
      ],
      [
        1417,
        570
      ],
      [
        1436,
        578
      ],
      [
        1454,
        586
      ],
      [
        1472,
        594
      ],
      [
        1490,
        602
      ],
      [
        1508,
        610
      ],
      [
        1520,
        623
      ],
      [
        1524,
        642
      ],
      [
        1528,
        661
      ],
      [
        1532,
        681
      ],
      [
        1531,
        701
      ],
      [
        1530,
        720
      ],
      [
        1529,
        740
      ],
      [
        1527,
        760
      ],
      [
        1518,
        776
      ],
      [
        1505,
        791
      ],
      [
        1494,
        806
      ],
      [
        1499,
        825
      ],
      [
        1505,
        844
      ],
      [
        1511,
        863
      ],
      [
        1517,
        882
      ],
      [
        1523,
        901
      ],
      [
        1528,
        920
      ],
      [
        1542,
        924
      ],
      [
        1560,
        918
      ],
      [
        1579,
        912
      ],
      [
        1588,
        898
      ],
      [
        1604,
        890
      ],
      [
        1623,
        884
      ],
      [
        1642,
        879
      ],
      [
        1661,
        873
      ],
      [
        1680,
        867
      ],
      [
        1699,
        862
      ],
      [
        1715,
        852
      ],
      [
        1724,
        835
      ],
      [
        1734,
        817
      ],
      [
        1743,
        800
      ],
      [
        1752,
        782
      ],
      [
        1762,
        765
      ],
      [
        1766,
        747
      ],
      [
        1760,
        728
      ],
      [
        1754,
        709
      ],
      [
        1748,
        690
      ],
      [
        1742,
        671
      ],
      [
        1736,
        652
      ],
      [
        1730,
        633
      ],
      [
        1724,
        615
      ],
      [
        1718,
        596
      ],
      [
        1719,
        577
      ],
      [
        1723,
        557
      ],
      [
        1727,
        538
      ],
      [
        1731,
        518
      ],
      [
        1742,
        502
      ],
      [
        1755,
        489
      ],
      [
        1775,
        492
      ],
      [
        1795,
        494
      ],
      [
        1809,
        486
      ],
      [
        1817,
        468
      ],
      [
        1825,
        450
      ],
      [
        1833,
        432
      ],
      [
        1841,
        414
      ],
      [
        1847,
        395
      ],
      [
        1849,
        376
      ],
      [
        1851,
        356
      ],
      [
        1853,
        336
      ],
      [
        1869,
        329
      ],
      [
        1888,
        324
      ],
      [
        1907,
        321
      ],
      [
        1924,
        331
      ],
      [
        1943,
        336
      ],
      [
        1963,
        337
      ],
      [
        1982,
        338
      ],
      [
        2002,
        339
      ],
      [
        2019,
        337
      ],
      [
        2019,
        317
      ],
      [
        2019,
        297
      ],
      [
        2019,
        278
      ],
      [
        2019,
        258
      ],
      [
        2019,
        238
      ],
      [
        2019,
        218
      ],
      [
        2019,
        198
      ],
      [
        2019,
        178
      ],
      [
        2019,
        159
      ],
      [
        2019,
        139
      ],
      [
        2019,
        119
      ],
      [
        2019,
        99
      ],
      [
        2019,
        79
      ],
      [
        2019,
        60
      ],
      [
        2019,
        40
      ],
      [
        2019,
        20
      ],
      [
        2019,
        0
      ],
      [
        1999,
        0
      ],
      [
        1980,
        0
      ],
      [
        1960,
        0
      ],
      [
        1940,
        0
      ],
      [
        1920,
        0
      ],
      [
        1900,
        0
      ],
      [
        1881,
        0
      ],
      [
        1861,
        0
      ],
      [
        1841,
        0
      ],
      [
        1821,
        0
      ],
      [
        1801,
        0
      ],
      [
        1781,
        0
      ],
      [
        1762,
        0
      ],
      [
        1742,
        0
      ],
      [
        1722,
        0
      ],
      [
        1702,
        0
      ],
      [
        1682,
        0
      ],
      [
        1663,
        0
      ],
      [
        1643,
        0
      ],
      [
        1623,
        0
      ],
      [
        1603,
        0
      ],
      [
        1583,
        0
      ],
      [
        1564,
        0
      ],
      [
        1544,
        0
      ],
      [
        1524,
        0
      ],
      [
        1504,
        0
      ],
      [
        1484,
        0
      ],
      [
        1464,
        0
      ],
      [
        1445,
        0
      ],
      [
        1425,
        0
      ],
      [
        1405,
        0
      ],
      [
        1385,
        0
      ],
      [
        1365,
        0
      ],
      [
        1346,
        0
      ],
      [
        1326,
        0
      ],
      [
        1306,
        0
      ],
      [
        1286,
        0
      ],
      [
        1266,
        0
      ],
      [
        1247,
        0
      ],
      [
        1227,
        0
      ],
      [
        1207,
        0
      ],
      [
        1187,
        0
      ],
      [
        1167,
        0
      ],
      [
        1148,
        0
      ],
      [
        1128,
        0
      ],
      [
        1108,
        0
      ],
      [
        1088,
        0
      ],
      [
        1068,
        0
      ],
      [
        1048,
        0
      ],
      [
        1029,
        0
      ],
      [
        1009,
        0
      ],
      [
        989,
        0
      ],
      [
        969,
        0
      ],
      [
        949,
        0
      ],
      [
        930,
        0
      ],
      [
        910,
        0
      ],
      [
        890,
        0
      ],
      [
        870,
        0
      ],
      [
        850,
        0
      ],
      [
        831,
        0
      ],
      [
        811,
        0
      ],
      [
        791,
        0
      ],
      [
        771,
        0
      ],
      [
        751,
        0
      ],
      [
        731,
        0
      ],
      [
        712,
        0
      ],
      [
        692,
        0
      ],
      [
        672,
        0
      ],
      [
        652,
        0
      ],
      [
        632,
        0
      ],
      [
        613,
        0
      ],
      [
        593,
        0
      ],
      [
        573,
        0
      ],
      [
        553,
        0
      ],
      [
        533,
        0
      ],
      [
        514,
        0
      ],
      [
        494,
        0
      ],
      [
        474,
        0
      ],
      [
        454,
        0
      ],
      [
        434,
        0
      ],
      [
        414,
        0
      ],
      [
        395,
        0
      ],
      [
        375,
        0
      ],
      [
        355,
        0
      ],
      [
        335,
        0
      ],
      [
        315,
        0
      ],
      [
        296,
        0
      ],
      [
        276,
        0
      ],
      [
        256,
        0
      ],
      [
        236,
        0
      ],
      [
        216,
        0
      ],
      [
        197,
        0
      ],
      [
        177,
        0
      ],
      [
        157,
        0
      ],
      [
        137,
        0
      ],
      [
        131,
        14
      ],
      [
        132,
        33
      ],
      [
        133,
        53
      ],
      [
        133,
        73
      ],
      [
        134,
        93
      ],
      [
        134,
        113
      ],
      [
        134,
        131
      ],
      [
        115,
        137
      ],
      [
        96,
        143
      ],
      [
        78,
        145
      ],
      [
        66,
        130
      ],
      [
        53,
        121
      ],
      [
        36,
        131
      ],
      [
        25,
        146
      ]
    ],
    "seats": []
  },
  "features": [
    {
      "type": "Feature",
      "properties": {
        "kind": "state_boundary",
        "state": "兖州",
        "color": "#C62828"
      },
      "geometry": {
        "type": "Polygon",
        "coordinates": [
          [
            [
              111.35657,
              33.05792
            ],
            [
              111.42684,
              33.10772
            ],
            [
              111.49712,
              33.15753
            ],
            [
              111.54397,
              33.21116
            ],
            [
              111.52054,
              33.28778
            ],
            [
              111.52054,
              33.35674
            ],
            [
              111.59081,
              33.40654
            ],
            [
              111.66109,
              33.45252
            ],
            [
              111.73136,
              33.50232
            ],
            [
              111.81101,
              33.54063
            ],
            [
              111.90002,
              33.55978
            ],
            [
              111.98904,
              33.57894
            ],
            [
              112.07805,
              33.60193
            ],
            [
              112.17175,
              33.62108
            ],
            [
              112.25608,
              33.64407
            ],
            [
              112.32167,
              33.6977
            ],
            [
              112.38726,
              33.75517
            ],
            [
              112.44816,
              33.8088
            ],
            [
              112.51844,
              33.85477
            ],
            [
              112.61214,
              33.8701
            ],
            [
              112.70115,
              33.88542
            ],
            [
              112.79485,
              33.90075
            ],
            [
              112.88387,
              33.9199
            ],
            [
              112.97288,
              33.93523
            ],
            [
              112.97288,
              34.00802
            ],
            [
              112.9682,
              34.08464
            ],
            [
              112.95883,
              34.16126
            ],
            [
              112.95414,
              34.23405
            ],
            [
              113.00099,
              34.29917
            ],
            [
              113.05252,
              34.36047
            ],
            [
              113.10406,
              34.4256
            ],
            [
              113.08532,
              34.49839
            ],
            [
              113.05721,
              34.57118
            ],
            [
              113.0291,
              34.64397
            ],
            [
              112.96351,
              34.68994
            ],
            [
              112.88855,
              34.73208
            ],
            [
              112.80891,
              34.77422
            ],
            [
              112.72926,
              34.81636
            ],
            [
              112.71989,
              34.88915
            ],
            [
              112.70584,
              34.96577
            ],
            [
              112.69647,
              35.03856
            ],
            [
              112.68241,
              35.11518
            ],
            [
              112.63556,
              35.16882
            ],
            [
              112.55123,
              35.20713
            ],
            [
              112.47159,
              35.24544
            ],
            [
              112.42474,
              35.31057
            ],
            [
              112.3732,
              35.37186
            ],
            [
              112.32167,
              35.43699
            ],
            [
              112.27482,
              35.50212
            ],
            [
              112.18581,
              35.51744
            ],
            [
              112.23734,
              35.58257
            ],
            [
              112.28888,
              35.64386
            ],
            [
              112.33572,
              35.70899
            ],
            [
              112.38726,
              35.77412
            ],
            [
              112.43879,
              35.83542
            ],
            [
              112.46222,
              35.90821
            ],
            [
              112.48096,
              35.98483
            ],
            [
              112.4997,
              36.05762
            ],
            [
              112.51844,
              36.13041
            ],
            [
              112.53718,
              36.20703
            ],
            [
              112.55592,
              36.27982
            ],
            [
              112.57934,
              36.35261
            ],
            [
              112.65899,
              36.38708
            ],
            [
              112.74332,
              36.42156
            ],
            [
              112.82765,
              36.45221
            ],
            [
              112.91198,
              36.48669
            ],
            [
              112.92135,
              36.55182
            ],
            [
              112.90729,
              36.62844
            ],
            [
              112.85576,
              36.67058
            ],
            [
              112.76674,
              36.68974
            ],
            [
              112.67304,
              36.70506
            ],
            [
              112.58403,
              36.72422
            ],
            [
              112.49501,
              36.73954
            ],
            [
              112.41068,
              36.76636
            ],
            [
              112.37789,
              36.83532
            ],
            [
              112.34509,
              36.9081
            ],
            [
              112.37789,
              36.95791
            ],
            [
              112.46222,
              36.98856
            ],
            [
              112.54655,
              37.02304
            ],
            [
              112.62151,
              37.06135
            ],
            [
              112.68241,
              37.11881
            ],
            [
              112.73863,
              37.18011
            ],
            [
              112.76674,
              37.2529
            ],
            [
              112.79954,
              37.32186
            ],
            [
              112.82765,
              37.39465
            ],
            [
              112.86044,
              37.46743
            ],
            [
              112.88855,
              37.54022
            ],
            [
              112.91666,
              37.60918
            ],
            [
              112.98694,
              37.5747
            ],
            [
              113.06189,
              37.52873
            ],
            [
              113.13217,
              37.47893
            ],
            [
              113.20713,
              37.43296
            ],
            [
              113.2774,
              37.38698
            ],
            [
              113.35236,
              37.34101
            ],
            [
              113.42732,
              37.29121
            ],
            [
              113.4976,
              37.24524
            ],
            [
              113.57256,
              37.19926
            ],
            [
              113.64283,
              37.15329
            ],
            [
              113.73185,
              37.1418
            ],
            [
              113.82554,
              37.14563
            ],
            [
              113.90519,
              37.17245
            ],
            [
              113.97546,
              37.21842
            ],
            [
              114.05042,
              37.26822
            ],
            [
              114.1207,
              37.31419
            ],
            [
              114.19566,
              37.36017
            ],
            [
              114.26593,
              37.40997
            ],
            [
              114.35026,
              37.38315
            ],
            [
              114.43459,
              37.34867
            ],
            [
              114.48144,
              37.3027
            ],
            [
              114.46739,
              37.22608
            ],
            [
              114.46739,
              37.15329
            ],
            [
              114.50487,
              37.08433
            ],
            [
              114.53766,
              37.01154
            ],
            [
              114.47676,
              36.95408
            ],
            [
              114.41585,
              36.89661
            ],
            [
              114.35495,
              36.83915
            ],
            [
              114.35495,
              36.76636
            ],
            [
              114.36432,
              36.69357
            ],
            [
              114.4018,
              36.63227
            ],
            [
              114.49081,
              36.60928
            ],
            [
              114.57982,
              36.5863
            ],
            [
              114.66415,
              36.56331
            ],
            [
              114.7438,
              36.53649
            ],
            [
              114.74848,
              36.45987
            ],
            [
              114.75317,
              36.38325
            ],
            [
              114.75317,
              36.30663
            ],
            [
              114.75785,
              36.23001
            ],
            [
              114.82813,
              36.18787
            ],
            [
              114.90309,
              36.14573
            ],
            [
              114.98742,
              36.11125
            ],
            [
              115.07643,
              36.10742
            ],
            [
              115.0858,
              36.18404
            ],
            [
              115.09517,
              36.26066
            ],
            [
              115.10454,
              36.33345
            ],
            [
              115.11391,
              36.41007
            ],
            [
              115.12328,
              36.48669
            ],
            [
              115.13265,
              36.56331
            ],
            [
              115.20293,
              36.57864
            ],
            [
              115.29662,
              36.57481
            ],
            [
              115.39032,
              36.57097
            ],
            [
              115.48402,
              36.57097
            ],
            [
              115.57304,
              36.56714
            ],
            [
              115.66674,
              36.56331
            ],
            [
              115.75575,
              36.57097
            ],
            [
              115.84008,
              36.60545
            ],
            [
              115.91973,
              36.63993
            ],
            [
              116.01342,
              36.65526
            ],
            [
              116.10244,
              36.66675
            ],
            [
              116.19614,
              36.67824
            ],
            [
              116.28515,
              36.68974
            ],
            [
              116.37417,
              36.6974
            ],
            [
              116.40228,
              36.62461
            ],
            [
              116.4257,
              36.55182
            ],
            [
              116.44444,
              36.47903
            ],
            [
              116.40696,
              36.41007
            ],
            [
              116.3648,
              36.34111
            ],
            [
              116.38354,
              36.26832
            ],
            [
              116.41633,
              36.19936
            ],
            [
              116.44444,
              36.12657
            ],
            [
              116.49598,
              36.07294
            ],
            [
              116.58499,
              36.05379
            ],
            [
              116.67401,
              36.0308
            ],
            [
              116.76302,
              36.01164
            ],
            [
              116.85672,
              36.02314
            ],
            [
              116.94573,
              36.0308
            ],
            [
              117.03943,
              36.04229
            ],
            [
              117.13313,
              36.05379
            ],
            [
              117.1753,
              36.01164
            ],
            [
              117.19404,
              35.93502
            ],
            [
              117.20809,
              35.86223
            ],
            [
              117.22215,
              35.78561
            ],
            [
              117.28305,
              35.73198
            ],
            [
              117.35333,
              35.68218
            ],
            [
              117.38144,
              35.62088
            ],
            [
              117.3627,
              35.54809
            ],
            [
              117.34396,
              35.4753
            ],
            [
              117.35801,
              35.39868
            ],
            [
              117.38144,
              35.32589
            ],
            [
              117.40486,
              35.2531
            ],
            [
              117.43297,
              35.18031
            ],
            [
              117.4564,
              35.10752
            ],
            [
              117.45171,
              35.04239
            ],
            [
              117.37675,
              34.99642
            ],
            [
              117.30648,
              34.95045
            ],
            [
              117.35333,
              34.88915
            ],
            [
              117.38612,
              34.83935
            ],
            [
              117.29242,
              34.83935
            ],
            [
              117.29711,
              34.77039
            ],
            [
              117.30648,
              34.6976
            ],
            [
              117.32053,
              34.62098
            ],
            [
              117.33459,
              34.54819
            ],
            [
              117.34864,
              34.47157
            ],
            [
              117.3627,
              34.39495
            ],
            [
              117.37675,
              34.32216
            ],
            [
              117.46108,
              34.33748
            ],
            [
              117.55009,
              34.36047
            ],
            [
              117.61568,
              34.4141
            ],
            [
              117.68596,
              34.46391
            ],
            [
              117.75155,
              34.51754
            ],
            [
              117.82182,
              34.56735
            ],
            [
              117.89678,
              34.60949
            ],
            [
              117.9858,
              34.64014
            ],
            [
              118.07013,
              34.67078
            ],
            [
              118.15446,
              34.70143
            ],
            [
              118.23878,
              34.73208
            ],
            [
              118.32311,
              34.76273
            ],
            [
              118.37933,
              34.81253
            ],
            [
              118.39807,
              34.88532
            ],
            [
              118.41681,
              34.95811
            ],
            [
              118.43555,
              35.03473
            ],
            [
              118.43087,
              35.11135
            ],
            [
              118.42618,
              35.18414
            ],
            [
              118.4215,
              35.26076
            ],
            [
              118.41213,
              35.33738
            ],
            [
              118.36996,
              35.39868
            ],
            [
              118.30906,
              35.45614
            ],
            [
              118.25752,
              35.51361
            ],
            [
              118.28095,
              35.5864
            ],
            [
              118.30906,
              35.65919
            ],
            [
              118.33717,
              35.73198
            ],
            [
              118.36528,
              35.80477
            ],
            [
              118.39339,
              35.87756
            ],
            [
              118.41681,
              35.95035
            ],
            [
              118.4824,
              35.96567
            ],
            [
              118.56673,
              35.94269
            ],
            [
              118.65575,
              35.9197
            ],
            [
              118.69791,
              35.86606
            ],
            [
              118.77287,
              35.83542
            ],
            [
              118.86189,
              35.81243
            ],
            [
              118.9509,
              35.79328
            ],
            [
              119.03991,
              35.77029
            ],
            [
              119.12893,
              35.7473
            ],
            [
              119.21794,
              35.72815
            ],
            [
              119.2929,
              35.68984
            ],
            [
              119.33507,
              35.62471
            ],
            [
              119.38192,
              35.55575
            ],
            [
              119.42408,
              35.49062
            ],
            [
              119.46625,
              35.42167
            ],
            [
              119.5131,
              35.35654
            ],
            [
              119.53184,
              35.28758
            ],
            [
              119.50373,
              35.21479
            ],
            [
              119.47562,
              35.142
            ],
            [
              119.44751,
              35.06921
            ],
            [
              119.4194,
              34.99642
            ],
            [
              119.39129,
              34.92363
            ],
            [
              119.36318,
              34.85084
            ],
            [
              119.33507,
              34.78188
            ],
            [
              119.30696,
              34.70909
            ],
            [
              119.31164,
              34.6363
            ],
            [
              119.33038,
              34.55968
            ],
            [
              119.34912,
              34.48689
            ],
            [
              119.36786,
              34.41027
            ],
            [
              119.4194,
              34.34898
            ],
            [
              119.4803,
              34.29917
            ],
            [
              119.574,
              34.31067
            ],
            [
              119.6677,
              34.31833
            ],
            [
              119.73329,
              34.28768
            ],
            [
              119.77077,
              34.21872
            ],
            [
              119.80825,
              34.14976
            ],
            [
              119.84573,
              34.0808
            ],
            [
              119.88321,
              34.01185
            ],
            [
              119.91132,
              33.93906
            ],
            [
              119.92069,
              33.86627
            ],
            [
              119.93006,
              33.78965
            ],
            [
              119.93943,
              33.71303
            ],
            [
              120.01439,
              33.68621
            ],
            [
              120.1034,
              33.66705
            ],
            [
              120.19242,
              33.65556
            ],
            [
              120.27206,
              33.69387
            ],
            [
              120.36108,
              33.71303
            ],
            [
              120.45477,
              33.71686
            ],
            [
              120.54379,
              33.72069
            ],
            [
              120.63749,
              33.72452
            ],
            [
              120.71713,
              33.71686
            ],
            [
              120.71713,
              33.64024
            ],
            [
              120.71713,
              33.56362
            ],
            [
              120.71713,
              33.49083
            ],
            [
              120.71713,
              33.41421
            ],
            [
              120.71713,
              33.33759
            ],
            [
              120.71713,
              33.26096
            ],
            [
              120.71713,
              33.18434
            ],
            [
              120.71713,
              33.10772
            ],
            [
              120.71713,
              33.03493
            ],
            [
              120.71713,
              32.95831
            ],
            [
              120.71713,
              32.88169
            ],
            [
              120.71713,
              32.80507
            ],
            [
              120.71713,
              32.72845
            ],
            [
              120.71713,
              32.65566
            ],
            [
              120.71713,
              32.57904
            ],
            [
              120.71713,
              32.50242
            ],
            [
              120.71713,
              32.4258
            ],
            [
              120.62343,
              32.4258
            ],
            [
              120.53442,
              32.4258
            ],
            [
              120.44072,
              32.4258
            ],
            [
              120.34702,
              32.4258
            ],
            [
              120.25332,
              32.4258
            ],
            [
              120.15962,
              32.4258
            ],
            [
              120.07061,
              32.4258
            ],
            [
              119.97691,
              32.4258
            ],
            [
              119.88321,
              32.4258
            ],
            [
              119.78951,
              32.4258
            ],
            [
              119.69581,
              32.4258
            ],
            [
              119.60211,
              32.4258
            ],
            [
              119.5131,
              32.4258
            ],
            [
              119.4194,
              32.4258
            ],
            [
              119.3257,
              32.4258
            ],
            [
              119.232,
              32.4258
            ],
            [
              119.1383,
              32.4258
            ],
            [
              119.04928,
              32.4258
            ],
            [
              118.95558,
              32.4258
            ],
            [
              118.86189,
              32.4258
            ],
            [
              118.76819,
              32.4258
            ],
            [
              118.67449,
              32.4258
            ],
            [
              118.58547,
              32.4258
            ],
            [
              118.49177,
              32.4258
            ],
            [
              118.39807,
              32.4258
            ],
            [
              118.30437,
              32.4258
            ],
            [
              118.21067,
              32.4258
            ],
            [
              118.11698,
              32.4258
            ],
            [
              118.02796,
              32.4258
            ],
            [
              117.93426,
              32.4258
            ],
            [
              117.84056,
              32.4258
            ],
            [
              117.74686,
              32.4258
            ],
            [
              117.65316,
              32.4258
            ],
            [
              117.56415,
              32.4258
            ],
            [
              117.47045,
              32.4258
            ],
            [
              117.37675,
              32.4258
            ],
            [
              117.28305,
              32.4258
            ],
            [
              117.18935,
              32.4258
            ],
            [
              117.10034,
              32.4258
            ],
            [
              117.00664,
              32.4258
            ],
            [
              116.91294,
              32.4258
            ],
            [
              116.81924,
              32.4258
            ],
            [
              116.72554,
              32.4258
            ],
            [
              116.63653,
              32.4258
            ],
            [
              116.54283,
              32.4258
            ],
            [
              116.44913,
              32.4258
            ],
            [
              116.35543,
              32.4258
            ],
            [
              116.26173,
              32.4258
            ],
            [
              116.16803,
              32.4258
            ],
            [
              116.07901,
              32.4258
            ],
            [
              115.98532,
              32.4258
            ],
            [
              115.89162,
              32.4258
            ],
            [
              115.79792,
              32.4258
            ],
            [
              115.70422,
              32.4258
            ],
            [
              115.6152,
              32.4258
            ],
            [
              115.5215,
              32.4258
            ],
            [
              115.4278,
              32.4258
            ],
            [
              115.3341,
              32.4258
            ],
            [
              115.24041,
              32.4258
            ],
            [
              115.15139,
              32.4258
            ],
            [
              115.05769,
              32.4258
            ],
            [
              114.96399,
              32.4258
            ],
            [
              114.87029,
              32.4258
            ],
            [
              114.77659,
              32.4258
            ],
            [
              114.68289,
              32.4258
            ],
            [
              114.59388,
              32.4258
            ],
            [
              114.50018,
              32.4258
            ],
            [
              114.40648,
              32.4258
            ],
            [
              114.31278,
              32.4258
            ],
            [
              114.21908,
              32.4258
            ],
            [
              114.13007,
              32.4258
            ],
            [
              114.03637,
              32.4258
            ],
            [
              113.94267,
              32.4258
            ],
            [
              113.84897,
              32.4258
            ],
            [
              113.75527,
              32.4258
            ],
            [
              113.66626,
              32.4258
            ],
            [
              113.57256,
              32.4258
            ],
            [
              113.47886,
              32.4258
            ],
            [
              113.38516,
              32.4258
            ],
            [
              113.29146,
              32.4258
            ],
            [
              113.19776,
              32.4258
            ],
            [
              113.10874,
              32.4258
            ],
            [
              113.01505,
              32.4258
            ],
            [
              112.92135,
              32.4258
            ],
            [
              112.82765,
              32.4258
            ],
            [
              112.73395,
              32.4258
            ],
            [
              112.64493,
              32.4258
            ],
            [
              112.55123,
              32.4258
            ],
            [
              112.45753,
              32.4258
            ],
            [
              112.36383,
              32.4258
            ],
            [
              112.27014,
              32.4258
            ],
            [
              112.18112,
              32.4258
            ],
            [
              112.08742,
              32.4258
            ],
            [
              111.99372,
              32.4258
            ],
            [
              111.90002,
              32.4258
            ],
            [
              111.87191,
              32.47943
            ],
            [
              111.8766,
              32.55222
            ],
            [
              111.88128,
              32.62884
            ],
            [
              111.88128,
              32.70547
            ],
            [
              111.88597,
              32.78209
            ],
            [
              111.88597,
              32.85871
            ],
            [
              111.88597,
              32.92766
            ],
            [
              111.79695,
              32.95065
            ],
            [
              111.70794,
              32.97364
            ],
            [
              111.62361,
              32.9813
            ],
            [
              111.56739,
              32.92383
            ],
            [
              111.50649,
              32.88935
            ],
            [
              111.42684,
              32.92766
            ],
            [
              111.37531,
              32.98513
            ],
            [
              111.35657,
              33.05792
            ]
          ]
        ]
      }
    }
  ]
}