{
  "type": "FeatureCollection",
  "metadata": {
    "state": "冀州",
    "color": "#D27370",
    "gcps": 7,
    "max_err_km": 2.7,
    "avg_err_km": 1.7
  },
  "pixels": {
    "gcps": [
      {
        "px": 846,
        "py": 575,
        "lon": 114.514,
        "lat": 38.042,
        "name": "石家庄"
      },
      {
        "px": 1278,
        "py": 18,
        "lon": 116.407,
        "lat": 39.904,
        "name": "北京"
      },
      {
        "px": 1463,
        "py": 268,
        "lon": 117.201,
        "lat": 39.085,
        "name": "天津"
      },
      {
        "px": 1064,
        "py": 330,
        "lon": 115.464,
        "lat": 38.873,
        "name": "保定"
      },
      {
        "px": 1380,
        "py": 498,
        "lon": 116.838,
        "lat": 38.304,
        "name": "沧州"
      },
      {
        "px": 1111,
        "py": 663,
        "lon": 115.665,
        "lat": 37.735,
        "name": "衡水"
      },
      {
        "px": 852,
        "py": 984,
        "lon": 114.491,
        "lat": 36.613,
        "name": "邯郸"
      }
    ],
    "bnd": [
      [
        722,
        263
      ],
      [
        704,
        287
      ],
      [
        684,
        288
      ],
      [
        688,
        311
      ],
      [
        699,
        329
      ],
      [
        700,
        350
      ],
      [
        684,
        356
      ],
      [
        683,
        373
      ],
      [
        665,
        397
      ],
      [
        649,
        393
      ],
      [
        634,
        416
      ],
      [
        627,
        466
      ],
      [
        634,
        480
      ],
      [
        630,
        497
      ],
      [
        641,
        514
      ],
      [
        645,
        530
      ],
      [
        641,
        558
      ],
      [
        615,
        585
      ],
      [
        601,
        611
      ],
      [
        595,
        645
      ],
      [
        608,
        675
      ],
      [
        635,
        679
      ],
      [
        653,
        714
      ],
      [
        715,
        749
      ],
      [
        717,
        766
      ],
      [
        702,
        782
      ],
      [
        696,
        794
      ],
      [
        694,
        807
      ],
      [
        684,
        823
      ],
      [
        673,
        832
      ],
      [
        670,
        871
      ],
      [
        675,
        892
      ],
      [
        674,
        916
      ],
      [
        677,
        944
      ],
      [
        670,
        956
      ],
      [
        653,
        965
      ],
      [
        649,
        964
      ],
      [
        641,
        967
      ],
      [
        631,
        959
      ],
      [
        625,
        946
      ],
      [
        606,
        956
      ],
      [
        600,
        979
      ],
      [
        619,
        986
      ],
      [
        615,
        993
      ],
      [
        628,
        997
      ],
      [
        620,
        1021
      ],
      [
        654,
        1052
      ],
      [
        663,
        1052
      ],
      [
        716,
        1071
      ],
      [
        727,
        1079
      ],
      [
        749,
        1105
      ],
      [
        766,
        1113
      ],
      [
        812,
        1121
      ],
      [
        814,
        1130
      ],
      [
        808,
        1172
      ],
      [
        829,
        1203
      ],
      [
        826,
        1223
      ],
      [
        817,
        1241
      ],
      [
        798,
        1250
      ],
      [
        777,
        1267
      ],
      [
        770,
        1287
      ],
      [
        769,
        1311
      ],
      [
        770,
        1322
      ],
      [
        788,
        1316
      ],
      [
        800,
        1312
      ],
      [
        823,
        1298
      ],
      [
        836,
        1282
      ],
      [
        844,
        1256
      ],
      [
        861,
        1242
      ],
      [
        879,
        1236
      ],
      [
        932,
        1234
      ],
      [
        935,
        1228
      ],
      [
        931,
        1204
      ],
      [
        936,
        1186
      ],
      [
        942,
        1177
      ],
      [
        957,
        1176
      ],
      [
        970,
        1172
      ],
      [
        981,
        1163
      ],
      [
        982,
        1150
      ],
      [
        977,
        1143
      ],
      [
        964,
        1140
      ],
      [
        954,
        1134
      ],
      [
        948,
        1123
      ],
      [
        952,
        1114
      ],
      [
        961,
        1104
      ],
      [
        973,
        1102
      ],
      [
        990,
        1106
      ],
      [
        999,
        1112
      ],
      [
        1008,
        1124
      ],
      [
        1011,
        1135
      ],
      [
        1019,
        1139
      ],
      [
        1029,
        1124
      ],
      [
        1044,
        1117
      ],
      [
        1054,
        1119
      ],
      [
        1054,
        1095
      ],
      [
        1048,
        1077
      ],
      [
        1051,
        1059
      ],
      [
        1050,
        1038
      ],
      [
        1056,
        1019
      ],
      [
        1063,
        1009
      ],
      [
        1068,
        993
      ],
      [
        1070,
        972
      ],
      [
        1117,
        970
      ],
      [
        1171,
        952
      ],
      [
        1198,
        955
      ],
      [
        1225,
        955
      ],
      [
        1243,
        945
      ],
      [
        1251,
        937
      ],
      [
        1256,
        919
      ],
      [
        1257,
        870
      ],
      [
        1239,
        852
      ],
      [
        1237,
        834
      ],
      [
        1246,
        821
      ],
      [
        1250,
        809
      ],
      [
        1255,
        801
      ],
      [
        1249,
        781
      ],
      [
        1248,
        761
      ],
      [
        1251,
        742
      ],
      [
        1246,
        728
      ],
      [
        1251,
        706
      ],
      [
        1261,
        694
      ],
      [
        1262,
        681
      ],
      [
        1270,
        667
      ],
      [
        1284,
        658
      ],
      [
        1294,
        661
      ],
      [
        1297,
        677
      ],
      [
        1308,
        692
      ],
      [
        1311,
        705
      ],
      [
        1322,
        722
      ],
      [
        1343,
        744
      ],
      [
        1375,
        737
      ],
      [
        1383,
        725
      ],
      [
        1393,
        720
      ],
      [
        1402,
        712
      ],
      [
        1415,
        705
      ],
      [
        1423,
        689
      ],
      [
        1435,
        684
      ],
      [
        1442,
        680
      ],
      [
        1452,
        679
      ],
      [
        1462,
        669
      ],
      [
        1472,
        665
      ],
      [
        1485,
        666
      ],
      [
        1498,
        653
      ],
      [
        1515,
        658
      ],
      [
        1528,
        657
      ],
      [
        1540,
        661
      ],
      [
        1551,
        677
      ],
      [
        1563,
        680
      ],
      [
        1580,
        690
      ],
      [
        1610,
        697
      ],
      [
        1628,
        684
      ],
      [
        1628,
        684
      ],
      [
        1638,
        669
      ],
      [
        1638,
        667
      ],
      [
        1623,
        664
      ],
      [
        1617,
        644
      ],
      [
        1602,
        624
      ],
      [
        1595,
        603
      ],
      [
        1592,
        583
      ],
      [
        1586,
        560
      ],
      [
        1569,
        540
      ],
      [
        1550,
        522
      ],
      [
        1533,
        489
      ],
      [
        1527,
        462
      ],
      [
        1504,
        437
      ],
      [
        1499,
        428
      ],
      [
        1496,
        404
      ],
      [
        1486,
        388
      ],
      [
        1478,
        307
      ],
      [
        1487,
        290
      ],
      [
        1441,
        271
      ],
      [
        1420,
        254
      ],
      [
        1402,
        274
      ],
      [
        1383,
        280
      ],
      [
        1368,
        283
      ],
      [
        1348,
        284
      ],
      [
        1314,
        285
      ],
      [
        1287,
        280
      ],
      [
        1225,
        278
      ],
      [
        1170,
        285
      ],
      [
        1140,
        308
      ],
      [
        1128,
        323
      ],
      [
        1117,
        354
      ],
      [
        1109,
        389
      ],
      [
        1078,
        388
      ],
      [
        1047,
        337
      ],
      [
        1051,
        289
      ],
      [
        1049,
        275
      ],
      [
        980,
        236
      ],
      [
        934,
        214
      ],
      [
        920,
        196
      ],
      [
        918,
        180
      ],
      [
        930,
        151
      ],
      [
        947,
        129
      ],
      [
        967,
        104
      ],
      [
        942,
        95
      ],
      [
        909,
        102
      ],
      [
        874,
        114
      ],
      [
        846,
        170
      ],
      [
        847,
        189
      ],
      [
        835,
        197
      ],
      [
        835,
        212
      ],
      [
        831,
        235
      ],
      [
        808,
        248
      ],
      [
        790,
        270
      ],
      [
        756,
        270
      ],
      [
        722,
        263
      ]
    ],
    "seats": [
      {
        "px": 953,
        "py": 432,
        "name": "中山国/卢奴",
        "role": "郡治"
      },
      {
        "px": 823,
        "py": 637,
        "name": "常山/元氏",
        "role": "郡治"
      },
      {
        "px": 910,
        "py": 726,
        "name": "巨鹿/廮陶",
        "role": "郡治"
      },
      {
        "px": 824,
        "py": 993,
        "name": "赵国/邯郸",
        "role": "郡治"
      },
      {
        "px": 1122,
        "py": 915,
        "name": "清河国/甘陵",
        "role": "郡治"
      },
      {
        "px": 1077,
        "py": 705,
        "name": "安平国/信都",
        "role": "郡治"
      },
      {
        "px": 1340,
        "py": 556,
        "name": "渤海郡/南皮",
        "role": "commandery"
      },
      {
        "px": 1224,
        "py": 538,
        "name": "河间国/乐成",
        "role": "commandery"
      },
      {
        "px": 807,
        "py": 1082,
        "name": "魏国/邺县",
        "role": "capital"
      }
    ]
  },
  "features": [
    {
      "type": "Feature",
      "properties": {
        "kind": "state_boundary",
        "state": "冀州",
        "color": "#D27370"
      },
      "geometry": {
        "type": "Polygon",
        "coordinates": [
          [
            [
              113.98028,
              39.08323
            ],
            [
              113.90061,
              39.00128
            ],
            [
              113.81348,
              38.99749
            ],
            [
              113.82965,
              38.91936
            ],
            [
              113.87656,
              38.85837
            ],
            [
              113.87977,
              38.78698
            ],
            [
              113.80979,
              38.76627
            ],
            [
              113.80451,
              38.70844
            ],
            [
              113.72484,
              38.62649
            ],
            [
              113.6554,
              38.63978
            ],
            [
              113.58885,
              38.56128
            ],
            [
              113.55566,
              38.39113
            ],
            [
              113.58537,
              38.34366
            ],
            [
              113.56704,
              38.28578
            ],
            [
              113.614,
              38.22819
            ],
            [
              113.63054,
              38.17386
            ],
            [
              113.61161,
              38.07857
            ],
            [
              113.49695,
              37.98626
            ],
            [
              113.43459,
              37.89758
            ],
            [
              113.40662,
              37.78185
            ],
            [
              113.46158,
              37.68009
            ],
            [
              113.57891,
              37.66701
            ],
            [
              113.65537,
              37.54835
            ],
            [
              113.92339,
              37.43054
            ],
            [
              113.93117,
              37.37277
            ],
            [
              113.865,
              37.31808
            ],
            [
              113.83822,
              37.27716
            ],
            [
              113.82881,
              37.23291
            ],
            [
              113.78441,
              37.17831
            ],
            [
              113.73603,
              37.1475
            ],
            [
              113.72085,
              37.01483
            ],
            [
              113.74147,
              36.94352
            ],
            [
              113.73582,
              36.86189
            ],
            [
              113.74736,
              36.76674
            ],
            [
              113.71623,
              36.7258
            ],
            [
              113.64173,
              36.69487
            ],
            [
              113.62437,
              36.69819
            ],
            [
              113.58938,
              36.68784
            ],
            [
              113.54628,
              36.71484
            ],
            [
              113.52086,
              36.75893
            ],
            [
              113.4376,
              36.72456
            ],
            [
              113.41023,
              36.64624
            ],
            [
              113.49257,
              36.6228
            ],
            [
              113.47477,
              36.59892
            ],
            [
              113.53115,
              36.58557
            ],
            [
              113.49502,
              36.50381
            ],
            [
              113.64136,
              36.39906
            ],
            [
              113.68054,
              36.39923
            ],
            [
              113.91024,
              36.33565
            ],
            [
              113.95769,
              36.30866
            ],
            [
              114.05206,
              36.22068
            ],
            [
              114.12563,
              36.1938
            ],
            [
              114.32546,
              36.16749
            ],
            [
              114.33368,
              36.13693
            ],
            [
              114.30527,
              35.994
            ],
            [
              114.39501,
              35.88899
            ],
            [
              114.38086,
              35.82093
            ],
            [
              114.34071,
              35.75955
            ],
            [
              114.2575,
              35.72858
            ],
            [
              114.16515,
              35.67037
            ],
            [
              114.13359,
              35.60222
            ],
            [
              114.12793,
              35.5206
            ],
            [
              114.13169,
              35.48321
            ],
            [
              114.21038,
              35.50396
            ],
            [
              114.26284,
              35.5178
            ],
            [
              114.36373,
              35.56585
            ],
            [
              114.42119,
              35.6205
            ],
            [
              114.45743,
              35.70907
            ],
            [
              114.53221,
              35.757
            ],
            [
              114.61089,
              35.77775
            ],
            [
              114.84174,
              35.78557
            ],
            [
              114.85513,
              35.80603
            ],
            [
              114.83902,
              35.88757
            ],
            [
              114.86176,
              35.94887
            ],
            [
              114.88837,
              35.97959
            ],
            [
              114.95373,
              35.98328
            ],
            [
              115.01054,
              35.99713
            ],
            [
              115.05892,
              36.02795
            ],
            [
              115.06398,
              36.07217
            ],
            [
              115.04259,
              36.09587
            ],
            [
              114.98616,
              36.10582
            ],
            [
              114.94295,
              36.12603
            ],
            [
              114.91743,
              36.16332
            ],
            [
              114.93533,
              36.194
            ],
            [
              114.97506,
              36.22818
            ],
            [
              115.02741,
              36.23521
            ],
            [
              115.1012,
              36.22194
            ],
            [
              115.14006,
              36.20171
            ],
            [
              115.17858,
              36.16108
            ],
            [
              115.19105,
              36.12374
            ],
            [
              115.22566,
              36.11029
            ],
            [
              115.27001,
              36.16149
            ],
            [
              115.33569,
              36.18558
            ],
            [
              115.37912,
              36.17897
            ],
            [
              115.38042,
              36.26058
            ],
            [
              115.35528,
              36.32167
            ],
            [
              115.36932,
              36.38293
            ],
            [
              115.36611,
              36.45432
            ],
            [
              115.39326,
              36.51904
            ],
            [
              115.42428,
              36.55318
            ],
            [
              115.44691,
              36.60768
            ],
            [
              115.45676,
              36.67913
            ],
            [
              115.66149,
              36.68684
            ],
            [
              115.89755,
              36.74909
            ],
            [
              116.01494,
              36.73941
            ],
            [
              116.13248,
              36.73993
            ],
            [
              116.21139,
              36.77428
            ],
            [
              116.24665,
              36.80164
            ],
            [
              116.2694,
              36.86294
            ],
            [
              116.27641,
              37.02958
            ],
            [
              116.19903,
              37.09044
            ],
            [
              116.1913,
              37.1516
            ],
            [
              116.23119,
              37.19598
            ],
            [
              116.24925,
              37.23686
            ],
            [
              116.27146,
              37.26416
            ],
            [
              116.24642,
              37.33205
            ],
            [
              116.24316,
              37.40004
            ],
            [
              116.25725,
              37.46471
            ],
            [
              116.23624,
              37.51221
            ],
            [
              116.25921,
              37.58712
            ],
            [
              116.30339,
              37.62812
            ],
            [
              116.30845,
              37.67234
            ],
            [
              116.34404,
              37.7201
            ],
            [
              116.40548,
              37.75097
            ],
            [
              116.44885,
              37.74096
            ],
            [
              116.46104,
              37.68662
            ],
            [
              116.50812,
              37.63582
            ],
            [
              116.52047,
              37.59168
            ],
            [
              116.56744,
              37.53409
            ],
            [
              116.65766,
              37.45968
            ],
            [
              116.79736,
              37.48411
            ],
            [
              116.83284,
              37.52506
            ],
            [
              116.87664,
              37.54226
            ],
            [
              116.91626,
              37.56964
            ],
            [
              116.97324,
              37.59369
            ],
            [
              117.00893,
              37.64825
            ],
            [
              117.06145,
              37.66548
            ],
            [
              117.09214,
              37.67922
            ],
            [
              117.13573,
              37.68281
            ],
            [
              117.17981,
              37.71701
            ],
            [
              117.22356,
              37.7308
            ],
            [
              117.2801,
              37.72766
            ],
            [
              117.3374,
              37.77211
            ],
            [
              117.41114,
              37.75544
            ],
            [
              117.46779,
              37.75909
            ],
            [
              117.51982,
              37.74572
            ],
            [
              117.56684,
              37.69153
            ],
            [
              117.61891,
              37.68156
            ],
            [
              117.69238,
              37.64789
            ],
            [
              117.82261,
              37.62466
            ],
            [
              117.90167,
              37.66922
            ],
            [
              117.90167,
              37.66922
            ],
            [
              117.94603,
              37.72041
            ],
            [
              117.94613,
              37.72721
            ],
            [
              117.88099,
              37.73713
            ],
            [
              117.85596,
              37.80502
            ],
            [
              117.79174,
              37.87273
            ],
            [
              117.76241,
              37.944
            ],
            [
              117.75044,
              38.01195
            ],
            [
              117.72557,
              38.09004
            ],
            [
              117.65264,
              38.15772
            ],
            [
              117.57091,
              38.21856
            ],
            [
              117.49869,
              38.33044
            ],
            [
              117.47404,
              38.42214
            ],
            [
              117.37526,
              38.5067
            ],
            [
              117.35399,
              38.53721
            ],
            [
              117.34223,
              38.61876
            ],
            [
              117.29956,
              38.67297
            ],
            [
              117.26914,
              38.94824
            ],
            [
              117.30924,
              39.00622
            ],
            [
              117.11002,
              39.06994
            ],
            [
              117.01952,
              39.12734
            ],
            [
              116.94007,
              39.05898
            ],
            [
              116.85702,
              39.03821
            ],
            [
              116.79156,
              39.02772
            ],
            [
              116.70443,
              39.02393
            ],
            [
              116.55636,
              39.01988
            ],
            [
              116.43909,
              39.03635
            ],
            [
              116.16928,
              39.04196
            ],
            [
              115.92945,
              39.01709
            ],
            [
              115.7976,
              38.9383
            ],
            [
              115.74454,
              38.88707
            ],
            [
              115.69497,
              38.78144
            ],
            [
              115.65824,
              38.66228
            ],
            [
              115.52333,
              38.66508
            ],
            [
              115.39115,
              38.83789
            ],
            [
              115.41117,
              39.00119
            ],
            [
              115.40322,
              39.04875
            ],
            [
              115.10495,
              39.18003
            ],
            [
              114.90588,
              39.25395
            ],
            [
              114.84591,
              39.31489
            ],
            [
              114.83808,
              39.36925
            ],
            [
              114.89189,
              39.46809
            ],
            [
              114.9671,
              39.54323
            ],
            [
              115.05553,
              39.62862
            ],
            [
              114.94718,
              39.65874
            ],
            [
              114.80313,
              39.6343
            ],
            [
              114.65011,
              39.59282
            ],
            [
              114.52517,
              39.40186
            ],
            [
              114.52849,
              39.33728
            ],
            [
              114.47581,
              39.30984
            ],
            [
              114.47499,
              39.25884
            ],
            [
              114.45633,
              39.18055
            ],
            [
              114.35549,
              39.1359
            ],
            [
              114.27593,
              39.06075
            ],
            [
              114.12792,
              39.06009
            ],
            [
              113.98028,
              39.08323
            ],
            [
              113.98028,
              39.08323
            ]
          ]
        ]
      }
    },
    {
      "type": "Feature",
      "properties": {
        "kind": "commandery_seat",
        "state": "冀州",
        "name": "中山国/卢奴",
        "role": "郡治",
        "lon": 114.97675,
        "lat": 38.51305
      },
      "geometry": {
        "type": "Point",
        "coordinates": [
          114.97675,
          38.51305
        ]
      }
    },
    {
      "type": "Feature",
      "properties": {
        "kind": "commandery_seat",
        "state": "冀州",
        "name": "常山/元氏",
        "role": "郡治",
        "lon": 114.39965,
        "lat": 37.81346
      },
      "geometry": {
        "type": "Point",
        "coordinates": [
          114.39965,
          37.81346
        ]
      }
    },
    {
      "type": "Feature",
      "properties": {
        "kind": "commandery_seat",
        "state": "冀州",
        "name": "巨鹿/廮陶",
        "role": "郡治",
        "lon": 114.77357,
        "lat": 37.51252
      },
      "geometry": {
        "type": "Point",
        "coordinates": [
          114.77357,
          37.51252
        ]
      }
    },
    {
      "type": "Feature",
      "properties": {
        "kind": "commandery_seat",
        "state": "冀州",
        "name": "赵国/邯郸",
        "role": "郡治",
        "lon": 114.38466,
        "lat": 36.60297
      },
      "geometry": {
        "type": "Point",
        "coordinates": [
          114.38466,
          36.60297
        ]
      }
    },
    {
      "type": "Feature",
      "properties": {
        "kind": "commandery_seat",
        "state": "冀州",
        "name": "清河国/甘陵",
        "role": "郡治",
        "lon": 115.68624,
        "lat": 36.87395
      },
      "geometry": {
        "type": "Point",
        "coordinates": [
          115.68624,
          36.87395
        ]
      }
    },
    {
      "type": "Feature",
      "properties": {
        "kind": "commandery_seat",
        "state": "冀州",
        "name": "安平国/信都",
        "role": "郡治",
        "lon": 115.50175,
        "lat": 37.58715
      },
      "geometry": {
        "type": "Point",
        "coordinates": [
          115.50175,
          37.58715
        ]
      }
    },
    {
      "type": "Feature",
      "properties": {
        "kind": "commandery_seat",
        "state": "冀州",
        "name": "渤海郡/南皮",
        "role": "commandery",
        "lon": 116.65482,
        "lat": 38.09889
      },
      "geometry": {
        "type": "Point",
        "coordinates": [
          116.65482,
          38.09889
        ]
      }
    },
    {
      "type": "Feature",
      "properties": {
        "kind": "commandery_seat",
        "state": "冀州",
        "name": "河间国/乐成",
        "role": "commandery",
        "lon": 116.15079,
        "lat": 38.15785
      },
      "geometry": {
        "type": "Point",
        "coordinates": [
          116.15079,
          38.15785
        ]
      }
    },
    {
      "type": "Feature",
      "properties": {
        "kind": "commandery_seat",
        "state": "冀州",
        "name": "魏国/邺县",
        "role": "capital",
        "lon": 114.30581,
        "lat": 36.30001
      },
      "geometry": {
        "type": "Point",
        "coordinates": [
          114.30581,
          36.30001
        ]
      }
    }
  ]
}