{
  "type": "FeatureCollection",
  "metadata": {
    "state": "凉州",
    "color": "#B388FF",
    "gcps": 6,
    "max_err_km": 4,
    "avg_err_km": 2.6,
    "verified": true
  },
  "pixels": {
    "gcps": [
      {
        "px": 1331,
        "py": 995,
        "lon": 103.84,
        "lat": 36.06,
        "name": "金城/兰州"
      },
      {
        "px": 976,
        "py": 617,
        "lon": 100.45,
        "lat": 38.94,
        "name": "张掖/张掖"
      },
      {
        "px": 364,
        "py": 452,
        "lon": 94.68,
        "lat": 40.14,
        "name": "敦煌/敦煌"
      },
      {
        "px": 1529,
        "py": 1185,
        "lon": 105.72,
        "lat": 34.58,
        "name": "天水/天水"
      },
      {
        "px": 1583,
        "py": 1001,
        "lon": 106.27,
        "lat": 36.01,
        "name": "安定/固原"
      },
      {
        "px": 1116,
        "py": 923,
        "lon": 101.78,
        "lat": 36.62,
        "name": "西平/西宁"
      }
    ],
    "bnd": [
      [
        351,
        567
      ],
      [
        306,
        479
      ],
      [
        302,
        465
      ],
      [
        294,
        452
      ],
      [
        291,
        438
      ],
      [
        267,
        404
      ],
      [
        265,
        391
      ],
      [
        268,
        370
      ],
      [
        265,
        346
      ],
      [
        274,
        337
      ],
      [
        287,
        331
      ],
      [
        306,
        303
      ],
      [
        328,
        282
      ],
      [
        359,
        257
      ],
      [
        370,
        242
      ],
      [
        384,
        232
      ],
      [
        443,
        215
      ],
      [
        452,
        214
      ],
      [
        476,
        212
      ],
      [
        487,
        210
      ],
      [
        508,
        202
      ],
      [
        529,
        188
      ],
      [
        522,
        167
      ],
      [
        519,
        110
      ],
      [
        524,
        94
      ],
      [
        537,
        87
      ],
      [
        550,
        88
      ],
      [
        554,
        120
      ],
      [
        584,
        127
      ],
      [
        598,
        144
      ],
      [
        617,
        157
      ],
      [
        668,
        148
      ],
      [
        705,
        146
      ],
      [
        723,
        147
      ],
      [
        763,
        141
      ],
      [
        790,
        140
      ],
      [
        837,
        110
      ],
      [
        857,
        111
      ],
      [
        872,
        114
      ],
      [
        896,
        121
      ],
      [
        927,
        109
      ],
      [
        950,
        96
      ],
      [
        979,
        70
      ],
      [
        1005,
        61
      ],
      [
        1049,
        61
      ],
      [
        1086,
        68
      ],
      [
        1097,
        69
      ],
      [
        1121,
        72
      ],
      [
        1138,
        86
      ],
      [
        1143,
        109
      ],
      [
        1162,
        128
      ],
      [
        1213,
        154
      ],
      [
        1223,
        180
      ],
      [
        1224,
        227
      ],
      [
        1197,
        271
      ],
      [
        1155,
        298
      ],
      [
        1122,
        315
      ],
      [
        1080,
        338
      ],
      [
        1053,
        359
      ],
      [
        1016,
        382
      ],
      [
        972,
        454
      ],
      [
        995,
        552
      ],
      [
        1017,
        580
      ],
      [
        1031,
        584
      ],
      [
        1031,
        595
      ],
      [
        1094,
        617
      ],
      [
        1139,
        619
      ],
      [
        1155,
        585
      ],
      [
        1181,
        583
      ],
      [
        1184,
        582
      ],
      [
        1210,
        537
      ],
      [
        1250,
        487
      ],
      [
        1272,
        475
      ],
      [
        1322,
        470
      ],
      [
        1346,
        484
      ],
      [
        1364,
        499
      ],
      [
        1372,
        563
      ],
      [
        1382,
        611
      ],
      [
        1394,
        639
      ],
      [
        1417,
        666
      ],
      [
        1467,
        680
      ],
      [
        1509,
        670
      ],
      [
        1545,
        643
      ],
      [
        1555,
        611
      ],
      [
        1572,
        583
      ],
      [
        1565,
        564
      ],
      [
        1568,
        553
      ],
      [
        1596,
        548
      ],
      [
        1615,
        551
      ],
      [
        1638,
        557
      ],
      [
        1642,
        577
      ],
      [
        1650,
        592
      ],
      [
        1640,
        617
      ],
      [
        1625,
        628
      ],
      [
        1616,
        661
      ],
      [
        1621,
        674
      ],
      [
        1612,
        694
      ],
      [
        1673,
        725
      ],
      [
        1689,
        721
      ],
      [
        1712,
        745
      ],
      [
        1729,
        752
      ],
      [
        1729,
        765
      ],
      [
        1721,
        776
      ],
      [
        1716,
        823
      ],
      [
        1716,
        890
      ],
      [
        1748,
        893
      ],
      [
        1757,
        853
      ],
      [
        1755,
        835
      ],
      [
        1794,
        846
      ],
      [
        1812,
        847
      ],
      [
        1817,
        863
      ],
      [
        1819,
        876
      ],
      [
        1826,
        892
      ],
      [
        1822,
        911
      ],
      [
        1821,
        935
      ],
      [
        1824,
        950
      ],
      [
        1836,
        964
      ],
      [
        1841,
        981
      ],
      [
        1848,
        983
      ],
      [
        1857,
        985
      ],
      [
        1867,
        989
      ],
      [
        1878,
        999
      ],
      [
        1877,
        1013
      ],
      [
        1858,
        1026
      ],
      [
        1850,
        1051
      ],
      [
        1846,
        1058
      ],
      [
        1836,
        1065
      ],
      [
        1832,
        1076
      ],
      [
        1833,
        1080
      ],
      [
        1830,
        1080
      ],
      [
        1818,
        1093
      ],
      [
        1811,
        1093
      ],
      [
        1801,
        1090
      ],
      [
        1791,
        1095
      ],
      [
        1771,
        1108
      ],
      [
        1764,
        1118
      ],
      [
        1757,
        1118
      ],
      [
        1752,
        1125
      ],
      [
        1751,
        1128
      ],
      [
        1750,
        1131
      ],
      [
        1747,
        1134
      ],
      [
        1745,
        1136
      ],
      [
        1742,
        1135
      ],
      [
        1739,
        1136
      ],
      [
        1738,
        1138
      ],
      [
        1734,
        1137
      ],
      [
        1733,
        1140
      ],
      [
        1729,
        1138
      ],
      [
        1728,
        1137
      ],
      [
        1725,
        1138
      ],
      [
        1723,
        1139
      ],
      [
        1721,
        1137
      ],
      [
        1718,
        1142
      ],
      [
        1716,
        1147
      ],
      [
        1706,
        1142
      ],
      [
        1702,
        1142
      ],
      [
        1699,
        1143
      ],
      [
        1696,
        1140
      ],
      [
        1694,
        1139
      ],
      [
        1690,
        1144
      ],
      [
        1685,
        1148
      ],
      [
        1680,
        1141
      ],
      [
        1676,
        1137
      ],
      [
        1673,
        1136
      ],
      [
        1670,
        1126
      ],
      [
        1654,
        1117
      ],
      [
        1646,
        1101
      ],
      [
        1634,
        1092
      ],
      [
        1623,
        1090
      ],
      [
        1608,
        1091
      ],
      [
        1604,
        1095
      ],
      [
        1595,
        1099
      ],
      [
        1592,
        1112
      ],
      [
        1597,
        1121
      ],
      [
        1605,
        1125
      ],
      [
        1615,
        1142
      ],
      [
        1607,
        1161
      ],
      [
        1598,
        1168
      ],
      [
        1595,
        1171
      ],
      [
        1595,
        1176
      ],
      [
        1586,
        1186
      ],
      [
        1581,
        1188
      ],
      [
        1581,
        1193
      ],
      [
        1582,
        1202
      ],
      [
        1585,
        1211
      ],
      [
        1590,
        1218
      ],
      [
        1601,
        1222
      ],
      [
        1605,
        1227
      ],
      [
        1617,
        1223
      ],
      [
        1620,
        1226
      ],
      [
        1621,
        1227
      ],
      [
        1626,
        1226
      ],
      [
        1629,
        1227
      ],
      [
        1640,
        1222
      ],
      [
        1651,
        1221
      ],
      [
        1655,
        1228
      ],
      [
        1661,
        1230
      ],
      [
        1672,
        1230
      ],
      [
        1682,
        1237
      ],
      [
        1679,
        1244
      ],
      [
        1680,
        1251
      ],
      [
        1672,
        1254
      ],
      [
        1658,
        1271
      ],
      [
        1647,
        1293
      ],
      [
        1641,
        1300
      ],
      [
        1617,
        1341
      ],
      [
        1612,
        1357
      ],
      [
        1611,
        1376
      ],
      [
        1603,
        1377
      ],
      [
        1598,
        1378
      ],
      [
        1595,
        1380
      ],
      [
        1591,
        1380
      ],
      [
        1588,
        1380
      ],
      [
        1582,
        1381
      ],
      [
        1577,
        1382
      ],
      [
        1572,
        1382
      ],
      [
        1562,
        1383
      ],
      [
        1558,
        1382
      ],
      [
        1545,
        1376
      ],
      [
        1528,
        1378
      ],
      [
        1511,
        1369
      ],
      [
        1469,
        1366
      ],
      [
        1460,
        1359
      ],
      [
        1444,
        1351
      ],
      [
        1397,
        1337
      ],
      [
        1392,
        1339
      ],
      [
        1391,
        1331
      ],
      [
        1385,
        1319
      ],
      [
        1367,
        1310
      ],
      [
        1361,
        1300
      ],
      [
        1360,
        1288
      ],
      [
        1376,
        1271
      ],
      [
        1372,
        1256
      ],
      [
        1359,
        1249
      ],
      [
        1336,
        1230
      ],
      [
        1324,
        1219
      ],
      [
        1309,
        1216
      ],
      [
        1274,
        1192
      ],
      [
        1264,
        1166
      ],
      [
        1262,
        1121
      ],
      [
        1245,
        1114
      ],
      [
        1228,
        1100
      ],
      [
        1220,
        1092
      ],
      [
        1195,
        1077
      ],
      [
        1173,
        1077
      ],
      [
        1148,
        1068
      ],
      [
        1130,
        1059
      ],
      [
        1125,
        1049
      ],
      [
        1125,
        1040
      ],
      [
        1141,
        1025
      ],
      [
        1140,
        1014
      ],
      [
        1125,
        995
      ],
      [
        1106,
        989
      ],
      [
        1091,
        997
      ],
      [
        1072,
        1003
      ],
      [
        1057,
        996
      ],
      [
        1059,
        968
      ],
      [
        1044,
        953
      ],
      [
        1030,
        923
      ],
      [
        1022,
        897
      ],
      [
        1022,
        880
      ],
      [
        1037,
        873
      ],
      [
        1074,
        889
      ],
      [
        1094,
        885
      ],
      [
        1116,
        885
      ],
      [
        1169,
        859
      ],
      [
        1184,
        858
      ],
      [
        1196,
        861
      ],
      [
        1208,
        871
      ],
      [
        1218,
        875
      ],
      [
        1227,
        867
      ],
      [
        1221,
        855
      ],
      [
        1173,
        838
      ],
      [
        1165,
        827
      ],
      [
        1151,
        820
      ],
      [
        1137,
        811
      ],
      [
        1118,
        811
      ],
      [
        1103,
        801
      ],
      [
        1073,
        787
      ],
      [
        1055,
        772
      ],
      [
        1050,
        756
      ],
      [
        1008,
        731
      ],
      [
        989,
        712
      ],
      [
        964,
        704
      ],
      [
        931,
        704
      ],
      [
        888,
        674
      ],
      [
        836,
        632
      ],
      [
        828,
        616
      ],
      [
        804,
        603
      ],
      [
        767,
        595
      ],
      [
        744,
        583
      ],
      [
        734,
        596
      ],
      [
        711,
        611
      ],
      [
        688,
        611
      ],
      [
        663,
        600
      ],
      [
        636,
        600
      ],
      [
        605,
        583
      ],
      [
        577,
        565
      ],
      [
        550,
        550
      ],
      [
        528,
        549
      ],
      [
        503,
        540
      ],
      [
        463,
        540
      ],
      [
        436,
        536
      ],
      [
        418,
        542
      ],
      [
        393,
        554
      ],
      [
        373,
        569
      ],
      [
        351,
        567
      ]
    ],
    "seats": [
      {
        "px": 363,
        "py": 451,
        "name": "敦煌郡/敦煌",
        "role": "commandery"
      },
      {
        "px": 774,
        "py": 506,
        "name": "酒泉郡/禄福",
        "role": "commandery"
      },
      {
        "px": 1051,
        "py": 211,
        "name": "张掖居延属国/居延",
        "role": "commandery"
      },
      {
        "px": 946,
        "py": 446,
        "name": "张掖属国",
        "role": "commandery"
      },
      {
        "px": 968,
        "py": 595,
        "name": "张掖郡/觻得",
        "role": "commandery"
      },
      {
        "px": 1207,
        "py": 749,
        "name": "武威郡/姑臧",
        "role": "capital"
      },
      {
        "px": 1568,
        "py": 752,
        "name": "北地郡/富平",
        "role": "commandery"
      },
      {
        "px": 1700,
        "py": 1060,
        "name": "安定郡/临泾",
        "role": "commandery"
      },
      {
        "px": 1496,
        "py": 1166,
        "name": "汉阳郡/冀县",
        "role": "commandery"
      },
      {
        "px": 1335,
        "py": 1081,
        "name": "陇西郡/狄道",
        "role": "commandery"
      },
      {
        "px": 1520,
        "py": 1283,
        "name": "武都郡/下辩",
        "role": "commandery"
      }
    ]
  },
  "features": [
    {
      "type": "Feature",
      "properties": {
        "kind": "state_boundary",
        "state": "凉州",
        "color": "#B388FF"
      },
      "geometry": {
        "type": "Polygon",
        "coordinates": [
          [
            [
              94.53059,
              39.27168
            ],
            [
              94.10537,
              39.94553
            ],
            [
              94.06779,
              40.05296
            ],
            [
              93.9921,
              40.15241
            ],
            [
              93.96404,
              40.25991
            ],
            [
              93.7368,
              40.51978
            ],
            [
              93.71822,
              40.61966
            ],
            [
              93.74751,
              40.78146
            ],
            [
              93.7198,
              40.96591
            ],
            [
              93.80577,
              41.03581
            ],
            [
              93.92972,
              41.08292
            ],
            [
              94.11153,
              41.29973
            ],
            [
              94.32166,
              41.4629
            ],
            [
              94.61758,
              41.6575
            ],
            [
              94.7228,
              41.77371
            ],
            [
              94.8564,
              41.85167
            ],
            [
              95.41854,
              41.98674
            ],
            [
              95.50424,
              41.99508
            ],
            [
              95.73273,
              42.01221
            ],
            [
              95.8375,
              42.02839
            ],
            [
              96.03765,
              42.09146
            ],
            [
              96.23801,
              42.2007
            ],
            [
              96.17212,
              42.36178
            ],
            [
              96.14557,
              42.80014
            ],
            [
              96.19372,
              42.92361
            ],
            [
              96.31769,
              42.97841
            ],
            [
              96.44139,
              42.97165
            ],
            [
              96.47834,
              42.72573
            ],
            [
              96.76362,
              42.67403
            ],
            [
              96.89628,
              42.54424
            ],
            [
              97.07666,
              42.44559
            ],
            [
              97.56238,
              42.51853
            ],
            [
              97.9146,
              42.53659
            ],
            [
              98.08589,
              42.5302
            ],
            [
              98.46681,
              42.57926
            ],
            [
              98.72382,
              42.5889
            ],
            [
              99.17221,
              42.82313
            ],
            [
              99.36253,
              42.81688
            ],
            [
              99.50519,
              42.79489
            ],
            [
              99.73337,
              42.74276
            ],
            [
              100.02884,
              42.83733
            ],
            [
              100.2482,
              42.93902
            ],
            [
              100.52512,
              43.14117
            ],
            [
              100.7729,
              43.2123
            ],
            [
              101.19168,
              43.21548
            ],
            [
              101.54359,
              43.1643
            ],
            [
              101.64825,
              43.1574
            ],
            [
              101.87657,
              43.13605
            ],
            [
              102.03788,
              43.02956
            ],
            [
              102.08467,
              42.85295
            ],
            [
              102.26484,
              42.70813
            ],
            [
              102.74933,
              42.51177
            ],
            [
              102.8436,
              42.31244
            ],
            [
              102.85147,
              41.95088
            ],
            [
              102.59295,
              41.61038
            ],
            [
              102.19226,
              41.39959
            ],
            [
              101.87758,
              41.2664
            ],
            [
              101.47703,
              41.0864
            ],
            [
              101.21932,
              40.92286
            ],
            [
              100.86636,
              40.74322
            ],
            [
              100.44505,
              40.18604
            ],
            [
              100.66053,
              39.43366
            ],
            [
              100.86894,
              39.21981
            ],
            [
              101.00205,
              39.19005
            ],
            [
              101.00166,
              39.10541
            ],
            [
              101.60051,
              38.94069
            ],
            [
              102.02874,
              38.92855
            ],
            [
              102.18221,
              39.19132
            ],
            [
              102.42974,
              39.20859
            ],
            [
              102.45833,
              39.2165
            ],
            [
              102.70737,
              39.56462
            ],
            [
              103.08983,
              39.95223
            ],
            [
              103.29964,
              40.04616
            ],
            [
              103.7757,
              40.08824
            ],
            [
              104.00364,
              39.98226
            ],
            [
              104.17443,
              39.86814
            ],
            [
              104.24833,
              39.37629
            ],
            [
              104.34183,
              39.00768
            ],
            [
              104.45506,
              38.79311
            ],
            [
              104.67302,
              38.58702
            ],
            [
              105.14842,
              38.48292
            ],
            [
              105.54851,
              38.5629
            ],
            [
              105.8921,
              38.77325
            ],
            [
              105.9884,
              39.02019
            ],
            [
              106.15118,
              39.23686
            ],
            [
              106.08522,
              39.38255
            ],
            [
              106.11416,
              39.4674
            ],
            [
              106.38083,
              39.5079
            ],
            [
              106.56156,
              39.48619
            ],
            [
              106.78026,
              39.44169
            ],
            [
              106.81763,
              39.28809
            ],
            [
              106.89325,
              39.17325
            ],
            [
              106.79719,
              38.98017
            ],
            [
              106.65404,
              38.89445
            ],
            [
              106.56723,
              38.63988
            ],
            [
              106.61436,
              38.54022
            ],
            [
              106.528,
              38.38568
            ],
            [
              107.1075,
              38.15157
            ],
            [
              107.25992,
              38.1835
            ],
            [
              107.47799,
              38.0005
            ],
            [
              107.63954,
              37.94787
            ],
            [
              107.63909,
              37.84784
            ],
            [
              107.56256,
              37.76263
            ],
            [
              107.51333,
              37.40063
            ],
            [
              107.51098,
              36.88511
            ],
            [
              107.81544,
              36.86434
            ],
            [
              107.9025,
              37.17277
            ],
            [
              107.8841,
              37.31112
            ],
            [
              108.25491,
              37.2293
            ],
            [
              108.42619,
              37.22291
            ],
            [
              108.47322,
              37.10016
            ],
            [
              108.4918,
              37.00028
            ],
            [
              108.55786,
              36.87768
            ],
            [
              108.51913,
              36.7312
            ],
            [
              108.53421,
              36.39548
            ],
            [
              108.6528,
              36.28932
            ],
            [
              108.70087,
              36.16923
            ],
            [
              108.77169,
              36.1462
            ],
            [
              108.84824,
              36.14165
            ],
            [
              108.95444,
              36.10941
            ],
            [
              109.0433,
              36.04018
            ],
            [
              109.05013,
              35.92468
            ],
            [
              108.86259,
              35.82746
            ],
            [
              108.79818772601996,
              35.63640419184031
            ],
            [
              108.7736061470968,
              35.56348047134463
            ],
            [
              108.69176852541891,
              35.57290361771765
            ],
            [
              108.60853,
              35.46236
            ],
            [
              108.59836,
              35.36626
            ],
            [
              108.46323,
              35.27077
            ],
            [
              108.42052890650497,
              35.29396797158589
            ],
            [
              108.31299,
              35.35239
            ],
            [
              108.02682,
              35.21173
            ],
            [
              107.95985,
              35.13428
            ],
            [
              107.89323,
              35.13377
            ],
            [
              107.84196,
              35.01731
            ],
            [
              107.84196,
              35.01731
            ],
            [
              107.83362,
              34.9732
            ],
            [
              107.78716,
              34.9425
            ],
            [
              107.78716,
              34.9425
            ],
            [
              107.74907,
              34.94573
            ],
            [
              107.74907,
              34.94573
            ],
            [
              107.71529,
              34.92186
            ],
            [
              107.69413,
              34.92516
            ],
            [
              107.66456,
              34.90808
            ],
            [
              107.63066,
              34.92829
            ],
            [
              107.63066,
              34.92829
            ],
            [
              107.58415,
              34.91453
            ],
            [
              107.58415,
              34.91453
            ],
            [
              107.55451,
              34.92458
            ],
            [
              107.52727350555023,
              34.88262933465438
            ],
            [
              107.50816,
              34.85319
            ],
            [
              107.3473,
              34.88643
            ],
            [
              107.27956,
              34.9031
            ],
            [
              107.24513044978518,
              34.8722321273936
            ],
            [
              107.24072042341733,
              34.86827831065003
            ],
            [
              107.23393973785372,
              34.86219907531713
            ],
            [
              107.20358,
              34.83498
            ],
            [
              107.20358,
              34.83498
            ],
            [
              107.09754,
              34.93624
            ],
            [
              107.09754,
              34.93624
            ],
            [
              107.01267,
              35.02743
            ],
            [
              106.911,
              35.07786
            ],
            [
              106.80442344176608,
              35.21277942951275
            ],
            [
              106.64814,
              35.28018
            ],
            [
              106.56775,
              35.27985
            ],
            [
              106.46626,
              35.25909
            ],
            [
              106.35639,
              35.21117
            ],
            [
              106.32689,
              35.16697
            ],
            [
              106.32705,
              35.10934
            ],
            [
              106.3568,
              35.05861
            ],
            [
              106.44153,
              35.01488
            ],
            [
              106.51086617005443,
              34.881508114553945
            ],
            [
              106.49329220837322,
              34.847927456359045
            ],
            [
              106.37816,
              34.73756
            ],
            [
              106.3495,
              34.71426
            ],
            [
              106.26331,
              34.59819
            ],
            [
              106.21565,
              34.58244
            ],
            [
              106.21548,
              34.54397
            ],
            [
              106.22468,
              34.47479
            ],
            [
              106.26141,
              34.34287
            ],
            [
              106.30382,
              34.30575
            ],
            [
              106.40545,
              34.27227
            ],
            [
              106.43939,
              34.23851
            ],
            [
              106.50285,
              34.23877
            ],
            [
              106.56624,
              34.26616
            ],
            [
              106.60441,
              34.23241
            ],
            [
              106.60441,
              34.23241
            ],
            [
              106.62977,
              34.24269
            ],
            [
              106.72281,
              34.25664
            ],
            [
              106.87927,
              34.2878
            ],
            [
              106.9302,
              34.23038
            ],
            [
              106.98101,
              34.21363
            ],
            [
              107.09526,
              34.21072
            ],
            [
              107.18847,
              34.16025
            ],
            [
              107.1528203951855,
              34.129496184503786
            ],
            [
              107.07740987800213,
              34.06417715464496
            ],
            [
              106.94561,
              33.94938
            ],
            [
              106.84015,
              33.77931
            ],
            [
              106.7828,
              33.72501
            ],
            [
              106.55293,
              33.40781
            ],
            [
              106.50479,
              33.28434
            ],
            [
              106.4946,
              33.13808
            ],
            [
              106.46172910566813,
              33.132427869116945
            ],
            [
              106.41412247898613,
              33.12424193775194
            ],
            [
              106.38371732568984,
              33.119013789584905
            ],
            [
              106.34944180661422,
              33.113120134306044
            ],
            [
              106.30730258286411,
              33.10587431964882
            ],
            [
              106.26233740678151,
              33.09899175037944
            ],
            [
              106.2146020849838,
              33.09168517032146
            ],
            [
              106.16804769169045,
              33.08455934841771
            ],
            [
              106.07025,
              33.06959
            ],
            [
              106.03754552091102,
              33.079782762990774
            ],
            [
              105.86986417417002,
              33.13204276751968
            ],
            [
              105.70922476956127,
              33.11716866696987
            ],
            [
              105.59547,
              33.17048
            ],
            [
              105.14343,
              33.20475
            ],
            [
              105.05802,
              33.25796
            ],
            [
              104.90602,
              33.31836
            ],
            [
              104.45917,
              33.42268
            ],
            [
              104.41151,
              33.40693
            ],
            [
              104.40228,
              33.46841
            ],
            [
              104.34559,
              33.56031
            ],
            [
              104.17459,
              33.62826
            ],
            [
              104.11783,
              33.70477
            ],
            [
              104.10873,
              33.79703
            ],
            [
              104.26161,
              33.92899
            ],
            [
              104.22407,
              34.04411
            ],
            [
              104.10058,
              34.09703
            ],
            [
              103.88234,
              34.24156
            ],
            [
              103.76851,
              34.32533
            ],
            [
              103.62585,
              34.34733
            ],
            [
              103.29357,
              34.52946
            ],
            [
              103.1993,
              34.72879
            ],
            [
              103.18184,
              35.07489
            ],
            [
              103.02029,
              35.12753
            ],
            [
              102.85898,
              35.23402
            ],
            [
              102.78311,
              35.29499
            ],
            [
              102.5457,
              35.4086
            ],
            [
              102.33631,
              35.40701
            ],
            [
              102.09868,
              35.47445
            ],
            [
              101.92767,
              35.5424
            ],
            [
              101.88043,
              35.61898
            ],
            [
              101.88075,
              35.68823
            ],
            [
              102.03356,
              35.8048
            ],
            [
              102.02443,
              35.88937
            ],
            [
              101.88233,
              36.03447
            ],
            [
              101.7017,
              36.07927
            ],
            [
              101.55865,
              36.01663
            ],
            [
              101.37761,
              35.96909
            ],
            [
              101.23508,
              36.02186
            ],
            [
              101.2551,
              36.23745
            ],
            [
              101.11286,
              36.35178
            ],
            [
              100.98066,
              36.5816
            ],
            [
              100.90543,
              36.78107
            ],
            [
              100.90603,
              36.91187
            ],
            [
              101.04904,
              36.96682
            ],
            [
              101.40063,
              36.84639
            ],
            [
              101.59113,
              36.87861
            ],
            [
              101.80052,
              36.8802
            ],
            [
              102.30587,
              37.08408
            ],
            [
              102.44867,
              37.09286
            ],
            [
              102.56278,
              37.07065
            ],
            [
              102.67664,
              36.99457
            ],
            [
              102.77168,
              36.96452
            ],
            [
              102.85762,
              37.02672
            ],
            [
              102.80093,
              37.11862
            ],
            [
              102.34467,
              37.24595
            ],
            [
              102.26892,
              37.33001
            ],
            [
              102.13591,
              37.38286
            ],
            [
              102.00298,
              37.4511
            ],
            [
              101.82214,
              37.44972
            ],
            [
              101.67973,
              37.52558
            ],
            [
              101.39469,
              37.63113
            ],
            [
              101.22389,
              37.74525
            ],
            [
              101.17686,
              37.868
            ],
            [
              100.77799,
              38.05732
            ],
            [
              100.59782,
              38.20214
            ],
            [
              100.36016,
              38.26188
            ],
            [
              100.04607,
              38.2595
            ],
            [
              99.63786,
              38.48722
            ],
            [
              99.14441,
              38.80662
            ],
            [
              99.06883,
              38.92915
            ],
            [
              98.84086,
              39.02744
            ],
            [
              98.48898,
              39.08632
            ],
            [
              98.2705,
              39.17699
            ],
            [
              98.17486,
              39.07624
            ],
            [
              97.95543,
              38.95916
            ],
            [
              97.73652,
              38.9575
            ],
            [
              97.49896,
              39.04033
            ],
            [
              97.24198,
              39.03838
            ],
            [
              96.94753,
              39.16694
            ],
            [
              96.68166,
              39.30341
            ],
            [
              96.42521,
              39.41687
            ],
            [
              96.21586,
              39.42298
            ],
            [
              95.97823,
              39.49042
            ],
            [
              95.59752,
              39.48753
            ],
            [
              95.34068,
              39.51635
            ],
            [
              95.16915,
              39.46888
            ],
            [
              94.93079,
              39.37474
            ],
            [
              94.73991,
              39.25788
            ],
            [
              94.53059,
              39.27168
            ],
            [
              94.53059,
              39.27168
            ],
            [
              94.53059,
              39.27168
            ],
            [
              94.53059,
              39.27168
            ],
            [
              94.53059,
              39.27168
            ],
            [
              94.53059,
              39.27168
            ],
            [
              94.53059,
              39.27168
            ]
          ]
        ]
      }
    },
    {
      "type": "Feature",
      "properties": {
        "kind": "commandery_seat",
        "name": "敦煌郡/敦煌",
        "role": "commandery"
      },
      "geometry": {
        "type": "Point",
        "coordinates": [
          94.64886,
          40.16509
        ]
      }
    },
    {
      "type": "Feature",
      "properties": {
        "kind": "commandery_seat",
        "name": "酒泉郡/禄福",
        "role": "commandery"
      },
      "geometry": {
        "type": "Point",
        "coordinates": [
          98.55872,
          39.77162
        ]
      }
    },
    {
      "type": "Feature",
      "properties": {
        "kind": "commandery_seat",
        "name": "张掖居延属国/居延",
        "role": "commandery"
      },
      "geometry": {
        "type": "Point",
        "coordinates": [
          101.20546,
          42.06148
        ]
      }
    },
    {
      "type": "Feature",
      "properties": {
        "kind": "commandery_seat",
        "name": "张掖属国",
        "role": "commandery"
      },
      "geometry": {
        "type": "Point",
        "coordinates": [
          100.19787,
          40.24572
        ]
      }
    },
    {
      "type": "Feature",
      "properties": {
        "kind": "commandery_seat",
        "name": "张掖郡/觻得",
        "role": "commandery"
      },
      "geometry": {
        "type": "Point",
        "coordinates": [
          100.40205,
          39.10085
        ]
      }
    },
    {
      "type": "Feature",
      "properties": {
        "kind": "commandery_seat",
        "name": "武威郡/姑臧",
        "role": "capital"
      },
      "geometry": {
        "type": "Point",
        "coordinates": [
          102.67139,
          37.93321
        ]
      }
    },
    {
      "type": "Feature",
      "properties": {
        "kind": "commandery_seat",
        "name": "北地郡/富平",
        "role": "commandery"
      },
      "geometry": {
        "type": "Point",
        "coordinates": [
          106.10719,
          37.93623
        ]
      }
    },
    {
      "type": "Feature",
      "properties": {
        "kind": "commandery_seat",
        "name": "安定郡/临泾",
        "role": "commandery"
      },
      "geometry": {
        "type": "Point",
        "coordinates": [
          107.35275,
          35.57592
        ]
      }
    },
    {
      "type": "Feature",
      "properties": {
        "kind": "commandery_seat",
        "name": "汉阳郡/冀县",
        "role": "commandery"
      },
      "geometry": {
        "type": "Point",
        "coordinates": [
          105.40742,
          34.74557
        ]
      }
    },
    {
      "type": "Feature",
      "properties": {
        "kind": "commandery_seat",
        "name": "陇西郡/狄道",
        "role": "commandery"
      },
      "geometry": {
        "type": "Point",
        "coordinates": [
          103.87804,
          35.38795
        ]
      }
    },
    {
      "type": "Feature",
      "properties": {
        "kind": "commandery_seat",
        "name": "武都郡/下辩",
        "role": "commandery"
      },
      "geometry": {
        "type": "Point",
        "coordinates": [
          105.63175,
          33.84707
        ]
      }
    }
  ]
}