{
  "type": "FeatureCollection",
  "metadata": {
    "state": "司隶",
    "color": "#6A1B9A",
    "gcps": 15,
    "max_err_km": 0.0,
    "avg_err_km": 0.0
  },
  "pixels": {
    "gcps": [
      {
        "px": 688.4,
        "py": 621.1,
        "lon": 108.94,
        "lat": 34.34,
        "name": "长安/西安"
      },
      {
        "px": 1383.1,
        "py": 688.5,
        "lon": 112.45,
        "lat": 34.62,
        "name": "洛阳/洛阳"
      },
      {
        "px": 1080.3,
        "py": 664.5,
        "lon": 110.92,
        "lat": 34.52,
        "name": "弘农/灵宝"
      },
      {
        "px": 1139.6,
        "py": 811.3,
        "lon": 111.22,
        "lat": 35.13,
        "name": "河东/夏县"
      },
      {
        "px": 1571.1,
        "py": 799.3,
        "lon": 113.4,
        "lat": 35.08,
        "name": "河内/武陟"
      },
      {
        "px": 888.3,
        "py": 731.9,
        "lon": 109.95,
        "lat": 34.8,
        "name": "冯翊/大荔"
      },
      {
        "px": 448.9,
        "py": 606.7,
        "lon": 107.73,
        "lat": 34.28,
        "name": "扶风/眉县"
      },
      {
        "px": 918.0,
        "py": 676.5,
        "lon": 110.1,
        "lat": 34.57,
        "name": "华阴/华阴"
      },
      {
        "px": 1133.7,
        "py": 727.1,
        "lon": 111.19,
        "lat": 34.78,
        "name": "陕/三门峡"
      },
      {
        "px": 1248.5,
        "py": 724.6,
        "lon": 111.77,
        "lat": 34.77,
        "name": "渑池/渑池"
      },
      {
        "px": 1323.7,
        "py": 712.6,
        "lon": 112.15,
        "lat": 34.72,
        "name": "新安/新安"
      },
      {
        "px": 601.3,
        "py": 611.5,
        "lon": 108.5,
        "lat": 34.3,
        "name": "槐里/兴平"
      },
      {
        "px": 1032.8,
        "py": 659.6,
        "lon": 110.68,
        "lat": 34.5,
        "name": "湖/阌乡"
      },
      {
        "px": 741.8,
        "py": 628.3,
        "lon": 109.21,
        "lat": 34.37,
        "name": "戏/临潼"
      },
      {
        "px": 963.5,
        "py": 741.5,
        "lon": 110.33,
        "lat": 34.84,
        "name": "蒲坂/永济"
      }
    ],
    "bnd": [
      [
        1973,
        427
      ],
      [
        1907,
        411
      ],
      [
        1874,
        376
      ],
      [
        1810,
        356
      ],
      [
        1792,
        416
      ],
      [
        1805,
        430
      ],
      [
        1799,
        471
      ],
      [
        1755,
        503
      ],
      [
        1738,
        535
      ],
      [
        1742,
        603
      ],
      [
        1671,
        658
      ],
      [
        1640,
        654
      ],
      [
        1612,
        683
      ],
      [
        1570,
        683
      ],
      [
        1546,
        670
      ],
      [
        1501,
        608
      ],
      [
        1451,
        590
      ],
      [
        1460,
        568
      ],
      [
        1523,
        577
      ],
      [
        1538,
        537
      ],
      [
        1463,
        503
      ],
      [
        1381,
        417
      ],
      [
        1371,
        356
      ],
      [
        1382,
        277
      ],
      [
        1334,
        280
      ],
      [
        1316,
        267
      ],
      [
        1293,
        217
      ],
      [
        1212,
        196
      ],
      [
        1121,
        213
      ],
      [
        1039,
        209
      ],
      [
        1042,
        277
      ],
      [
        1057,
        311
      ],
      [
        1046,
        411
      ],
      [
        1054,
        473
      ],
      [
        1045,
        482
      ],
      [
        1003,
        489
      ],
      [
        932,
        471
      ],
      [
        887,
        500
      ],
      [
        850,
        498
      ],
      [
        768,
        529
      ],
      [
        776,
        550
      ],
      [
        768,
        576
      ],
      [
        723,
        562
      ],
      [
        701,
        579
      ],
      [
        713,
        600
      ],
      [
        712,
        673
      ],
      [
        699,
        687
      ],
      [
        671,
        686
      ],
      [
        652,
        662
      ],
      [
        598,
        644
      ],
      [
        568,
        672
      ],
      [
        529,
        667
      ],
      [
        433,
        731
      ],
      [
        409,
        766
      ],
      [
        349,
        774
      ],
      [
        342,
        790
      ],
      [
        285,
        779
      ],
      [
        262,
        793
      ],
      [
        235,
        749
      ],
      [
        198,
        728
      ],
      [
        163,
        677
      ],
      [
        136,
        666
      ],
      [
        93,
        672
      ],
      [
        67,
        686
      ],
      [
        60,
        716
      ],
      [
        90,
        744
      ],
      [
        109,
        791
      ],
      [
        94,
        828
      ],
      [
        37,
        886
      ],
      [
        34,
        910
      ],
      [
        54,
        953
      ],
      [
        87,
        970
      ],
      [
        143,
        972
      ],
      [
        190,
        959
      ],
      [
        211,
        978
      ],
      [
        242,
        979
      ],
      [
        261,
        993
      ],
      [
        257,
        1025
      ],
      [
        275,
        1050
      ],
      [
        328,
        1044
      ],
      [
        435,
        1106
      ],
      [
        498,
        1102
      ],
      [
        495,
        1050
      ],
      [
        518,
        1041
      ],
      [
        532,
        1047
      ],
      [
        536,
        1070
      ],
      [
        563,
        1071
      ],
      [
        549,
        1098
      ],
      [
        698,
        1070
      ],
      [
        709,
        1079
      ],
      [
        741,
        1072
      ],
      [
        765,
        1088
      ],
      [
        807,
        1078
      ],
      [
        822,
        1093
      ],
      [
        898,
        1101
      ],
      [
        915,
        1119
      ],
      [
        947,
        1126
      ],
      [
        970,
        1155
      ],
      [
        1000,
        1160
      ],
      [
        1021,
        1185
      ],
      [
        1124,
        1198
      ],
      [
        1145,
        1231
      ],
      [
        1193,
        1191
      ],
      [
        1380,
        1180
      ],
      [
        1398,
        1158
      ],
      [
        1390,
        1077
      ],
      [
        1456,
        996
      ],
      [
        1477,
        997
      ],
      [
        1513,
        1032
      ],
      [
        1581,
        1049
      ],
      [
        1601,
        993
      ],
      [
        1553,
        933
      ],
      [
        1561,
        909
      ],
      [
        1594,
        905
      ],
      [
        1650,
        869
      ],
      [
        1704,
        863
      ],
      [
        1720,
        877
      ],
      [
        1732,
        935
      ],
      [
        1799,
        951
      ],
      [
        1837,
        933
      ],
      [
        1887,
        932
      ],
      [
        1897,
        899
      ],
      [
        1963,
        884
      ],
      [
        1963,
        853
      ],
      [
        1914,
        830
      ],
      [
        1898,
        747
      ],
      [
        1874,
        720
      ],
      [
        1872,
        691
      ],
      [
        1891,
        657
      ],
      [
        1931,
        629
      ],
      [
        1938,
        572
      ],
      [
        1989,
        528
      ],
      [
        1991,
        508
      ],
      [
        1970,
        480
      ]
    ],
    "seats": []
  },
  "features": [
    {
      "type": "Feature",
      "properties": {
        "kind": "state_boundary",
        "state": "司隶",
        "color": "#6A1B9A"
      },
      "geometry": {
        "type": "Polygon",
        "coordinates": [
          [
            [
              115.43053,
              33.53368
            ],
            [
              115.09707,
              33.46722
            ],
            [
              114.93034,
              33.32185
            ],
            [
              114.60698,
              33.23878
            ],
            [
              114.51604,
              33.48799
            ],
            [
              114.58172,
              33.54614
            ],
            [
              114.5514,
              33.71644
            ],
            [
              114.32909,
              33.84936
            ],
            [
              114.2432,
              33.98227
            ],
            [
              114.26341,
              34.26472
            ],
            [
              113.90469,
              34.49317
            ],
            [
              113.74806,
              34.47655
            ],
            [
              113.60659,
              34.59701
            ],
            [
              113.39439,
              34.59701
            ],
            [
              113.27313,
              34.54301
            ],
            [
              113.04577,
              34.28549
            ],
            [
              112.79314,
              34.21072
            ],
            [
              112.83861,
              34.11934
            ],
            [
              113.15692,
              34.15672
            ],
            [
              113.23271,
              33.99058
            ],
            [
              112.85377,
              33.84936
            ],
            [
              112.43947,
              33.49215
            ],
            [
              112.38894,
              33.23878
            ],
            [
              112.44452,
              32.91064
            ],
            [
              112.202,
              32.9231
            ],
            [
              112.11106,
              32.8691
            ],
            [
              111.99485,
              32.66142
            ],
            [
              111.5856,
              32.5742
            ],
            [
              111.12582,
              32.64481
            ],
            [
              110.71152,
              32.62819
            ],
            [
              110.72668,
              32.91064
            ],
            [
              110.80247,
              33.05186
            ],
            [
              110.74689,
              33.46722
            ],
            [
              110.78731,
              33.72475
            ],
            [
              110.74184,
              33.76213
            ],
            [
              110.52963,
              33.79121
            ],
            [
              110.17091,
              33.71644
            ],
            [
              109.94355,
              33.8369
            ],
            [
              109.7566,
              33.82859
            ],
            [
              109.3423,
              33.95735
            ],
            [
              109.38272,
              34.04458
            ],
            [
              109.3423,
              34.15257
            ],
            [
              109.11494,
              34.09442
            ],
            [
              109.00379,
              34.16503
            ],
            [
              109.06441,
              34.25226
            ],
            [
              109.05936,
              34.55547
            ],
            [
              108.99368,
              34.61362
            ],
            [
              108.85221,
              34.60947
            ],
            [
              108.75621,
              34.50978
            ],
            [
              108.48338,
              34.43502
            ],
            [
              108.33181,
              34.55132
            ],
            [
              108.13476,
              34.53055
            ],
            [
              107.64972,
              34.79638
            ],
            [
              107.52846,
              34.94176
            ],
            [
              107.22531,
              34.97498
            ],
            [
              107.18995,
              35.04144
            ],
            [
              106.90196,
              34.99575
            ],
            [
              106.78575,
              35.0539
            ],
            [
              106.64933,
              34.87114
            ],
            [
              106.46239,
              34.78392
            ],
            [
              106.28555,
              34.57208
            ],
            [
              106.14914,
              34.52639
            ],
            [
              105.93188,
              34.55132
            ],
            [
              105.80052,
              34.60947
            ],
            [
              105.76515,
              34.73408
            ],
            [
              105.91672,
              34.85038
            ],
            [
              106.01272,
              35.0456
            ],
            [
              105.93693,
              35.19928
            ],
            [
              105.64894,
              35.44019
            ],
            [
              105.63378,
              35.53988
            ],
            [
              105.73483,
              35.71848
            ],
            [
              105.90157,
              35.78909
            ],
            [
              106.1845,
              35.7974
            ],
            [
              106.42197,
              35.7434
            ],
            [
              106.52807,
              35.82232
            ],
            [
              106.6847,
              35.82648
            ],
            [
              106.7807,
              35.88463
            ],
            [
              106.76049,
              36.01754
            ],
            [
              106.85143,
              36.12138
            ],
            [
              107.11921,
              36.09646
            ],
            [
              107.65983,
              36.35398
            ],
            [
              107.97813,
              36.33737
            ],
            [
              107.96298,
              36.12138
            ],
            [
              108.07918,
              36.084
            ],
            [
              108.14992,
              36.10892
            ],
            [
              108.17013,
              36.20445
            ],
            [
              108.30654,
              36.20861
            ],
            [
              108.23581,
              36.32075
            ],
            [
              108.98863,
              36.20445
            ],
            [
              109.0442,
              36.24184
            ],
            [
              109.20588,
              36.21276
            ],
            [
              109.32714,
              36.27922
            ],
            [
              109.53935,
              36.23768
            ],
            [
              109.61513,
              36.29999
            ],
            [
              109.99912,
              36.33322
            ],
            [
              110.08501,
              36.40798
            ],
            [
              110.24669,
              36.43706
            ],
            [
              110.3629,
              36.55751
            ],
            [
              110.51448,
              36.57828
            ],
            [
              110.62058,
              36.68212
            ],
            [
              111.14098,
              36.73612
            ],
            [
              111.24708,
              36.87319
            ],
            [
              111.4896,
              36.70704
            ],
            [
              112.43442,
              36.66135
            ],
            [
              112.52536,
              36.56997
            ],
            [
              112.48494,
              36.23353
            ],
            [
              112.8184,
              35.89709
            ],
            [
              112.92451,
              35.90124
            ],
            [
              113.1064,
              36.04662
            ],
            [
              113.44996,
              36.11723
            ],
            [
              113.55101,
              35.88463
            ],
            [
              113.30849,
              35.63541
            ],
            [
              113.34891,
              35.53572
            ],
            [
              113.51565,
              35.51911
            ],
            [
              113.79858,
              35.36958
            ],
            [
              114.07142,
              35.34466
            ],
            [
              114.15226,
              35.40281
            ],
            [
              114.21289,
              35.64372
            ],
            [
              114.5514,
              35.71017
            ],
            [
              114.7434,
              35.63541
            ],
            [
              114.99602,
              35.63126
            ],
            [
              115.04655,
              35.49419
            ],
            [
              115.38001,
              35.43188
            ],
            [
              115.38001,
              35.30312
            ],
            [
              115.13244,
              35.20759
            ],
            [
              115.0516,
              34.86284
            ],
            [
              114.93034,
              34.75069
            ],
            [
              114.92023,
              34.63023
            ],
            [
              115.01623,
              34.48901
            ],
            [
              115.21833,
              34.37271
            ],
            [
              115.2537,
              34.13596
            ],
            [
              115.51137,
              33.9532
            ],
            [
              115.52148,
              33.87012
            ],
            [
              115.41538,
              33.75382
            ],
            [
              115.43053,
              33.53368
            ]
          ]
        ]
      }
    }
  ]
}