{
  "type": "FeatureCollection",
  "metadata": {
    "state": "并州",
    "color": "#8E44AD",
    "gcps": 15,
    "max_err_km": 6.8,
    "avg_err_km": 3,
    "verified": true
  },
  "pixels": {
    "gcps": [
      {
        "px": 1405,
        "py": 831,
        "lon": 112.55,
        "lat": 37.87,
        "name": "太原"
      },
      {
        "px": 1741,
        "py": 794,
        "lon": 114.51,
        "lat": 38.04,
        "name": "石家庄"
      },
      {
        "px": 885,
        "py": 1092,
        "lon": 109.49,
        "lat": 36.6,
        "name": "延安"
      },
      {
        "px": 926,
        "py": 740,
        "lon": 109.74,
        "lat": 38.29,
        "name": "榆林"
      },
      {
        "px": 1168,
        "py": 907,
        "lon": 111.13,
        "lat": 37.52,
        "name": "吕梁/离石"
      },
      {
        "px": 1269,
        "py": 177,
        "lon": 111.73,
        "lat": 40.83,
        "name": "呼和浩特"
      },
      {
        "px": 964,
        "py": 226,
        "lon": 109.84,
        "lat": 40.66,
        "name": "包头"
      },
      {
        "px": 1545,
        "py": 343,
        "lon": 113.3,
        "lat": 40.08,
        "name": "大同"
      },
      {
        "px": 1230,
        "py": 1212,
        "lon": 111.52,
        "lat": 36.08,
        "name": "临汾"
      },
      {
        "px": 1458,
        "py": 1337,
        "lon": 112.85,
        "lat": 35.5,
        "name": "晋城"
      },
      {
        "px": 934,
        "py": 452,
        "lon": 109.78,
        "lat": 39.61,
        "name": "鄂尔多斯/东胜"
      },
      {
        "px": 1385,
        "py": 512,
        "lon": 112.43,
        "lat": 39.33,
        "name": "朔州"
      },
      {
        "px": 1437,
        "py": 713,
        "lon": 112.73,
        "lat": 38.42,
        "name": "忻州"
      },
      {
        "px": 1720,
        "py": 1209,
        "lon": 114.4,
        "lat": 36.1,
        "name": "安阳"
      },
      {
        "px": 1505,
        "py": 142,
        "lon": 113.13,
        "lat": 41.03,
        "name": "乌兰察布/集宁"
      }
    ],
    "bnd": [
      [
        341,
        353
      ],
      [
        329,
        309
      ],
      [
        329,
        261
      ],
      [
        347,
        202
      ],
      [
        369,
        169
      ],
      [
        414,
        137
      ],
      [
        466,
        116
      ],
      [
        486,
        81
      ],
      [
        514,
        61
      ],
      [
        557,
        50
      ],
      [
        634,
        68
      ],
      [
        702,
        59
      ],
      [
        807,
        97
      ],
      [
        856,
        95
      ],
      [
        888,
        86
      ],
      [
        917,
        96
      ],
      [
        946,
        88
      ],
      [
        995,
        99
      ],
      [
        1035,
        119
      ],
      [
        1050,
        120
      ],
      [
        1091,
        123
      ],
      [
        1127,
        138
      ],
      [
        1176,
        144
      ],
      [
        1220,
        136
      ],
      [
        1254,
        145
      ],
      [
        1343,
        135
      ],
      [
        1398,
        135
      ],
      [
        1454,
        150
      ],
      [
        1529,
        207
      ],
      [
        1598,
        201
      ],
      [
        1596,
        224
      ],
      [
        1591,
        245
      ],
      [
        1589,
        251
      ],
      [
        1585,
        303
      ],
      [
        1577,
        332
      ],
      [
        1565,
        350
      ],
      [
        1533,
        379
      ],
      [
        1541,
        405
      ],
      [
        1550,
        412
      ],
      [
        1560,
        412
      ],
      [
        1581,
        396
      ],
      [
        1599,
        397
      ],
      [
        1625,
        451
      ],
      [
        1604,
        457
      ],
      [
        1598,
        470
      ],
      [
        1600,
        487
      ],
      [
        1610,
        494
      ],
      [
        1629,
        501
      ],
      [
        1642,
        512
      ],
      [
        1655,
        538
      ],
      [
        1653,
        557
      ],
      [
        1632,
        585
      ],
      [
        1618,
        586
      ],
      [
        1616,
        593
      ],
      [
        1620,
        602
      ],
      [
        1628,
        614
      ],
      [
        1629,
        631
      ],
      [
        1618,
        636
      ],
      [
        1616,
        648
      ],
      [
        1604,
        666
      ],
      [
        1591,
        664
      ],
      [
        1581,
        680
      ],
      [
        1577,
        719
      ],
      [
        1582,
        726
      ],
      [
        1579,
        741
      ],
      [
        1588,
        752
      ],
      [
        1591,
        766
      ],
      [
        1587,
        786
      ],
      [
        1569,
        806
      ],
      [
        1558,
        826
      ],
      [
        1554,
        851
      ],
      [
        1565,
        871
      ],
      [
        1587,
        875
      ],
      [
        1600,
        899
      ],
      [
        1646,
        925
      ],
      [
        1647,
        939
      ],
      [
        1636,
        951
      ],
      [
        1632,
        959
      ],
      [
        1631,
        970
      ],
      [
        1616,
        986
      ],
      [
        1614,
        1016
      ],
      [
        1619,
        1033
      ],
      [
        1617,
        1048
      ],
      [
        1620,
        1067
      ],
      [
        1616,
        1076
      ],
      [
        1595,
        1085
      ],
      [
        1585,
        1080
      ],
      [
        1580,
        1070
      ],
      [
        1566,
        1079
      ],
      [
        1563,
        1094
      ],
      [
        1576,
        1100
      ],
      [
        1575,
        1106
      ],
      [
        1584,
        1108
      ],
      [
        1578,
        1126
      ],
      [
        1600,
        1142
      ],
      [
        1605,
        1149
      ],
      [
        1603,
        1158
      ],
      [
        1604,
        1162
      ],
      [
        1602,
        1169
      ],
      [
        1599,
        1173
      ],
      [
        1599,
        1188
      ],
      [
        1589,
        1195
      ],
      [
        1597,
        1199
      ],
      [
        1604,
        1209
      ],
      [
        1598,
        1215
      ],
      [
        1597,
        1232
      ],
      [
        1589,
        1237
      ],
      [
        1586,
        1245
      ],
      [
        1567,
        1255
      ],
      [
        1552,
        1280
      ],
      [
        1559,
        1313
      ],
      [
        1556,
        1327
      ],
      [
        1546,
        1336
      ],
      [
        1534,
        1337
      ],
      [
        1532,
        1348
      ],
      [
        1522,
        1349
      ],
      [
        1520,
        1354
      ],
      [
        1513,
        1355
      ],
      [
        1508,
        1364
      ],
      [
        1501,
        1367
      ],
      [
        1485,
        1362
      ],
      [
        1469,
        1380
      ],
      [
        1461,
        1385
      ],
      [
        1445,
        1382
      ],
      [
        1438,
        1387
      ],
      [
        1429,
        1376
      ],
      [
        1421,
        1376
      ],
      [
        1418,
        1376
      ],
      [
        1414,
        1361
      ],
      [
        1384,
        1329
      ],
      [
        1354,
        1322
      ],
      [
        1346,
        1313
      ],
      [
        1357,
        1303
      ],
      [
        1380,
        1306
      ],
      [
        1400,
        1311
      ],
      [
        1414,
        1281
      ],
      [
        1408,
        1273
      ],
      [
        1357,
        1254
      ],
      [
        1333,
        1235
      ],
      [
        1313,
        1214
      ],
      [
        1294,
        1182
      ],
      [
        1291,
        1155
      ],
      [
        1295,
        1126
      ],
      [
        1304,
        1100
      ],
      [
        1298,
        1092
      ],
      [
        1280,
        1092
      ],
      [
        1268,
        1095
      ],
      [
        1253,
        1087
      ],
      [
        1246,
        1073
      ],
      [
        1246,
        1057
      ],
      [
        1235,
        1049
      ],
      [
        1222,
        1043
      ],
      [
        1198,
        1043
      ],
      [
        1177,
        1033
      ],
      [
        1156,
        1034
      ],
      [
        1137,
        1036
      ],
      [
        1106,
        1047
      ],
      [
        1088,
        1043
      ],
      [
        1073,
        1046
      ],
      [
        1051,
        1042
      ],
      [
        1049,
        1068
      ],
      [
        1055,
        1072
      ],
      [
        1053,
        1083
      ],
      [
        1053,
        1093
      ],
      [
        1062,
        1104
      ],
      [
        1061,
        1115
      ],
      [
        1066,
        1122
      ],
      [
        1060,
        1132
      ],
      [
        1059,
        1151
      ],
      [
        1056,
        1164
      ],
      [
        1058,
        1178
      ],
      [
        1055,
        1191
      ],
      [
        1057,
        1206
      ],
      [
        1062,
        1226
      ],
      [
        1060,
        1235
      ],
      [
        1054,
        1239
      ],
      [
        1038,
        1243
      ],
      [
        1027,
        1244
      ],
      [
        1014,
        1241
      ],
      [
        994,
        1230
      ],
      [
        973,
        1232
      ],
      [
        940,
        1253
      ],
      [
        917,
        1251
      ],
      [
        899,
        1255
      ],
      [
        882,
        1263
      ],
      [
        865,
        1267
      ],
      [
        854,
        1275
      ],
      [
        861,
        1288
      ],
      [
        862,
        1299
      ],
      [
        856,
        1307
      ],
      [
        844,
        1307
      ],
      [
        829,
        1296
      ],
      [
        816,
        1297
      ],
      [
        806,
        1312
      ],
      [
        817,
        1331
      ],
      [
        813,
        1342
      ],
      [
        812,
        1354
      ],
      [
        813,
        1363
      ],
      [
        817,
        1371
      ],
      [
        814,
        1381
      ],
      [
        803,
        1388
      ],
      [
        787,
        1386
      ],
      [
        774,
        1369
      ],
      [
        764,
        1367
      ],
      [
        747,
        1361
      ],
      [
        736,
        1354
      ],
      [
        736,
        1347
      ],
      [
        743,
        1331
      ],
      [
        758,
        1321
      ],
      [
        767,
        1312
      ],
      [
        778,
        1268
      ],
      [
        810,
        1247
      ],
      [
        809,
        1222
      ],
      [
        794,
        1207
      ],
      [
        776,
        1200
      ],
      [
        763,
        1199
      ],
      [
        751,
        1194
      ],
      [
        744,
        1177
      ],
      [
        743,
        1168
      ],
      [
        723,
        1145
      ],
      [
        719,
        1124
      ],
      [
        720,
        1091
      ],
      [
        724,
        1068
      ],
      [
        727,
        1050
      ],
      [
        715,
        1025
      ],
      [
        710,
        1006
      ],
      [
        706,
        977
      ],
      [
        675,
        975
      ],
      [
        611,
        957
      ],
      [
        611,
        930
      ],
      [
        637,
        893
      ],
      [
        638,
        791
      ],
      [
        667,
        765
      ],
      [
        709,
        739
      ],
      [
        730,
        681
      ],
      [
        735,
        569
      ],
      [
        757,
        550
      ],
      [
        777,
        529
      ],
      [
        780,
        400
      ],
      [
        746,
        410
      ],
      [
        679,
        395
      ],
      [
        627,
        401
      ],
      [
        547,
        378
      ],
      [
        527,
        354
      ],
      [
        341,
        353
      ]
    ],
    "seats": [
      {
        "px": 464,
        "py": 269,
        "name": "朔方郡/临戎",
        "role": "commandery"
      },
      {
        "px": 928,
        "py": 221,
        "name": "五原郡/九原",
        "role": "commandery"
      },
      {
        "px": 1198,
        "py": 242,
        "name": "云中郡/云中",
        "role": "commandery"
      },
      {
        "px": 1376,
        "py": 364,
        "name": "定襄郡/善无",
        "role": "commandery"
      },
      {
        "px": 1433,
        "py": 531,
        "name": "雁门郡/阴馆",
        "role": "commandery"
      },
      {
        "px": 1452,
        "py": 1205,
        "name": "上党郡/长子",
        "role": "commandery"
      },
      {
        "px": 1394,
        "py": 855,
        "name": "太原郡/晋阳",
        "role": "capital"
      },
      {
        "px": 1168,
        "py": 906,
        "name": "西河郡/离石",
        "role": "commandery"
      },
      {
        "px": 950,
        "py": 803,
        "name": "上郡/肤施",
        "role": "commandery"
      }
    ]
  },
  "features": [
    {
      "type": "Feature",
      "properties": {
        "kind": "state_boundary",
        "state": "并州",
        "color": "#8E44AD"
      },
      "geometry": {
        "type": "Polygon",
        "coordinates": [
          [
            [
              106.25581,
              40.05284
            ],
            [
              106.18351,
              40.25607
            ],
            [
              106.18169,
              40.47786
            ],
            [
              106.28539,
              40.75058
            ],
            [
              106.41362,
              40.90318
            ],
            [
              106.67725,
              41.0513
            ],
            [
              106.9825,
              41.14862
            ],
            [
              107.09888,
              41.31046
            ],
            [
              107.26292,
              41.40303
            ],
            [
              107.51558,
              41.4541
            ],
            [
              107.96946,
              41.37136
            ],
            [
              108.36933,
              41.41333
            ],
            [
              108.98876,
              41.23834
            ],
            [
              109.27708,
              41.24786
            ],
            [
              109.46508,
              41.28963
            ],
            [
              109.63614,
              41.24358
            ],
            [
              109.80652,
              41.28071
            ],
            [
              110.09533,
              41.23016
            ],
            [
              110.33151,
              41.13798
            ],
            [
              110.41983,
              41.13344
            ],
            [
              110.66126,
              41.11981
            ],
            [
              110.87371,
              41.05071
            ],
            [
              111.16233,
              41.02326
            ],
            [
              111.42099,
              41.06047
            ],
            [
              111.62144,
              41.01908
            ],
            [
              112.14488,
              41.06579
            ],
            [
              112.46859,
              41.0661
            ],
            [
              112.79875,
              40.99711
            ],
            [
              113.24233,
              40.73416
            ],
            [
              113.64821,
              40.76227
            ],
            [
              113.63731,
              40.65599
            ],
            [
              113.60868,
              40.55892
            ],
            [
              113.59714,
              40.53119
            ],
            [
              113.57558,
              40.2909
            ],
            [
              113.52959,
              40.15685
            ],
            [
              113.45965,
              40.07362
            ],
            [
              113.27241,
              39.93944
            ],
            [
              113.32049,
              39.81935
            ],
            [
              113.37372,
              39.78705
            ],
            [
              113.43258,
              39.78711
            ],
            [
              113.55557,
              39.86116
            ],
            [
              113.66155,
              39.85664
            ],
            [
              113.81662,
              39.60727
            ],
            [
              113.69326,
              39.57943
            ],
            [
              113.65844,
              39.51933
            ],
            [
              113.67085,
              39.44079
            ],
            [
              113.72998,
              39.4085
            ],
            [
              113.84207,
              39.37627
            ],
            [
              113.919,
              39.32551
            ],
            [
              113.9965,
              39.20545
            ],
            [
              113.98545,
              39.11765
            ],
            [
              113.86292,
              38.98815
            ],
            [
              113.78056,
              38.98345
            ],
            [
              113.76905,
              38.9511
            ],
            [
              113.79294,
              38.90954
            ],
            [
              113.84048,
              38.85413
            ],
            [
              113.84701,
              38.77559
            ],
            [
              113.78246,
              38.75243
            ],
            [
              113.77114,
              38.69697
            ],
            [
              113.7012,
              38.61373
            ],
            [
              113.62461,
              38.6229
            ],
            [
              113.56636,
              38.54891
            ],
            [
              113.5443,
              38.36868
            ],
            [
              113.574,
              38.33637
            ],
            [
              113.55691,
              38.26704
            ],
            [
              113.6103,
              38.21627
            ],
            [
              113.62849,
              38.1516
            ],
            [
              113.60571,
              38.05916
            ],
            [
              113.50053,
              37.96665
            ],
            [
              113.43654,
              37.87417
            ],
            [
              113.41395,
              37.75864
            ],
            [
              113.47945,
              37.66629
            ],
            [
              113.60909,
              37.64793
            ],
            [
              113.68651,
              37.53711
            ],
            [
              113.95824,
              37.41723
            ],
            [
              113.96466,
              37.35255
            ],
            [
              113.90037,
              37.29704
            ],
            [
              113.87713,
              37.26005
            ],
            [
              113.87167,
              37.20922
            ],
            [
              113.78399,
              37.13521
            ],
            [
              113.77336,
              36.99658
            ],
            [
              113.80343,
              36.91805
            ],
            [
              113.79223,
              36.84873
            ],
            [
              113.81061,
              36.76096
            ],
            [
              113.78741,
              36.71935
            ],
            [
              113.66416,
              36.67765
            ],
            [
              113.60511,
              36.70069
            ],
            [
              113.5753,
              36.74687
            ],
            [
              113.49325,
              36.70521
            ],
            [
              113.47616,
              36.63588
            ],
            [
              113.5529,
              36.60823
            ],
            [
              113.54724,
              36.5805
            ],
            [
              113.60029,
              36.57131
            ],
            [
              113.56566,
              36.48811
            ],
            [
              113.69575,
              36.4143
            ],
            [
              113.72544,
              36.38199
            ],
            [
              113.71402,
              36.34039
            ],
            [
              113.72005,
              36.32191
            ],
            [
              113.70855,
              36.28956
            ],
            [
              113.69104,
              36.27106
            ],
            [
              113.69161,
              36.20175
            ],
            [
              113.63302,
              36.16935
            ],
            [
              113.68026,
              36.15091
            ],
            [
              113.72184,
              36.10475
            ],
            [
              113.68675,
              36.07699
            ],
            [
              113.68151,
              35.99843
            ],
            [
              113.63462,
              35.97528
            ],
            [
              113.61727,
              35.9383
            ],
            [
              113.50582,
              35.89199
            ],
            [
              113.41849,
              35.77639
            ],
            [
              113.46094,
              35.62395
            ],
            [
              113.44382,
              35.55924
            ],
            [
              113.3853,
              35.5176
            ],
            [
              113.31471,
              35.51291
            ],
            [
              113.30336,
              35.46208
            ],
            [
              113.24454,
              35.4574
            ],
            [
              113.23296,
              35.43428
            ],
            [
              113.1918,
              35.42962
            ],
            [
              113.16272,
              35.38801
            ],
            [
              113.12163,
              35.37411
            ],
            [
              113.02727,
              35.39712
            ],
            [
              112.93379,
              35.31386
            ],
            [
              112.88689,
              35.29071
            ],
            [
              112.79261,
              35.30448
            ],
            [
              112.7516,
              35.28134
            ],
            [
              112.69821,
              35.33212
            ],
            [
              112.65113,
              35.33207
            ],
            [
              112.63347,
              35.33206
            ],
            [
              112.60936,
              35.40134
            ],
            [
              112.43157,
              35.54903
            ],
            [
              112.25474,
              35.58121
            ],
            [
              112.20731,
              35.62275
            ],
            [
              112.27167,
              35.66901
            ],
            [
              112.40716,
              35.65528
            ],
            [
              112.52506,
              35.63229
            ],
            [
              112.60632,
              35.77099
            ],
            [
              112.5707,
              35.80792
            ],
            [
              112.26981,
              35.89542
            ],
            [
              112.12784,
              35.98308
            ],
            [
              112.00933,
              36.08
            ],
            [
              111.89628,
              36.22775
            ],
            [
              111.8776,
              36.35249
            ],
            [
              111.90004,
              36.48651
            ],
            [
              111.95202,
              36.60669
            ],
            [
              111.9164,
              36.64363
            ],
            [
              111.81046,
              36.64352
            ],
            [
              111.73995,
              36.62959
            ],
            [
              111.65136,
              36.66647
            ],
            [
              111.60963,
              36.73112
            ],
            [
              111.60902,
              36.80505
            ],
            [
              111.54398,
              36.84195
            ],
            [
              111.46724,
              36.86961
            ],
            [
              111.32598,
              36.86947
            ],
            [
              111.20201,
              36.91556
            ],
            [
              111.07845,
              36.91082
            ],
            [
              110.9667,
              36.90147
            ],
            [
              110.78466,
              36.85047
            ],
            [
              110.67857,
              36.86885
            ],
            [
              110.5904,
              36.8549
            ],
            [
              110.46077,
              36.87326
            ],
            [
              110.44998,
              36.75311
            ],
            [
              110.48545,
              36.73466
            ],
            [
              110.47409,
              36.68383
            ],
            [
              110.47447,
              36.63762
            ],
            [
              110.52786,
              36.58684
            ],
            [
              110.5224,
              36.53601
            ],
            [
              110.55209,
              36.5037
            ],
            [
              110.51716,
              36.45746
            ],
            [
              110.51199,
              36.36966
            ],
            [
              110.49483,
              36.30957
            ],
            [
              110.50713,
              36.2449
            ],
            [
              110.48997,
              36.18481
            ],
            [
              110.50231,
              36.11552
            ],
            [
              110.5325,
              36.02313
            ],
            [
              110.52107,
              35.98154
            ],
            [
              110.48591,
              35.96302
            ],
            [
              110.39189,
              35.94445
            ],
            [
              110.32719,
              35.93976
            ],
            [
              110.25056,
              35.95355
            ],
            [
              110.13243,
              36.00427
            ],
            [
              110.00891,
              35.99491
            ],
            [
              109.81549,
              35.89769
            ],
            [
              109.68004,
              35.9068
            ],
            [
              109.57425,
              35.88821
            ],
            [
              109.4745,
              35.85115
            ],
            [
              109.3746,
              35.83257
            ],
            [
              109.31016,
              35.79555
            ],
            [
              109.35186,
              35.73552
            ],
            [
              109.35816,
              35.6847
            ],
            [
              109.32315,
              35.6477
            ],
            [
              109.25252,
              35.64763
            ],
            [
              109.16382,
              35.69837
            ],
            [
              109.08735,
              35.69368
            ],
            [
              109.02906,
              35.62431
            ],
            [
              109.09452,
              35.53658
            ],
            [
              109.0714,
              35.48574
            ],
            [
              109.06597,
              35.43028
            ],
            [
              109.0722,
              35.3887
            ],
            [
              109.09604,
              35.35176
            ],
            [
              109.07877,
              35.30554
            ],
            [
              109.01429,
              35.27313
            ],
            [
              108.92005,
              35.28228
            ],
            [
              108.84289,
              35.36076
            ],
            [
              108.78396,
              35.36994
            ],
            [
              108.68367,
              35.39757
            ],
            [
              108.61867,
              35.42985
            ],
            [
              108.6184,
              35.4622
            ],
            [
              108.65899,
              35.53617
            ],
            [
              108.74689,
              35.58246
            ],
            [
              108.79952,
              35.62409
            ],
            [
              108.86259,
              35.82746
            ],
            [
              109.05013,
              35.92468
            ],
            [
              109.0433,
              36.04018
            ],
            [
              108.95444,
              36.10941
            ],
            [
              108.84824,
              36.14165
            ],
            [
              108.77169,
              36.1462
            ],
            [
              108.70087,
              36.16923
            ],
            [
              108.65902,
              36.24774
            ],
            [
              108.6528,
              36.28932
            ],
            [
              108.53421,
              36.39548
            ],
            [
              108.50987,
              36.49249
            ],
            [
              108.5145,
              36.64498
            ],
            [
              108.53717,
              36.75128
            ],
            [
              108.55414,
              36.83446
            ],
            [
              108.48256,
              36.94991
            ],
            [
              108.45241,
              37.03767
            ],
            [
              108.42777,
              37.17165
            ],
            [
              108.24524,
              37.18071
            ],
            [
              107.86788,
              37.26352
            ],
            [
              107.86685,
              37.38828
            ],
            [
              108.01847,
              37.55939
            ],
            [
              108.02048,
              38.03069
            ],
            [
              108.19017,
              38.15099
            ],
            [
              108.43638,
              38.27137
            ],
            [
              108.55777,
              38.53948
            ],
            [
              108.58294,
              39.05701
            ],
            [
              108.7117,
              39.14493
            ],
            [
              108.82862,
              39.24208
            ],
            [
              108.84137,
              39.83815
            ],
            [
              108.64164,
              39.79175
            ],
            [
              108.24674,
              39.86068
            ],
            [
              107.94091,
              39.83266
            ],
            [
              107.46919,
              39.93848
            ],
            [
              107.35057,
              40.04927
            ],
            [
              106.25581,
              40.05284
            ],
            [
              106.25581,
              40.05284
            ]
          ]
        ]
      }
    },
    {
      "type": "Feature",
      "properties": {
        "kind": "commandery_seat",
        "state": "并州",
        "name": "朔方郡/临戎",
        "role": "commandery",
        "lon": 106.97655,
        "lat": 40.44166
      },
      "geometry": {
        "type": "Point",
        "coordinates": [
          106.97655,
          40.44166
        ]
      }
    },
    {
      "type": "Feature",
      "properties": {
        "kind": "commandery_seat",
        "state": "并州",
        "name": "五原郡/九原",
        "role": "commandery",
        "lon": 109.70563,
        "lat": 40.66607
      },
      "geometry": {
        "type": "Point",
        "coordinates": [
          109.70563,
          40.66607
        ]
      }
    },
    {
      "type": "Feature",
      "properties": {
        "kind": "commandery_seat",
        "state": "并州",
        "name": "云中郡/云中",
        "role": "commandery",
        "lon": 111.29554,
        "lat": 40.57057
      },
      "geometry": {
        "type": "Point",
        "coordinates": [
          111.29554,
          40.57057
        ]
      }
    },
    {
      "type": "Feature",
      "properties": {
        "kind": "commandery_seat",
        "state": "并州",
        "name": "定襄郡/善无",
        "role": "commandery",
        "lon": 112.34781,
        "lat": 40.00786
      },
      "geometry": {
        "type": "Point",
        "coordinates": [
          112.34781,
          40.00786
        ]
      }
    },
    {
      "type": "Feature",
      "properties": {
        "kind": "commandery_seat",
        "state": "并州",
        "name": "雁门郡/阴馆",
        "role": "commandery",
        "lon": 112.68963,
        "lat": 39.23654
      },
      "geometry": {
        "type": "Point",
        "coordinates": [
          112.68963,
          39.23654
        ]
      }
    },
    {
      "type": "Feature",
      "properties": {
        "kind": "commandery_seat",
        "state": "并州",
        "name": "上党郡/长子",
        "role": "commandery",
        "lon": 112.82708,
        "lat": 36.12237
      },
      "geometry": {
        "type": "Point",
        "coordinates": [
          112.82708,
          36.12237
        ]
      }
    },
    {
      "type": "Feature",
      "properties": {
        "kind": "commandery_seat",
        "state": "并州",
        "name": "太原郡/晋阳",
        "role": "capital",
        "lon": 112.47241,
        "lat": 37.73925
      },
      "geometry": {
        "type": "Point",
        "coordinates": [
          112.47241,
          37.73925
        ]
      }
    },
    {
      "type": "Feature",
      "properties": {
        "kind": "commandery_seat",
        "state": "并州",
        "name": "西河郡/离石",
        "role": "commandery",
        "lon": 111.14421,
        "lat": 37.50232
      },
      "geometry": {
        "type": "Point",
        "coordinates": [
          111.14421,
          37.50232
        ]
      }
    },
    {
      "type": "Feature",
      "properties": {
        "kind": "commandery_seat",
        "state": "并州",
        "name": "上郡/肤施",
        "role": "commandery",
        "lon": 109.85724,
        "lat": 37.97701
      },
      "geometry": {
        "type": "Point",
        "coordinates": [
          109.85724,
          37.97701
        ]
      }
    }
  ]
}