{
  "type": "FeatureCollection",
  "metadata": {
    "state": "幽州",
    "color": "#FFFFFF",
    "gcps": 12,
    "max_err_km": 13,
    "avg_err_km": 5.6
  },
  "pixels": {
    "gcps": [
      {
        "px": 466,
        "py": 702,
        "lon": 116.41,
        "lat": 39.9,
        "name": "北京"
      },
      {
        "px": 42,
        "py": 668,
        "lon": 113.3,
        "lat": 40.08,
        "name": "大同"
      },
      {
        "px": 578,
        "py": 851,
        "lon": 117.2,
        "lat": 39.13,
        "name": "天津"
      },
      {
        "px": 1195,
        "py": 882,
        "lon": 121.55,
        "lat": 38.9,
        "name": "大连/旅顺"
      },
      {
        "px": 1454,
        "py": 375,
        "lon": 123.43,
        "lat": 41.8,
        "name": "沈阳"
      },
      {
        "px": 1769,
        "py": 873,
        "lon": 125.62,
        "lat": 39.02,
        "name": "平壤/乐浪"
      },
      {
        "px": 1388,
        "py": 482,
        "lon": 122.99,
        "lat": 41.11,
        "name": "鞍山"
      },
      {
        "px": 1414,
        "py": 450,
        "lon": 123.18,
        "lat": 41.48,
        "name": "辽阳/襄平"
      },
      {
        "px": 1127,
        "py": 484,
        "lon": 121.13,
        "lat": 41.1,
        "name": "锦州"
      },
      {
        "px": 715,
        "py": 753,
        "lon": 118.18,
        "lat": 39.63,
        "name": "唐山"
      },
      {
        "px": 684,
        "py": 511,
        "lon": 117.96,
        "lat": 40.95,
        "name": "承德"
      },
      {
        "px": 902,
        "py": 706,
        "lon": 119.6,
        "lat": 39.94,
        "name": "秦皇岛"
      }
    ],
    "bnd": [
      [
        124,
        852
      ],
      [
        130,
        843
      ],
      [
        132,
        828
      ],
      [
        122,
        808
      ],
      [
        111,
        797
      ],
      [
        96,
        792
      ],
      [
        88,
        786
      ],
      [
        85,
        773
      ],
      [
        90,
        762
      ],
      [
        108,
        758
      ],
      [
        87,
        713
      ],
      [
        71,
        711
      ],
      [
        54,
        723
      ],
      [
        48,
        725
      ],
      [
        40,
        719
      ],
      [
        32,
        697
      ],
      [
        59,
        673
      ],
      [
        68,
        659
      ],
      [
        75,
        636
      ],
      [
        78,
        592
      ],
      [
        85,
        571
      ],
      [
        86,
        551
      ],
      [
        107,
        548
      ],
      [
        167,
        524
      ],
      [
        190,
        506
      ],
      [
        215,
        489
      ],
      [
        245,
        490
      ],
      [
        277,
        505
      ],
      [
        296,
        503
      ],
      [
        312,
        490
      ],
      [
        352,
        447
      ],
      [
        383,
        430
      ],
      [
        457,
        466
      ],
      [
        483,
        495
      ],
      [
        501,
        522
      ],
      [
        519,
        532
      ],
      [
        582,
        515
      ],
      [
        634,
        530
      ],
      [
        663,
        537
      ],
      [
        705,
        554
      ],
      [
        777,
        553
      ],
      [
        842,
        565
      ],
      [
        898,
        580
      ],
      [
        950,
        557
      ],
      [
        955,
        517
      ],
      [
        963,
        469
      ],
      [
        978,
        436
      ],
      [
        995,
        376
      ],
      [
        1021,
        341
      ],
      [
        1059,
        317
      ],
      [
        1112,
        317
      ],
      [
        1170,
        294
      ],
      [
        1227,
        288
      ],
      [
        1362,
        314
      ],
      [
        1425,
        274
      ],
      [
        1438,
        282
      ],
      [
        1469,
        272
      ],
      [
        1481,
        250
      ],
      [
        1515,
        242
      ],
      [
        1548,
        219
      ],
      [
        1620,
        249
      ],
      [
        1623,
        269
      ],
      [
        1571,
        314
      ],
      [
        1564,
        367
      ],
      [
        1571,
        418
      ],
      [
        1584,
        502
      ],
      [
        1599,
        543
      ],
      [
        1625,
        587
      ],
      [
        1674,
        648
      ],
      [
        1711,
        675
      ],
      [
        1757,
        694
      ],
      [
        1774,
        728
      ],
      [
        1809,
        710
      ],
      [
        1835,
        661
      ],
      [
        1853,
        645
      ],
      [
        1882,
        634
      ],
      [
        1901,
        603
      ],
      [
        1927,
        608
      ],
      [
        1963,
        626
      ],
      [
        1961,
        711
      ],
      [
        1919,
        717
      ],
      [
        1913,
        756
      ],
      [
        1916,
        801
      ],
      [
        1954,
        819
      ],
      [
        1957,
        834
      ],
      [
        1946,
        843
      ],
      [
        1958,
        877
      ],
      [
        1942,
        886
      ],
      [
        1932,
        915
      ],
      [
        1914,
        930
      ],
      [
        1921,
        981
      ],
      [
        1906,
        1025
      ],
      [
        1918,
        1056
      ],
      [
        1902,
        1091
      ],
      [
        1855,
        1078
      ],
      [
        1841,
        1076
      ],
      [
        1826,
        1087
      ],
      [
        1796,
        1075
      ],
      [
        1772,
        1042
      ],
      [
        1750,
        1042
      ],
      [
        1762,
        1054
      ],
      [
        1758,
        1066
      ],
      [
        1740,
        1088
      ],
      [
        1717,
        1100
      ],
      [
        1716,
        1089
      ],
      [
        1734,
        1077
      ],
      [
        1733,
        1066
      ],
      [
        1722,
        1075
      ],
      [
        1703,
        1082
      ],
      [
        1698,
        1069
      ],
      [
        1670,
        1067
      ],
      [
        1672,
        1052
      ],
      [
        1682,
        1041
      ],
      [
        1699,
        1035
      ],
      [
        1664,
        1033
      ],
      [
        1623,
        1025
      ],
      [
        1638,
        1011
      ],
      [
        1658,
        1007
      ],
      [
        1653,
        995
      ],
      [
        1653,
        970
      ],
      [
        1666,
        961
      ],
      [
        1667,
        944
      ],
      [
        1681,
        939
      ],
      [
        1683,
        930
      ],
      [
        1704,
        929
      ],
      [
        1728,
        912
      ],
      [
        1701,
        915
      ],
      [
        1688,
        905
      ],
      [
        1689,
        878
      ],
      [
        1725,
        820
      ],
      [
        1731,
        796
      ],
      [
        1721,
        796
      ],
      [
        1720,
        773
      ],
      [
        1677,
        759
      ],
      [
        1636,
        731
      ],
      [
        1632,
        750
      ],
      [
        1618,
        755
      ],
      [
        1598,
        738
      ],
      [
        1606,
        722
      ],
      [
        1578,
        710
      ],
      [
        1563,
        698
      ],
      [
        1541,
        719
      ],
      [
        1511,
        723
      ],
      [
        1479,
        713
      ],
      [
        1473,
        728
      ],
      [
        1449,
        731
      ],
      [
        1436,
        722
      ],
      [
        1419,
        727
      ],
      [
        1433,
        743
      ],
      [
        1398,
        745
      ],
      [
        1385,
        750
      ],
      [
        1333,
        780
      ],
      [
        1315,
        794
      ],
      [
        1281,
        812
      ],
      [
        1264,
        831
      ],
      [
        1266,
        840
      ],
      [
        1263,
        846
      ],
      [
        1231,
        866
      ],
      [
        1234,
        880
      ],
      [
        1212,
        863
      ],
      [
        1202,
        866
      ],
      [
        1204,
        883
      ],
      [
        1189,
        893
      ],
      [
        1157,
        910
      ],
      [
        1129,
        920
      ],
      [
        1126,
        901
      ],
      [
        1131,
        883
      ],
      [
        1165,
        867
      ],
      [
        1179,
        864
      ],
      [
        1202,
        848
      ],
      [
        1191,
        823
      ],
      [
        1234,
        795
      ],
      [
        1192,
        806
      ],
      [
        1172,
        792
      ],
      [
        1173,
        774
      ],
      [
        1186,
        764
      ],
      [
        1185,
        749
      ],
      [
        1174,
        734
      ],
      [
        1176,
        718
      ],
      [
        1204,
        701
      ],
      [
        1221,
        701
      ],
      [
        1223,
        693
      ],
      [
        1232,
        686
      ],
      [
        1228,
        678
      ],
      [
        1236,
        675
      ],
      [
        1246,
        658
      ],
      [
        1246,
        649
      ],
      [
        1262,
        644
      ],
      [
        1263,
        628
      ],
      [
        1275,
        620
      ],
      [
        1281,
        604
      ],
      [
        1290,
        599
      ],
      [
        1293,
        577
      ],
      [
        1285,
        555
      ],
      [
        1270,
        534
      ],
      [
        1266,
        521
      ],
      [
        1265,
        498
      ],
      [
        1234,
        478
      ],
      [
        1216,
        477
      ],
      [
        1194,
        503
      ],
      [
        1177,
        505
      ],
      [
        1155,
        503
      ],
      [
        1147,
        502
      ],
      [
        1138,
        507
      ],
      [
        1136,
        514
      ],
      [
        1122,
        526
      ],
      [
        1122,
        534
      ],
      [
        1107,
        535
      ],
      [
        1101,
        551
      ],
      [
        1106,
        557
      ],
      [
        1087,
        561
      ],
      [
        1084,
        572
      ],
      [
        1050,
        617
      ],
      [
        1038,
        647
      ],
      [
        1013,
        650
      ],
      [
        1009,
        656
      ],
      [
        992,
        662
      ],
      [
        969,
        674
      ],
      [
        958,
        683
      ],
      [
        907,
        705
      ],
      [
        906,
        719
      ],
      [
        888,
        727
      ],
      [
        862,
        769
      ],
      [
        851,
        781
      ],
      [
        833,
        796
      ],
      [
        816,
        796
      ],
      [
        806,
        792
      ],
      [
        788,
        783
      ],
      [
        764,
        782
      ],
      [
        753,
        778
      ],
      [
        732,
        776
      ],
      [
        706,
        778
      ],
      [
        681,
        770
      ],
      [
        671,
        778
      ],
      [
        661,
        797
      ],
      [
        614,
        811
      ],
      [
        599,
        840
      ],
      [
        599,
        866
      ],
      [
        569,
        855
      ],
      [
        556,
        845
      ],
      [
        545,
        856
      ],
      [
        533,
        862
      ],
      [
        523,
        863
      ],
      [
        490,
        864
      ],
      [
        463,
        860
      ],
      [
        439,
        860
      ],
      [
        415,
        863
      ],
      [
        402,
        865
      ],
      [
        376,
        887
      ],
      [
        365,
        927
      ],
      [
        348,
        927
      ],
      [
        327,
        897
      ],
      [
        328,
        858
      ],
      [
        282,
        835
      ],
      [
        255,
        822
      ],
      [
        247,
        812
      ],
      [
        245,
        800
      ],
      [
        252,
        783
      ],
      [
        273,
        755
      ],
      [
        260,
        749
      ],
      [
        216,
        762
      ],
      [
        200,
        796
      ],
      [
        202,
        808
      ],
      [
        193,
        812
      ],
      [
        191,
        836
      ],
      [
        177,
        844
      ],
      [
        167,
        856
      ],
      [
        145,
        857
      ],
      [
        124,
        852
      ]
    ],
    "seats": [
      {
        "px": 98,
        "py": 620,
        "name": "代郡/高柳",
        "role": "commandery"
      },
      {
        "px": 368,
        "py": 632,
        "name": "上谷郡/沮阳",
        "role": "commandery"
      },
      {
        "px": 461,
        "py": 706,
        "name": "广阳郡/蓟县",
        "role": "capital"
      },
      {
        "px": 408,
        "py": 779,
        "name": "涿郡/涿县",
        "role": "commandery"
      },
      {
        "px": 514,
        "py": 623,
        "name": "渔阳郡/渔阳",
        "role": "commandery"
      },
      {
        "px": 717,
        "py": 720,
        "name": "右北平郡/土垠",
        "role": "commandery"
      },
      {
        "px": 1102,
        "py": 408,
        "name": "辽西郡/阳乐",
        "role": "commandery"
      },
      {
        "px": 1144,
        "py": 399,
        "name": "辽东属国/昌黎",
        "role": "commandery"
      },
      {
        "px": 1414,
        "py": 449,
        "name": "辽东郡/襄平",
        "role": "commandery"
      },
      {
        "px": 1477,
        "py": 348,
        "name": "玄菟郡/高句丽",
        "role": "commandery"
      },
      {
        "px": 1767,
        "py": 872,
        "name": "乐浪郡/朝鲜",
        "role": "commandery"
      }
    ]
  },
  "features": [
    {
      "type": "Feature",
      "properties": {
        "kind": "state_boundary",
        "state": "幽州",
        "color": "#FFFFFF"
      },
      "geometry": {
        "type": "Polygon",
        "coordinates": [
          [
            [
              113.94523,
              39.05236
            ],
            [
              113.98874,
              39.1029
            ],
            [
              114.00425,
              39.18672
            ],
            [
              113.93469,
              39.29783
            ],
            [
              113.85725,
              39.35865
            ],
            [
              113.7508,
              39.38578
            ],
            [
              113.69431,
              39.41885
            ],
            [
              113.67403,
              39.49125
            ],
            [
              113.71058,
              39.5529
            ],
            [
              113.83916,
              39.57616
            ],
            [
              113.69334,
              39.82622
            ],
            [
              113.57952,
              39.83656
            ],
            [
              113.45739,
              39.7687
            ],
            [
              113.41447,
              39.75723
            ],
            [
              113.35798,
              39.7903
            ],
            [
              113.30284,
              39.91267
            ],
            [
              113.49723,
              40.04802
            ],
            [
              113.56253,
              40.12662
            ],
            [
              113.61434,
              40.25535
            ],
            [
              113.63942,
              40.50108
            ],
            [
              113.69106,
              40.61865
            ],
            [
              113.69987,
              40.73032
            ],
            [
              113.84974,
              40.74815
            ],
            [
              114.27923,
              40.88521
            ],
            [
              114.44461,
              40.98687
            ],
            [
              114.62416,
              41.08304
            ],
            [
              114.83781,
              41.07902
            ],
            [
              115.06453,
              40.99696
            ],
            [
              115.20006,
              41.00911
            ],
            [
              115.31515,
              41.08249
            ],
            [
              115.60375,
              41.32456
            ],
            [
              115.82605,
              41.42104
            ],
            [
              116.35022,
              41.22396
            ],
            [
              116.53302,
              41.06345
            ],
            [
              116.65898,
              40.91369
            ],
            [
              116.78638,
              40.85882
            ],
            [
              117.23666,
              40.95696
            ],
            [
              117.60587,
              40.87594
            ],
            [
              117.81189,
              40.83838
            ],
            [
              118.10968,
              40.74568
            ],
            [
              118.62273,
              40.75499
            ],
            [
              119.08481,
              40.69139
            ],
            [
              119.48252,
              40.61057
            ],
            [
              119.85493,
              40.74164
            ],
            [
              119.89393,
              40.96514
            ],
            [
              119.95497,
              41.23345
            ],
            [
              120.06462,
              41.41841
            ],
            [
              120.19079,
              41.75416
            ],
            [
              120.37898,
              41.95085
            ],
            [
              120.65173,
              42.08677
            ],
            [
              121.02933,
              42.08952
            ],
            [
              121.44449,
              42.22089
            ],
            [
              121.85109,
              42.25734
            ],
            [
              122.81071,
              42.11923
            ],
            [
              123.26292,
              42.34574
            ],
            [
              123.35487,
              42.30177
            ],
            [
              123.57657,
              42.35918
            ],
            [
              123.66392,
              42.48259
            ],
            [
              123.90682,
              42.52901
            ],
            [
              124.14387,
              42.65908
            ],
            [
              124.65431,
              42.49538
            ],
            [
              124.67399,
              42.38391
            ],
            [
              124.29973,
              42.13007
            ],
            [
              124.24539,
              41.8339
            ],
            [
              124.29096,
              41.54962
            ],
            [
              124.3765,
              41.08148
            ],
            [
              124.47991,
              40.85343
            ],
            [
              124.66144,
              40.60921
            ],
            [
              125.0054,
              40.2713
            ],
            [
              125.26673,
              40.12252
            ],
            [
              125.59285,
              40.01887
            ],
            [
              125.7111,
              39.82999
            ],
            [
              125.96198,
              39.93226
            ],
            [
              126.15135,
              40.20709
            ],
            [
              126.28093,
              40.29732
            ],
            [
              126.48847,
              40.36022
            ],
            [
              126.62645,
              40.53422
            ],
            [
              126.81127,
              40.50766
            ],
            [
              127.06623,
              40.40907
            ],
            [
              127.04482,
              39.93456
            ],
            [
              126.74508,
              39.8989
            ],
            [
              126.69905,
              39.68092
            ],
            [
              126.71663,
              39.42993
            ],
            [
              126.98584,
              39.33144
            ],
            [
              127.00595,
              39.24787
            ],
            [
              126.92682,
              39.19707
            ],
            [
              127.00945,
              39.00793
            ],
            [
              126.8947,
              38.95687
            ],
            [
              126.82101,
              38.7945
            ],
            [
              126.69151,
              38.70985
            ],
            [
              126.73708,
              38.42557
            ],
            [
              126.6265,
              38.17923
            ],
            [
              126.70938,
              38.00683
            ],
            [
              126.59244,
              37.81066
            ],
            [
              126.25869,
              37.88078
            ],
            [
              126.15911,
              37.89121
            ],
            [
              126.05132,
              37.82904
            ],
            [
              125.83859,
              37.89446
            ],
            [
              125.67039,
              38.0774
            ],
            [
              125.51365,
              38.07626
            ],
            [
              125.59813,
              38.0099
            ],
            [
              125.56862,
              37.94272
            ],
            [
              125.43853,
              37.819
            ],
            [
              125.27365,
              37.75084
            ],
            [
              125.26745,
              37.81218
            ],
            [
              125.39671,
              37.88009
            ],
            [
              125.39051,
              37.94143
            ],
            [
              125.31138,
              37.89063
            ],
            [
              125.17543,
              37.85057
            ],
            [
              125.1409,
              37.92287
            ],
            [
              124.94158,
              37.93258
            ],
            [
              124.9571,
              38.0164
            ],
            [
              125.02927,
              38.07831
            ],
            [
              125.15089,
              38.11268
            ],
            [
              124.9017,
              38.12203
            ],
            [
              124.61027,
              38.16455
            ],
            [
              124.71832,
              38.24346
            ],
            [
              124.86115,
              38.26683
            ],
            [
              124.82653,
              38.33354
            ],
            [
              124.82864,
              38.47307
            ],
            [
              124.92202,
              38.52397
            ],
            [
              124.93058,
              38.61891
            ],
            [
              125.03074,
              38.64754
            ],
            [
              125.04575,
              38.69787
            ],
            [
              125.19545,
              38.70454
            ],
            [
              125.36787,
              38.80067
            ],
            [
              125.17525,
              38.78252
            ],
            [
              125.08348,
              38.83766
            ],
            [
              125.09288,
              38.9884
            ],
            [
              125.35425,
              39.31398
            ],
            [
              125.39902,
              39.44824
            ],
            [
              125.32777,
              39.44772
            ],
            [
              125.32259,
              39.57603
            ],
            [
              125.01741,
              39.65194
            ],
            [
              124.72767,
              39.80609
            ],
            [
              124.69757,
              39.69984
            ],
            [
              124.59741,
              39.67121
            ],
            [
              124.45635,
              39.76505
            ],
            [
              124.51469,
              39.85476
            ],
            [
              124.31622,
              39.92028
            ],
            [
              124.21036,
              39.98648
            ],
            [
              124.05185,
              39.86814
            ],
            [
              123.83778,
              39.84426
            ],
            [
              123.61064,
              39.89841
            ],
            [
              123.56663,
              39.81438
            ],
            [
              123.39539,
              39.79639
            ],
            [
              123.30353,
              39.84595
            ],
            [
              123.18199,
              39.81716
            ],
            [
              123.28039,
              39.72859
            ],
            [
              123.03086,
              39.71561
            ],
            [
              122.93782,
              39.68703
            ],
            [
              122.56482,
              39.5169
            ],
            [
              122.4354,
              39.43783
            ],
            [
              122.19165,
              39.3356
            ],
            [
              122.06893,
              39.22868
            ],
            [
              122.08242,
              39.17855
            ],
            [
              122.06054,
              39.14491
            ],
            [
              121.83087,
              39.03163
            ],
            [
              121.85106,
              38.95365
            ],
            [
              121.69576,
              39.04739
            ],
            [
              121.62426,
              39.03012
            ],
            [
              121.63708,
              38.93535
            ],
            [
              121.52936,
              38.87876
            ],
            [
              121.29995,
              38.78222
            ],
            [
              121.09962,
              38.72496
            ],
            [
              121.07985,
              38.83084
            ],
            [
              121.11699,
              38.93156
            ],
            [
              121.36057,
              39.02262
            ],
            [
              121.46056,
              39.04009
            ],
            [
              121.62578,
              39.13059
            ],
            [
              121.54951,
              39.26954
            ],
            [
              121.85823,
              39.42805
            ],
            [
              121.55807,
              39.36448
            ],
            [
              121.41676,
              39.44157
            ],
            [
              121.4254,
              39.54209
            ],
            [
              121.51886,
              39.59857
            ],
            [
              121.513,
              39.68224
            ],
            [
              121.4359,
              39.76539
            ],
            [
              121.4515,
              39.85479
            ],
            [
              121.65242,
              39.95112
            ],
            [
              121.77353,
              39.952
            ],
            [
              121.78846,
              39.99676
            ],
            [
              121.85317,
              40.03629
            ],
            [
              121.82534,
              40.08073
            ],
            [
              121.88259,
              40.09789
            ],
            [
              121.95527,
              40.19329
            ],
            [
              121.95603,
              40.24352
            ],
            [
              122.07044,
              40.27226
            ],
            [
              122.07891,
              40.36161
            ],
            [
              122.16508,
              40.40688
            ],
            [
              122.20918,
              40.49649
            ],
            [
              122.27372,
              40.52486
            ],
            [
              122.29695,
              40.6478
            ],
            [
              122.24181,
              40.77017
            ],
            [
              122.13671,
              40.8866
            ],
            [
              122.10931,
              40.95895
            ],
            [
              122.10412,
              41.08726
            ],
            [
              121.88495,
              41.19728
            ],
            [
              121.75679,
              41.20193
            ],
            [
              121.59786,
              41.05567
            ],
            [
              121.47658,
              41.04363
            ],
            [
              121.32,
              41.05365
            ],
            [
              121.26309,
              41.05882
            ],
            [
              121.19855,
              41.03045
            ],
            [
              121.18371,
              40.99127
            ],
            [
              121.08296,
              40.92357
            ],
            [
              121.08228,
              40.87892
            ],
            [
              120.97533,
              40.87256
            ],
            [
              120.93124,
              40.78296
            ],
            [
              120.96635,
              40.74973
            ],
            [
              120.83065,
              40.72642
            ],
            [
              120.80835,
              40.66487
            ],
            [
              120.56232,
              40.41195
            ],
            [
              120.4743,
              40.2439
            ],
            [
              120.29594,
              40.22586
            ],
            [
              120.26693,
              40.19216
            ],
            [
              120.14531,
              40.15779
            ],
            [
              119.98043,
              40.08963
            ],
            [
              119.90131,
              40.03883
            ],
            [
              119.5361,
              39.91339
            ],
            [
              119.5278,
              39.83521
            ],
            [
              119.39888,
              39.78962
            ],
            [
              119.21011,
              39.55387
            ],
            [
              119.13073,
              39.48632
            ],
            [
              119.00122,
              39.40167
            ],
            [
              118.8801,
              39.40079
            ],
            [
              118.8092,
              39.4226
            ],
            [
              118.68171,
              39.47189
            ],
            [
              118.51081,
              39.47623
            ],
            [
              118.43278,
              39.49798
            ],
            [
              118.28333,
              39.50806
            ],
            [
              118.09793,
              39.49555
            ],
            [
              117.92049,
              39.5389
            ],
            [
              117.84857,
              39.49373
            ],
            [
              117.77572,
              39.38717
            ],
            [
              117.43969,
              39.3066
            ],
            [
              117.33038,
              39.14396
            ],
            [
              117.32819,
              38.99885
            ],
            [
              117.11538,
              39.05869
            ],
            [
              117.0236,
              39.11383
            ],
            [
              116.94431,
              39.05187
            ],
            [
              116.85831,
              39.01776
            ],
            [
              116.78698,
              39.01166
            ],
            [
              116.55179,
              39.00436
            ],
            [
              116.35976,
              39.02529
            ],
            [
              116.18877,
              39.02404
            ],
            [
              116.01753,
              39.00606
            ],
            [
              115.92475,
              38.99422
            ],
            [
              115.73765,
              38.87009
            ],
            [
              115.65591,
              38.64627
            ],
            [
              115.5348,
              38.64539
            ],
            [
              115.38771,
              38.81173
            ],
            [
              115.39812,
              39.02945
            ],
            [
              115.07233,
              39.15543
            ],
            [
              114.88107,
              39.22659
            ],
            [
              114.82492,
              39.28198
            ],
            [
              114.81168,
              39.34885
            ],
            [
              114.86298,
              39.4441
            ],
            [
              115.01496,
              39.60146
            ],
            [
              114.92284,
              39.63427
            ],
            [
              114.60827,
              39.55943
            ],
            [
              114.49141,
              39.36885
            ],
            [
              114.50465,
              39.30198
            ],
            [
              114.44019,
              39.27918
            ],
            [
              114.42392,
              39.14513
            ],
            [
              114.3235,
              39.09976
            ],
            [
              114.25125,
              39.03226
            ],
            [
              114.09442,
              39.02554
            ],
            [
              113.94523,
              39.05236
            ],
            [
              113.94523,
              39.05236
            ]
          ]
        ]
      }
    },
    {
      "type": "Feature",
      "properties": {
        "kind": "commandery_seat",
        "state": "幽州",
        "name": "代郡/高柳",
        "role": "commandery",
        "lon": 113.77955,
        "lat": 40.34584
      },
      "geometry": {
        "type": "Point",
        "coordinates": [
          113.77955,
          40.34584
        ]
      }
    },
    {
      "type": "Feature",
      "properties": {
        "kind": "commandery_seat",
        "state": "幽州",
        "name": "上谷郡/沮阳",
        "role": "commandery",
        "lon": 115.70215,
        "lat": 40.29287
      },
      "geometry": {
        "type": "Point",
        "coordinates": [
          115.70215,
          40.29287
        ]
      }
    },
    {
      "type": "Feature",
      "properties": {
        "kind": "commandery_seat",
        "state": "幽州",
        "name": "广阳郡/蓟县",
        "role": "capital",
        "lon": 116.35849,
        "lat": 39.88469
      },
      "geometry": {
        "type": "Point",
        "coordinates": [
          116.35849,
          39.88469
        ]
      }
    },
    {
      "type": "Feature",
      "properties": {
        "kind": "commandery_seat",
        "state": "幽州",
        "name": "涿郡/涿县",
        "role": "commandery",
        "lon": 115.97474,
        "lat": 39.47451
      },
      "geometry": {
        "type": "Point",
        "coordinates": [
          115.97474,
          39.47451
        ]
      }
    },
    {
      "type": "Feature",
      "properties": {
        "kind": "commandery_seat",
        "state": "幽州",
        "name": "渔阳郡/渔阳",
        "role": "commandery",
        "lon": 116.74309,
        "lat": 40.35067
      },
      "geometry": {
        "type": "Point",
        "coordinates": [
          116.74309,
          40.35067
        ]
      }
    },
    {
      "type": "Feature",
      "properties": {
        "kind": "commandery_seat",
        "state": "幽州",
        "name": "右北平郡/土垠",
        "role": "commandery",
        "lon": 118.18118,
        "lat": 39.81982
      },
      "geometry": {
        "type": "Point",
        "coordinates": [
          118.18118,
          39.81982
        ]
      }
    },
    {
      "type": "Feature",
      "properties": {
        "kind": "commandery_seat",
        "state": "幽州",
        "name": "辽西郡/阳乐",
        "role": "commandery",
        "lon": 120.95041,
        "lat": 41.58111
      },
      "geometry": {
        "type": "Point",
        "coordinates": [
          120.95041,
          41.58111
        ]
      }
    },
    {
      "type": "Feature",
      "properties": {
        "kind": "commandery_seat",
        "state": "幽州",
        "name": "辽东属国/昌黎",
        "role": "commandery",
        "lon": 121.2504,
        "lat": 41.63352
      },
      "geometry": {
        "type": "Point",
        "coordinates": [
          121.2504,
          41.63352
        ]
      }
    },
    {
      "type": "Feature",
      "properties": {
        "kind": "commandery_seat",
        "state": "幽州",
        "name": "辽东郡/襄平",
        "role": "commandery",
        "lon": 123.1698,
        "lat": 41.36847
      },
      "geometry": {
        "type": "Point",
        "coordinates": [
          123.1698,
          41.36847
        ]
      }
    },
    {
      "type": "Feature",
      "properties": {
        "kind": "commandery_seat",
        "state": "幽州",
        "name": "玄菟郡/高句丽",
        "role": "commandery",
        "lon": 123.62716,
        "lat": 41.93543
      },
      "geometry": {
        "type": "Point",
        "coordinates": [
          123.62716,
          41.93543
        ]
      }
    },
    {
      "type": "Feature",
      "properties": {
        "kind": "commandery_seat",
        "state": "幽州",
        "name": "乐浪郡/朝鲜",
        "role": "commandery",
        "lon": 125.64909,
        "lat": 39.02594
      },
      "geometry": {
        "type": "Point",
        "coordinates": [
          125.64909,
          39.02594
        ]
      }
    }
  ]
}