{
  "type": "FeatureCollection",
  "metadata": {
    "state": "徐州",
    "color": "#D81B60",
    "gcps": 12,
    "max_err_km": 0.0,
    "avg_err_km": 0.0
  },
  "pixels": {
    "gcps": [
      {
        "px": 1042.7,
        "py": 831.0,
        "lon": 118.36,
        "lat": 34.61,
        "name": "郯/郯城"
      },
      {
        "px": 983.1,
        "py": 700.9,
        "lon": 118.05,
        "lat": 34.05,
        "name": "下邳/睢宁"
      },
      {
        "px": 815.6,
        "py": 749.7,
        "lon": 117.18,
        "lat": 34.26,
        "name": "彭城/徐州"
      },
      {
        "px": 1244.8,
        "py": 315.1,
        "lon": 119.41,
        "lat": 32.39,
        "name": "广陵/扬州(苏)"
      },
      {
        "px": 1040.8,
        "py": 944.9,
        "lon": 118.35,
        "lat": 35.1,
        "name": "琅琊/临沂"
      },
      {
        "px": 1096.6,
        "py": 1102.9,
        "lon": 118.64,
        "lat": 35.78,
        "name": "东莞/沂水"
      },
      {
        "px": 1075.4,
        "py": 456.9,
        "lon": 118.53,
        "lat": 33.0,
        "name": "临淮/盱眙"
      },
      {
        "px": 775.2,
        "py": 610.2,
        "lon": 116.97,
        "lat": 33.66,
        "name": "曲阳/宿州"
      },
      {
        "px": 1196.7,
        "py": 863.5,
        "lon": 119.16,
        "lat": 34.75,
        "name": "朐/连云港"
      },
      {
        "px": 1075.4,
        "py": 877.5,
        "lon": 118.53,
        "lat": 34.81,
        "name": "利城/临沭"
      },
      {
        "px": 971.5,
        "py": 765.9,
        "lon": 117.99,
        "lat": 34.33,
        "name": "良成/邳州"
      },
      {
        "px": 1027.3,
        "py": 682.3,
        "lon": 118.28,
        "lat": 33.97,
        "name": "下相/宿迁"
      }
    ],
    "bnd": [
      [
        956,
        55
      ],
      [
        943,
        58
      ],
      [
        936,
        61
      ],
      [
        929,
        71
      ],
      [
        926,
        110
      ],
      [
        923,
        118
      ],
      [
        920,
        126
      ],
      [
        917,
        134
      ],
      [
        912,
        142
      ],
      [
        903,
        154
      ],
      [
        898,
        170
      ],
      [
        872,
        174
      ],
      [
        854,
        180
      ],
      [
        846,
        191
      ],
      [
        843,
        198
      ],
      [
        840,
        206
      ],
      [
        837,
        214
      ],
      [
        834,
        222
      ],
      [
        835,
        243
      ],
      [
        838,
        249
      ],
      [
        841,
        255
      ],
      [
        844,
        262
      ],
      [
        847,
        269
      ],
      [
        850,
        277
      ],
      [
        853,
        285
      ],
      [
        856,
        293
      ],
      [
        859,
        302
      ],
      [
        862,
        310
      ],
      [
        865,
        319
      ],
      [
        868,
        329
      ],
      [
        869,
        361
      ],
      [
        866,
        369
      ],
      [
        863,
        376
      ],
      [
        860,
        383
      ],
      [
        857,
        391
      ],
      [
        851,
        400
      ],
      [
        846,
        408
      ],
      [
        837,
        421
      ],
      [
        830,
        431
      ],
      [
        821,
        434
      ],
      [
        811,
        437
      ],
      [
        802,
        440
      ],
      [
        784,
        448
      ],
      [
        777,
        451
      ],
      [
        758,
        454
      ],
      [
        743,
        460
      ],
      [
        727,
        471
      ],
      [
        720,
        474
      ],
      [
        701,
        473
      ],
      [
        698,
        465
      ],
      [
        695,
        453
      ],
      [
        692,
        432
      ],
      [
        686,
        426
      ],
      [
        683,
        420
      ],
      [
        680,
        414
      ],
      [
        673,
        390
      ],
      [
        662,
        386
      ],
      [
        642,
        387
      ],
      [
        635,
        395
      ],
      [
        628,
        406
      ],
      [
        618,
        424
      ],
      [
        619,
        488
      ],
      [
        600,
        505
      ],
      [
        589,
        502
      ],
      [
        579,
        499
      ],
      [
        571,
        496
      ],
      [
        561,
        492
      ],
      [
        554,
        499
      ],
      [
        547,
        514
      ],
      [
        544,
        550
      ],
      [
        545,
        568
      ],
      [
        548,
        575
      ],
      [
        551,
        587
      ],
      [
        554,
        617
      ],
      [
        553,
        651
      ],
      [
        554,
        707
      ],
      [
        551,
        724
      ],
      [
        545,
        736
      ],
      [
        542,
        742
      ],
      [
        539,
        749
      ],
      [
        535,
        754
      ],
      [
        531,
        760
      ],
      [
        528,
        767
      ],
      [
        525,
        782
      ],
      [
        526,
        801
      ],
      [
        529,
        813
      ],
      [
        536,
        820
      ],
      [
        545,
        835
      ],
      [
        569,
        838
      ],
      [
        596,
        837
      ],
      [
        621,
        834
      ],
      [
        662,
        833
      ],
      [
        674,
        836
      ],
      [
        681,
        840
      ],
      [
        686,
        844
      ],
      [
        690,
        851
      ],
      [
        694,
        857
      ],
      [
        699,
        862
      ],
      [
        702,
        870
      ],
      [
        705,
        879
      ],
      [
        708,
        888
      ],
      [
        712,
        895
      ],
      [
        716,
        902
      ],
      [
        720,
        907
      ],
      [
        723,
        914
      ],
      [
        727,
        919
      ],
      [
        730,
        946
      ],
      [
        733,
        956
      ],
      [
        736,
        965
      ],
      [
        739,
        974
      ],
      [
        746,
        979
      ],
      [
        754,
        984
      ],
      [
        759,
        989
      ],
      [
        766,
        994
      ],
      [
        773,
        998
      ],
      [
        781,
        1003
      ],
      [
        787,
        1010
      ],
      [
        795,
        1015
      ],
      [
        797,
        1041
      ],
      [
        793,
        1047
      ],
      [
        793,
        1065
      ],
      [
        790,
        1080
      ],
      [
        787,
        1094
      ],
      [
        784,
        1108
      ],
      [
        781,
        1123
      ],
      [
        778,
        1137
      ],
      [
        781,
        1180
      ],
      [
        802,
        1188
      ],
      [
        817,
        1191
      ],
      [
        880,
        1190
      ],
      [
        911,
        1187
      ],
      [
        954,
        1197
      ],
      [
        964,
        1209
      ],
      [
        973,
        1227
      ],
      [
        987,
        1230
      ],
      [
        991,
        1263
      ],
      [
        992,
        1311
      ],
      [
        1003,
        1315
      ],
      [
        1017,
        1312
      ],
      [
        1033,
        1309
      ],
      [
        1102,
        1306
      ],
      [
        1136,
        1306
      ],
      [
        1152,
        1303
      ],
      [
        1182,
        1300
      ],
      [
        1190,
        1294
      ],
      [
        1198,
        1291
      ],
      [
        1207,
        1288
      ],
      [
        1227,
        1287
      ],
      [
        1238,
        1292
      ],
      [
        1250,
        1300
      ],
      [
        1256,
        1303
      ],
      [
        1267,
        1307
      ],
      [
        1273,
        1311
      ],
      [
        1283,
        1319
      ],
      [
        1301,
        1333
      ],
      [
        1312,
        1341
      ],
      [
        1318,
        1344
      ],
      [
        1326,
        1347
      ],
      [
        1338,
        1350
      ],
      [
        1404,
        1352
      ],
      [
        1410,
        1356
      ],
      [
        1419,
        1359
      ],
      [
        1427,
        1362
      ],
      [
        1435,
        1367
      ],
      [
        1461,
        1370
      ],
      [
        1484,
        1376
      ],
      [
        1494,
        1382
      ],
      [
        1508,
        1385
      ],
      [
        1514,
        1389
      ],
      [
        1520,
        1393
      ],
      [
        1527,
        1399
      ],
      [
        1548,
        1404
      ],
      [
        1560,
        1391
      ],
      [
        1577,
        1409
      ],
      [
        1623,
        1407
      ],
      [
        1638,
        1397
      ],
      [
        1791,
        1417
      ],
      [
        1788,
        1407
      ],
      [
        1804,
        1387
      ],
      [
        1787,
        1370
      ],
      [
        1789,
        1362
      ],
      [
        1772,
        1365
      ],
      [
        1765,
        1360
      ],
      [
        1748,
        1359
      ],
      [
        1741,
        1355
      ],
      [
        1723,
        1350
      ],
      [
        1703,
        1347
      ],
      [
        1689,
        1336
      ],
      [
        1687,
        1319
      ],
      [
        1689,
        1309
      ],
      [
        1686,
        1299
      ],
      [
        1680,
        1288
      ],
      [
        1676,
        1271
      ],
      [
        1670,
        1256
      ],
      [
        1663,
        1252
      ],
      [
        1654,
        1246
      ],
      [
        1646,
        1243
      ],
      [
        1634,
        1239
      ],
      [
        1627,
        1235
      ],
      [
        1621,
        1230
      ],
      [
        1614,
        1226
      ],
      [
        1607,
        1222
      ],
      [
        1601,
        1219
      ],
      [
        1587,
        1215
      ],
      [
        1576,
        1201
      ],
      [
        1549,
        1184
      ],
      [
        1559,
        1154
      ],
      [
        1562,
        1121
      ],
      [
        1552,
        1114
      ],
      [
        1548,
        1084
      ],
      [
        1537,
        1071
      ],
      [
        1534,
        1045
      ],
      [
        1529,
        1012
      ],
      [
        1518,
        1006
      ],
      [
        1514,
        995
      ],
      [
        1508,
        982
      ],
      [
        1504,
        978
      ],
      [
        1500,
        961
      ],
      [
        1497,
        949
      ],
      [
        1494,
        941
      ],
      [
        1491,
        935
      ],
      [
        1484,
        919
      ],
      [
        1481,
        911
      ],
      [
        1478,
        904
      ],
      [
        1474,
        896
      ],
      [
        1470,
        889
      ],
      [
        1464,
        878
      ],
      [
        1460,
        867
      ],
      [
        1456,
        857
      ],
      [
        1453,
        848
      ],
      [
        1450,
        841
      ],
      [
        1440,
        826
      ],
      [
        1435,
        816
      ],
      [
        1432,
        809
      ],
      [
        1426,
        799
      ],
      [
        1421,
        785
      ],
      [
        1416,
        774
      ],
      [
        1413,
        766
      ],
      [
        1409,
        757
      ],
      [
        1404,
        749
      ],
      [
        1400,
        742
      ],
      [
        1397,
        730
      ],
      [
        1393,
        719
      ],
      [
        1390,
        704
      ],
      [
        1390,
        681
      ],
      [
        1375,
        675
      ],
      [
        1361,
        668
      ],
      [
        1354,
        664
      ],
      [
        1345,
        661
      ],
      [
        1339,
        657
      ],
      [
        1323,
        645
      ],
      [
        1311,
        641
      ],
      [
        1303,
        638
      ],
      [
        1293,
        635
      ],
      [
        1280,
        632
      ],
      [
        1263,
        622
      ],
      [
        1255,
        617
      ],
      [
        1246,
        613
      ],
      [
        1227,
        609
      ],
      [
        1219,
        598
      ],
      [
        1208,
        588
      ],
      [
        1199,
        578
      ],
      [
        1159,
        561
      ],
      [
        1178,
        544
      ],
      [
        1189,
        552
      ],
      [
        1182,
        537
      ],
      [
        1136,
        533
      ],
      [
        1125,
        527
      ],
      [
        1120,
        496
      ],
      [
        1121,
        451
      ],
      [
        1139,
        437
      ],
      [
        1161,
        434
      ],
      [
        1166,
        409
      ],
      [
        1171,
        401
      ],
      [
        1175,
        394
      ],
      [
        1179,
        386
      ],
      [
        1183,
        381
      ],
      [
        1188,
        373
      ],
      [
        1192,
        367
      ],
      [
        1199,
        354
      ],
      [
        1207,
        340
      ],
      [
        1210,
        331
      ],
      [
        1213,
        323
      ],
      [
        1216,
        314
      ],
      [
        1219,
        305
      ],
      [
        1222,
        294
      ],
      [
        1228,
        286
      ],
      [
        1254,
        279
      ],
      [
        1268,
        272
      ],
      [
        1296,
        260
      ],
      [
        1303,
        239
      ],
      [
        1323,
        226
      ],
      [
        1330,
        192
      ],
      [
        1322,
        179
      ],
      [
        1312,
        172
      ],
      [
        1305,
        168
      ],
      [
        1298,
        164
      ],
      [
        1291,
        160
      ],
      [
        1284,
        156
      ],
      [
        1278,
        153
      ],
      [
        1270,
        149
      ],
      [
        1253,
        146
      ],
      [
        1201,
        149
      ],
      [
        1188,
        146
      ],
      [
        1177,
        143
      ],
      [
        1161,
        150
      ],
      [
        1152,
        162
      ],
      [
        1126,
        167
      ],
      [
        1122,
        159
      ],
      [
        1119,
        151
      ],
      [
        1118,
        126
      ],
      [
        1122,
        118
      ],
      [
        1125,
        112
      ],
      [
        1128,
        106
      ],
      [
        1131,
        97
      ],
      [
        1134,
        86
      ],
      [
        1142,
        79
      ],
      [
        1130,
        65
      ],
      [
        1086,
        66
      ],
      [
        1076,
        69
      ],
      [
        1049,
        70
      ],
      [
        1029,
        67
      ],
      [
        1001,
        64
      ],
      [
        977,
        62
      ],
      [
        970,
        58
      ]
    ],
    "seats": []
  },
  "features": [
    {
      "type": "Feature",
      "properties": {
        "kind": "state_boundary",
        "state": "徐州",
        "color": "#D81B60"
      },
      "geometry": {
        "type": "Polygon",
        "coordinates": [
          [
            [
              117.90942,
              31.27068
            ],
            [
              117.84188,
              31.28359
            ],
            [
              117.80551,
              31.2965
            ],
            [
              117.76914,
              31.33953
            ],
            [
              117.75355,
              31.50736
            ],
            [
              117.73796,
              31.54178
            ],
            [
              117.72237,
              31.57621
            ],
            [
              117.70679,
              31.61063
            ],
            [
              117.68081,
              31.64506
            ],
            [
              117.63404,
              31.6967
            ],
            [
              117.60806,
              31.76555
            ],
            [
              117.47297,
              31.78276
            ],
            [
              117.37945,
              31.80858
            ],
            [
              117.33788,
              31.85592
            ],
            [
              117.32229,
              31.88604
            ],
            [
              117.3067,
              31.92047
            ],
            [
              117.29112,
              31.95489
            ],
            [
              117.27553,
              31.98932
            ],
            [
              117.28073,
              32.07969
            ],
            [
              117.29631,
              32.10551
            ],
            [
              117.3119,
              32.13133
            ],
            [
              117.32749,
              32.16145
            ],
            [
              117.34308,
              32.19157
            ],
            [
              117.35866,
              32.226
            ],
            [
              117.37425,
              32.26042
            ],
            [
              117.38984,
              32.29485
            ],
            [
              117.40543,
              32.33358
            ],
            [
              117.42101,
              32.36801
            ],
            [
              117.4366,
              32.40673
            ],
            [
              117.45219,
              32.44977
            ],
            [
              117.45738,
              32.58747
            ],
            [
              117.4418,
              32.6219
            ],
            [
              117.42621,
              32.65202
            ],
            [
              117.41062,
              32.68214
            ],
            [
              117.39503,
              32.71657
            ],
            [
              117.36386,
              32.7553
            ],
            [
              117.33788,
              32.78972
            ],
            [
              117.29112,
              32.84567
            ],
            [
              117.25475,
              32.8887
            ],
            [
              117.20798,
              32.90161
            ],
            [
              117.15602,
              32.91452
            ],
            [
              117.10926,
              32.92743
            ],
            [
              117.01574,
              32.96185
            ],
            [
              116.97937,
              32.97476
            ],
            [
              116.88064,
              32.98767
            ],
            [
              116.80271,
              33.01349
            ],
            [
              116.71957,
              33.06083
            ],
            [
              116.6832,
              33.07374
            ],
            [
              116.58448,
              33.06943
            ],
            [
              116.56889,
              33.03501
            ],
            [
              116.55331,
              32.98337
            ],
            [
              116.53772,
              32.893
            ],
            [
              116.50654,
              32.86718
            ],
            [
              116.49096,
              32.84136
            ],
            [
              116.47537,
              32.81554
            ],
            [
              116.439,
              32.71227
            ],
            [
              116.38184,
              32.69505
            ],
            [
              116.27793,
              32.69936
            ],
            [
              116.24155,
              32.73378
            ],
            [
              116.20518,
              32.78112
            ],
            [
              116.15322,
              32.85858
            ],
            [
              116.15842,
              33.13398
            ],
            [
              116.0597,
              33.20714
            ],
            [
              116.00254,
              33.19423
            ],
            [
              115.95059,
              33.18132
            ],
            [
              115.90902,
              33.16841
            ],
            [
              115.85706,
              33.1512
            ],
            [
              115.82069,
              33.18132
            ],
            [
              115.78432,
              33.24587
            ],
            [
              115.76873,
              33.40078
            ],
            [
              115.77393,
              33.47824
            ],
            [
              115.78951,
              33.50837
            ],
            [
              115.8051,
              33.56
            ],
            [
              115.82069,
              33.6891
            ],
            [
              115.81549,
              33.83541
            ],
            [
              115.82069,
              34.07639
            ],
            [
              115.8051,
              34.14955
            ],
            [
              115.77393,
              34.20119
            ],
            [
              115.75834,
              34.22701
            ],
            [
              115.74275,
              34.25713
            ],
            [
              115.72197,
              34.27865
            ],
            [
              115.70119,
              34.30447
            ],
            [
              115.6856,
              34.33459
            ],
            [
              115.67001,
              34.39914
            ],
            [
              115.67521,
              34.4809
            ],
            [
              115.69079,
              34.53254
            ],
            [
              115.72716,
              34.56266
            ],
            [
              115.77393,
              34.62721
            ],
            [
              115.89863,
              34.64012
            ],
            [
              116.03892,
              34.63582
            ],
            [
              116.16881,
              34.62291
            ],
            [
              116.38184,
              34.6186
            ],
            [
              116.44419,
              34.63151
            ],
            [
              116.48056,
              34.64872
            ],
            [
              116.50654,
              34.66594
            ],
            [
              116.52733,
              34.69606
            ],
            [
              116.54811,
              34.72188
            ],
            [
              116.57409,
              34.7434
            ],
            [
              116.58968,
              34.77782
            ],
            [
              116.60526,
              34.81655
            ],
            [
              116.62085,
              34.85528
            ],
            [
              116.64164,
              34.8854
            ],
            [
              116.66242,
              34.91553
            ],
            [
              116.6832,
              34.93704
            ],
            [
              116.69879,
              34.96717
            ],
            [
              116.71957,
              34.98868
            ],
            [
              116.73516,
              35.10487
            ],
            [
              116.75075,
              35.1479
            ],
            [
              116.76634,
              35.18663
            ],
            [
              116.78192,
              35.22536
            ],
            [
              116.81829,
              35.24688
            ],
            [
              116.85986,
              35.26839
            ],
            [
              116.88584,
              35.28991
            ],
            [
              116.92221,
              35.31142
            ],
            [
              116.95858,
              35.32864
            ],
            [
              117.00015,
              35.35015
            ],
            [
              117.03132,
              35.38028
            ],
            [
              117.07289,
              35.40179
            ],
            [
              117.08328,
              35.51368
            ],
            [
              117.0625,
              35.5395
            ],
            [
              117.0625,
              35.61695
            ],
            [
              117.04691,
              35.6815
            ],
            [
              117.03132,
              35.74175
            ],
            [
              117.01574,
              35.80199
            ],
            [
              117.00015,
              35.86654
            ],
            [
              116.98456,
              35.92679
            ],
            [
              117.00015,
              36.11183
            ],
            [
              117.10926,
              36.14625
            ],
            [
              117.1872,
              36.15916
            ],
            [
              117.51454,
              36.15486
            ],
            [
              117.67561,
              36.14195
            ],
            [
              117.89903,
              36.18498
            ],
            [
              117.95099,
              36.23662
            ],
            [
              117.99775,
              36.31408
            ],
            [
              118.0705,
              36.32699
            ],
            [
              118.09128,
              36.469
            ],
            [
              118.09647,
              36.67555
            ],
            [
              118.15363,
              36.69277
            ],
            [
              118.22637,
              36.67986
            ],
            [
              118.3095,
              36.66695
            ],
            [
              118.66802,
              36.65404
            ],
            [
              118.84468,
              36.65404
            ],
            [
              118.92781,
              36.64113
            ],
            [
              119.08369,
              36.62822
            ],
            [
              119.12525,
              36.6024
            ],
            [
              119.16682,
              36.58949
            ],
            [
              119.21358,
              36.57658
            ],
            [
              119.3175,
              36.57228
            ],
            [
              119.37465,
              36.59379
            ],
            [
              119.43701,
              36.62822
            ],
            [
              119.46818,
              36.64113
            ],
            [
              119.52533,
              36.65834
            ],
            [
              119.55651,
              36.67555
            ],
            [
              119.60847,
              36.70998
            ],
            [
              119.70199,
              36.77022
            ],
            [
              119.75915,
              36.80465
            ],
            [
              119.79032,
              36.81756
            ],
            [
              119.83189,
              36.83047
            ],
            [
              119.89424,
              36.84338
            ],
            [
              120.23717,
              36.85199
            ],
            [
              120.26834,
              36.8692
            ],
            [
              120.3151,
              36.88211
            ],
            [
              120.35667,
              36.89502
            ],
            [
              120.39824,
              36.91653
            ],
            [
              120.53333,
              36.92944
            ],
            [
              120.65284,
              36.95526
            ],
            [
              120.70479,
              36.98108
            ],
            [
              120.77754,
              36.99399
            ],
            [
              120.80871,
              37.01121
            ],
            [
              120.83989,
              37.02842
            ],
            [
              120.87626,
              37.05424
            ],
            [
              120.98537,
              37.07575
            ],
            [
              121.04772,
              37.01981
            ],
            [
              121.13605,
              37.09727
            ],
            [
              121.37506,
              37.08866
            ],
            [
              121.453,
              37.04563
            ],
            [
              122.24796,
              37.1317
            ],
            [
              122.23238,
              37.08866
            ],
            [
              122.31551,
              37.0026
            ],
            [
              122.22718,
              36.92944
            ],
            [
              122.23757,
              36.89502
            ],
            [
              122.14924,
              36.90793
            ],
            [
              122.11287,
              36.88641
            ],
            [
              122.02454,
              36.88211
            ],
            [
              121.98817,
              36.8649
            ],
            [
              121.89464,
              36.84338
            ],
            [
              121.79073,
              36.83047
            ],
            [
              121.71799,
              36.78313
            ],
            [
              121.70759,
              36.70998
            ],
            [
              121.71799,
              36.66695
            ],
            [
              121.7024,
              36.62391
            ],
            [
              121.67122,
              36.57658
            ],
            [
              121.65044,
              36.50342
            ],
            [
              121.61926,
              36.43887
            ],
            [
              121.58289,
              36.42166
            ],
            [
              121.53613,
              36.39584
            ],
            [
              121.49456,
              36.38293
            ],
            [
              121.43221,
              36.36572
            ],
            [
              121.39584,
              36.34851
            ],
            [
              121.36467,
              36.32699
            ],
            [
              121.3283,
              36.30978
            ],
            [
              121.29193,
              36.29256
            ],
            [
              121.26075,
              36.27965
            ],
            [
              121.18801,
              36.26244
            ],
            [
              121.13085,
              36.2022
            ],
            [
              120.99057,
              36.12904
            ],
            [
              121.04252,
              35.99994
            ],
            [
              121.05811,
              35.85794
            ],
            [
              121.00615,
              35.82781
            ],
            [
              120.98537,
              35.69872
            ],
            [
              120.92822,
              35.64277
            ],
            [
              120.91263,
              35.53089
            ],
            [
              120.88665,
              35.38888
            ],
            [
              120.82949,
              35.36306
            ],
            [
              120.80871,
              35.31573
            ],
            [
              120.77754,
              35.25979
            ],
            [
              120.75675,
              35.24257
            ],
            [
              120.73597,
              35.16942
            ],
            [
              120.72038,
              35.11778
            ],
            [
              120.70479,
              35.08335
            ],
            [
              120.68921,
              35.05753
            ],
            [
              120.65284,
              34.98868
            ],
            [
              120.63725,
              34.95426
            ],
            [
              120.62166,
              34.92413
            ],
            [
              120.60088,
              34.88971
            ],
            [
              120.58009,
              34.85958
            ],
            [
              120.54892,
              34.81225
            ],
            [
              120.52813,
              34.76491
            ],
            [
              120.50735,
              34.72188
            ],
            [
              120.49176,
              34.68315
            ],
            [
              120.47618,
              34.65303
            ],
            [
              120.42422,
              34.58848
            ],
            [
              120.39824,
              34.54545
            ],
            [
              120.38265,
              34.51532
            ],
            [
              120.35148,
              34.47229
            ],
            [
              120.3255,
              34.41205
            ],
            [
              120.29952,
              34.36471
            ],
            [
              120.28393,
              34.33028
            ],
            [
              120.26315,
              34.29156
            ],
            [
              120.23717,
              34.25713
            ],
            [
              120.21638,
              34.22701
            ],
            [
              120.2008,
              34.17537
            ],
            [
              120.18001,
              34.12803
            ],
            [
              120.16442,
              34.06348
            ],
            [
              120.16442,
              33.96451
            ],
            [
              120.08649,
              33.93869
            ],
            [
              120.01375,
              33.90857
            ],
            [
              119.97737,
              33.89135
            ],
            [
              119.93061,
              33.87844
            ],
            [
              119.89944,
              33.86123
            ],
            [
              119.8163,
              33.80959
            ],
            [
              119.75395,
              33.79238
            ],
            [
              119.71239,
              33.77947
            ],
            [
              119.66043,
              33.76656
            ],
            [
              119.59288,
              33.75365
            ],
            [
              119.50455,
              33.71062
            ],
            [
              119.46298,
              33.6891
            ],
            [
              119.41622,
              33.67189
            ],
            [
              119.3175,
              33.65468
            ],
            [
              119.27593,
              33.60734
            ],
            [
              119.21878,
              33.56431
            ],
            [
              119.17202,
              33.52128
            ],
            [
              118.96418,
              33.44812
            ],
            [
              119.0629,
              33.37496
            ],
            [
              119.12006,
              33.40939
            ],
            [
              119.08369,
              33.34484
            ],
            [
              118.84468,
              33.32763
            ],
            [
              118.78752,
              33.30181
            ],
            [
              118.76154,
              33.16841
            ],
            [
              118.76674,
              32.97476
            ],
            [
              118.86027,
              32.91452
            ],
            [
              118.97457,
              32.90161
            ],
            [
              119.00055,
              32.79403
            ],
            [
              119.02653,
              32.7596
            ],
            [
              119.04732,
              32.72948
            ],
            [
              119.0681,
              32.69505
            ],
            [
              119.08888,
              32.67354
            ],
            [
              119.11486,
              32.63911
            ],
            [
              119.13565,
              32.61329
            ],
            [
              119.17202,
              32.55735
            ],
            [
              119.21358,
              32.4971
            ],
            [
              119.22917,
              32.45837
            ],
            [
              119.24476,
              32.42395
            ],
            [
              119.26035,
              32.38522
            ],
            [
              119.27593,
              32.34649
            ],
            [
              119.29152,
              32.29915
            ],
            [
              119.3227,
              32.26473
            ],
            [
              119.45779,
              32.23461
            ],
            [
              119.53053,
              32.20448
            ],
            [
              119.67601,
              32.15284
            ],
            [
              119.71239,
              32.06248
            ],
            [
              119.8163,
              32.00653
            ],
            [
              119.85267,
              31.86022
            ],
            [
              119.81111,
              31.80428
            ],
            [
              119.75915,
              31.77416
            ],
            [
              119.72278,
              31.75694
            ],
            [
              119.68641,
              31.73973
            ],
            [
              119.65004,
              31.72252
            ],
            [
              119.61366,
              31.70531
            ],
            [
              119.58249,
              31.6924
            ],
            [
              119.54092,
              31.67518
            ],
            [
              119.45259,
              31.66227
            ],
            [
              119.18241,
              31.67518
            ],
            [
              119.11486,
              31.66227
            ],
            [
              119.05771,
              31.64936
            ],
            [
              118.97457,
              31.67949
            ],
            [
              118.92781,
              31.73113
            ],
            [
              118.79272,
              31.75264
            ],
            [
              118.77194,
              31.71822
            ],
            [
              118.75635,
              31.68379
            ],
            [
              118.75115,
              31.57621
            ],
            [
              118.77194,
              31.54178
            ],
            [
              118.78752,
              31.51596
            ],
            [
              118.80311,
              31.49014
            ],
            [
              118.8187,
              31.45141
            ],
            [
              118.83429,
              31.40408
            ],
            [
              118.87585,
              31.37396
            ],
            [
              118.8135,
              31.31371
            ],
            [
              118.58488,
              31.31801
            ],
            [
              118.53293,
              31.33092
            ],
            [
              118.39264,
              31.33523
            ],
            [
              118.28872,
              31.32232
            ],
            [
              118.14324,
              31.30941
            ],
            [
              118.01854,
              31.3008
            ],
            [
              117.98217,
              31.28359
            ],
            [
              117.90942,
              31.27068
            ]
          ]
        ]
      }
    }
  ]
}