{
 "type": "FeatureCollection",
 "metadata": {
  "state": "扬州",
  "color": "#F48FB1",
  "gcps": 11,
  "max_err_km": 10.4,
  "avg_err_km": 4.3,
  "verified": true
 },
 "pixels": {
  "gcps": [
   {
    "px": 1556,
    "py": 335,
    "lon": 121.473,
    "lat": 31.23,
    "name": "上海"
   },
   {
    "px": 1391,
    "py": 483,
    "lon": 120.155,
    "lat": 30.274,
    "name": "杭州"
   },
   {
    "px": 1210,
    "py": 195,
    "lon": 118.797,
    "lat": 32.06,
    "name": "南京"
   },
   {
    "px": 1446,
    "py": 323,
    "lon": 120.619,
    "lat": 31.299,
    "name": "苏州"
   },
   {
    "px": 1004,
    "py": 245,
    "lon": 117.227,
    "lat": 31.821,
    "name": "合肥"
   },
   {
    "px": 1290,
    "py": 188,
    "lon": 119.452,
    "lat": 32.204,
    "name": "镇江"
   },
   {
    "px": 831,
    "py": 716,
    "lon": 115.858,
    "lat": 28.682,
    "name": "南昌"
   },
   {
    "px": 1274,
    "py": 1099,
    "lon": 119.296,
    "lat": 26.074,
    "name": "福州"
   },
   {
    "px": 839,
    "py": 572,
    "lon": 115.992,
    "lat": 29.712,
    "name": "九江"
   },
   {
    "px": 1449,
    "py": 819,
    "lon": 120.699,
    "lat": 28.001,
    "name": "温州"
   },
   {
    "px": 1549,
    "py": 722,
    "lon": 121.428,
    "lat": 28.659,
    "name": "台州"
   }
  ],
  "bnd": [
   [
    1032,
    45
   ],
   [
    1016,
    44
   ],
   [
    984,
    58
   ],
   [
    976,
    64
   ],
   [
    958,
    72
   ],
   [
    945,
    82
   ],
   [
    933,
    86
   ],
   [
    918,
    88
   ],
   [
    908,
    87
   ],
   [
    902,
    100
   ],
   [
    901,
    115
   ],
   [
    900,
    146
   ],
   [
    888,
    132
   ],
   [
    881,
    133
   ],
   [
    876,
    139
   ],
   [
    868,
    144
   ],
   [
    845,
    117
   ],
   [
    837,
    125
   ],
   [
    829,
    125
   ],
   [
    821,
    137
   ],
   [
    813,
    137
   ],
   [
    800,
    142
   ],
   [
    794,
    156
   ],
   [
    787,
    169
   ],
   [
    780,
    183
   ],
   [
    769,
    192
   ],
   [
    759,
    208
   ],
   [
    758,
    218
   ],
   [
    750,
    229
   ],
   [
    736,
    227
   ],
   [
    721,
    222
   ],
   [
    706,
    215
   ],
   [
    710,
    240
   ],
   [
    715,
    255
   ],
   [
    720,
    268
   ],
   [
    727,
    280
   ],
   [
    725,
    295
   ],
   [
    719,
    314
   ],
   [
    718,
    329
   ],
   [
    725,
    338
   ],
   [
    732,
    352
   ],
   [
    742,
    363
   ],
   [
    751,
    375
   ],
   [
    754,
    389
   ],
   [
    756,
    404
   ],
   [
    754,
    420
   ],
   [
    758,
    426
   ],
   [
    782,
    422
   ],
   [
    795,
    437
   ],
   [
    791,
    453
   ],
   [
    797,
    473
   ],
   [
    803,
    481
   ],
   [
    808,
    488
   ],
   [
    798,
    509
   ],
   [
    791,
    522
   ],
   [
    783,
    535
   ],
   [
    773,
    544
   ],
   [
    770,
    564
   ],
   [
    760,
    573
   ],
   [
    746,
    572
   ],
   [
    724,
    567
   ],
   [
    730,
    585
   ],
   [
    712,
    583
   ],
   [
    708,
    594
   ],
   [
    698,
    589
   ],
   [
    694,
    603
   ],
   [
    684,
    612
   ],
   [
    669,
    613
   ],
   [
    655,
    619
   ],
   [
    640,
    618
   ],
   [
    628,
    615
   ],
   [
    617,
    618
   ],
   [
    618,
    633
   ],
   [
    609,
    639
   ],
   [
    595,
    640
   ],
   [
    582,
    651
   ],
   [
    577,
    662
   ],
   [
    585,
    678
   ],
   [
    590,
    693
   ],
   [
    602,
    704
   ],
   [
    598,
    713
   ],
   [
    601,
    722
   ],
   [
    597,
    738
   ],
   [
    605,
    748
   ],
   [
    604,
    755
   ],
   [
    615,
    763
   ],
   [
    606,
    775
   ],
   [
    597,
    787
   ],
   [
    582,
    787
   ],
   [
    582,
    794
   ],
   [
    585,
    808
   ],
   [
    574,
    814
   ],
   [
    562,
    813
   ],
   [
    548,
    823
   ],
   [
    549,
    838
   ],
   [
    543,
    851
   ],
   [
    534,
    863
   ],
   [
    535,
    877
   ],
   [
    543,
    889
   ],
   [
    558,
    897
   ],
   [
    575,
    903
   ],
   [
    595,
    904
   ],
   [
    609,
    903
   ],
   [
    616,
    896
   ],
   [
    626,
    888
   ],
   [
    640,
    900
   ],
   [
    650,
    911
   ],
   [
    649,
    923
   ],
   [
    637,
    938
   ],
   [
    625,
    946
   ],
   [
    612,
    954
   ],
   [
    599,
    962
   ],
   [
    586,
    970
   ],
   [
    575,
    979
   ],
   [
    568,
    992
   ],
   [
    565,
    1006
   ],
   [
    565,
    1016
   ],
   [
    587,
    1015
   ],
   [
    600,
    1022
   ],
   [
    594,
    1032
   ],
   [
    598,
    1042
   ],
   [
    584,
    1057
   ],
   [
    586,
    1071
   ],
   [
    579,
    1078
   ],
   [
    578,
    1085
   ],
   [
    609,
    1074
   ],
   [
    614,
    1082
   ],
   [
    617,
    1088
   ],
   [
    592,
    1096
   ],
   [
    585,
    1111
   ],
   [
    587,
    1124
   ],
   [
    575,
    1140
   ],
   [
    572,
    1156
   ],
   [
    579,
    1168
   ],
   [
    575,
    1190
   ],
   [
    587,
    1197
   ],
   [
    587,
    1212
   ],
   [
    585,
    1227
   ],
   [
    584,
    1242
   ],
   [
    582,
    1257
   ],
   [
    581,
    1272
   ],
   [
    579,
    1286
   ],
   [
    591,
    1295
   ],
   [
    603,
    1302
   ],
   [
    616,
    1310
   ],
   [
    629,
    1317
   ],
   [
    641,
    1329
   ],
   [
    650,
    1320
   ],
   [
    660,
    1319
   ],
   [
    670,
    1314
   ],
   [
    679,
    1321
   ],
   [
    684,
    1311
   ],
   [
    700,
    1316
   ],
   [
    705,
    1305
   ],
   [
    722,
    1302
   ],
   [
    724,
    1296
   ],
   [
    734,
    1302
   ],
   [
    754,
    1291
   ],
   [
    762,
    1292
   ],
   [
    772,
    1287
   ],
   [
    784,
    1301
   ],
   [
    795,
    1310
   ],
   [
    804,
    1322
   ],
   [
    824,
    1320
   ],
   [
    819,
    1293
   ],
   [
    817,
    1278
   ],
   [
    824,
    1274
   ],
   [
    834,
    1276
   ],
   [
    839,
    1270
   ],
   [
    853,
    1277
   ],
   [
    870,
    1277
   ],
   [
    878,
    1285
   ],
   [
    892,
    1284
   ],
   [
    898,
    1289
   ],
   [
    906,
    1297
   ],
   [
    912,
    1311
   ],
   [
    923,
    1309
   ],
   [
    933,
    1305
   ],
   [
    946,
    1302
   ],
   [
    942,
    1314
   ],
   [
    945,
    1324
   ],
   [
    954,
    1328
   ],
   [
    955,
    1337
   ],
   [
    962,
    1342
   ],
   [
    961,
    1350
   ],
   [
    967,
    1364
   ],
   [
    975,
    1373
   ],
   [
    989,
    1386
   ],
   [
    1002,
    1384
   ],
   [
    1009,
    1373
   ],
   [
    1022,
    1377
   ],
   [
    1029,
    1369
   ],
   [
    1039,
    1369
   ],
   [
    1044,
    1355
   ],
   [
    1058,
    1353
   ],
   [
    1073,
    1351
   ],
   [
    1079,
    1347
   ],
   [
    1109,
    1354
   ],
   [
    1122,
    1349
   ],
   [
    1122,
    1339
   ],
   [
    1093,
    1339
   ],
   [
    1087,
    1329
   ],
   [
    1115,
    1324
   ],
   [
    1112,
    1316
   ],
   [
    1125,
    1309
   ],
   [
    1129,
    1297
   ],
   [
    1138,
    1311
   ],
   [
    1167,
    1298
   ],
   [
    1185,
    1320
   ],
   [
    1201,
    1303
   ],
   [
    1195,
    1292
   ],
   [
    1209,
    1284
   ],
   [
    1188,
    1277
   ],
   [
    1195,
    1259
   ],
   [
    1206,
    1269
   ],
   [
    1211,
    1263
   ],
   [
    1236,
    1267
   ],
   [
    1242,
    1262
   ],
   [
    1230,
    1259
   ],
   [
    1243,
    1247
   ],
   [
    1242,
    1241
   ],
   [
    1222,
    1240
   ],
   [
    1232,
    1230
   ],
   [
    1232,
    1218
   ],
   [
    1236,
    1207
   ],
   [
    1248,
    1210
   ],
   [
    1247,
    1226
   ],
   [
    1257,
    1215
   ],
   [
    1269,
    1224
   ],
   [
    1284,
    1217
   ],
   [
    1285,
    1204
   ],
   [
    1266,
    1203
   ],
   [
    1256,
    1186
   ],
   [
    1266,
    1179
   ],
   [
    1274,
    1171
   ],
   [
    1283,
    1164
   ],
   [
    1305,
    1193
   ],
   [
    1318,
    1184
   ],
   [
    1313,
    1177
   ],
   [
    1314,
    1167
   ],
   [
    1303,
    1162
   ],
   [
    1303,
    1149
   ],
   [
    1316,
    1148
   ],
   [
    1320,
    1133
   ],
   [
    1324,
    1119
   ],
   [
    1329,
    1110
   ],
   [
    1311,
    1099
   ],
   [
    1321,
    1077
   ],
   [
    1329,
    1068
   ],
   [
    1347,
    1063
   ],
   [
    1351,
    1051
   ],
   [
    1345,
    1047
   ],
   [
    1328,
    1056
   ],
   [
    1313,
    1036
   ],
   [
    1332,
    1042
   ],
   [
    1348,
    1037
   ],
   [
    1330,
    1015
   ],
   [
    1316,
    1020
   ],
   [
    1310,
    1012
   ],
   [
    1314,
    1007
   ],
   [
    1308,
    994
   ],
   [
    1314,
    990
   ],
   [
    1331,
    1003
   ],
   [
    1332,
    995
   ],
   [
    1343,
    995
   ],
   [
    1349,
    1005
   ],
   [
    1361,
    995
   ],
   [
    1368,
    996
   ],
   [
    1367,
    1013
   ],
   [
    1383,
    1018
   ],
   [
    1384,
    994
   ],
   [
    1375,
    981
   ],
   [
    1397,
    969
   ],
   [
    1401,
    948
   ],
   [
    1414,
    948
   ],
   [
    1420,
    941
   ],
   [
    1409,
    931
   ],
   [
    1401,
    930
   ],
   [
    1391,
    933
   ],
   [
    1391,
    923
   ],
   [
    1405,
    919
   ],
   [
    1425,
    931
   ],
   [
    1433,
    925
   ],
   [
    1439,
    906
   ],
   [
    1451,
    910
   ],
   [
    1454,
    895
   ],
   [
    1444,
    885
   ],
   [
    1449,
    864
   ],
   [
    1449,
    856
   ],
   [
    1461,
    850
   ],
   [
    1473,
    837
   ],
   [
    1474,
    819
   ],
   [
    1491,
    812
   ],
   [
    1492,
    795
   ],
   [
    1505,
    785
   ],
   [
    1513,
    780
   ],
   [
    1519,
    760
   ],
   [
    1537,
    789
   ],
   [
    1550,
    790
   ],
   [
    1551,
    768
   ],
   [
    1563,
    765
   ],
   [
    1577,
    778
   ],
   [
    1583,
    765
   ],
   [
    1573,
    753
   ],
   [
    1577,
    738
   ],
   [
    1565,
    732
   ],
   [
    1557,
    716
   ],
   [
    1573,
    709
   ],
   [
    1586,
    703
   ],
   [
    1587,
    692
   ],
   [
    1580,
    683
   ],
   [
    1565,
    679
   ],
   [
    1569,
    674
   ],
   [
    1584,
    678
   ],
   [
    1591,
    676
   ],
   [
    1580,
    654
   ],
   [
    1560,
    653
   ],
   [
    1570,
    627
   ],
   [
    1580,
    629
   ],
   [
    1584,
    639
   ],
   [
    1595,
    641
   ],
   [
    1601,
    635
   ],
   [
    1610,
    639
   ],
   [
    1624,
    636
   ],
   [
    1619,
    628
   ],
   [
    1622,
    601
   ],
   [
    1625,
    585
   ],
   [
    1625,
    573
   ],
   [
    1608,
    577
   ],
   [
    1603,
    583
   ],
   [
    1605,
    592
   ],
   [
    1590,
    592
   ],
   [
    1567,
    603
   ],
   [
    1555,
    594
   ],
   [
    1564,
    583
   ],
   [
    1588,
    581
   ],
   [
    1597,
    574
   ],
   [
    1603,
    563
   ],
   [
    1616,
    554
   ],
   [
    1628,
    546
   ],
   [
    1642,
    538
   ],
   [
    1643,
    533
   ],
   [
    1615,
    533
   ],
   [
    1608,
    531
   ],
   [
    1590,
    517
   ],
   [
    1578,
    509
   ],
   [
    1575,
    503
   ],
   [
    1565,
    491
   ],
   [
    1548,
    479
   ],
   [
    1527,
    476
   ],
   [
    1514,
    477
   ],
   [
    1504,
    487
   ],
   [
    1493,
    497
   ],
   [
    1478,
    500
   ],
   [
    1464,
    502
   ],
   [
    1449,
    497
   ],
   [
    1435,
    492
   ],
   [
    1421,
    488
   ],
   [
    1410,
    481
   ],
   [
    1418,
    477
   ],
   [
    1428,
    476
   ],
   [
    1439,
    473
   ],
   [
    1451,
    466
   ],
   [
    1466,
    462
   ],
   [
    1491,
    461
   ],
   [
    1507,
    462
   ],
   [
    1515,
    458
   ],
   [
    1527,
    450
   ],
   [
    1541,
    443
   ],
   [
    1552,
    435
   ],
   [
    1561,
    414
   ],
   [
    1559,
    402
   ],
   [
    1556,
    388
   ],
   [
    1553,
    374
   ],
   [
    1554,
    362
   ],
   [
    1553,
    352
   ],
   [
    1553,
    326
   ],
   [
    1553,
    306
   ],
   [
    1546,
    294
   ],
   [
    1540,
    280
   ],
   [
    1532,
    267
   ],
   [
    1528,
    258
   ],
   [
    1513,
    244
   ],
   [
    1498,
    234
   ],
   [
    1474,
    228
   ],
   [
    1456,
    216
   ],
   [
    1441,
    214
   ],
   [
    1427,
    211
   ],
   [
    1417,
    208
   ],
   [
    1406,
    203
   ],
   [
    1380,
    205
   ],
   [
    1355,
    192
   ],
   [
    1346,
    185
   ],
   [
    1333,
    175
   ],
   [
    1319,
    171
   ],
   [
    1304,
    173
   ],
   [
    1290,
    176
   ],
   [
    1275,
    178
   ],
   [
    1260,
    180
   ],
   [
    1247,
    181
   ],
   [
    1228,
    183
   ],
   [
    1207,
    184
   ],
   [
    1199,
    193
   ],
   [
    1200,
    170
   ],
   [
    1199,
    157
   ],
   [
    1197,
    142
   ],
   [
    1185,
    138
   ],
   [
    1184,
    130
   ],
   [
    1171,
    116
   ],
   [
    1157,
    119
   ],
   [
    1143,
    119
   ],
   [
    1127,
    122
   ],
   [
    1113,
    122
   ],
   [
    1100,
    119
   ],
   [
    1091,
    116
   ],
   [
    1090,
    91
   ],
   [
    1093,
    68
   ],
   [
    1098,
    49
   ],
   [
    1087,
    50
   ],
   [
    1074,
    48
   ],
   [
    1065,
    56
   ],
   [
    1061,
    70
   ],
   [
    1042,
    53
   ]
  ],
  "seats": [
   {
    "px": 944,
    "py": 127,
    "name": "九江郡/寿春",
    "role": "capital"
   },
   {
    "px": 1198,
    "py": 375,
    "name": "丹阳郡/宛陵县",
    "role": "commandery"
   },
   {
    "px": 1445,
    "py": 322,
    "name": "吴郡/吴县",
    "role": "commandery"
   },
   {
    "px": 1438,
    "py": 519,
    "name": "会稽郡/山阴",
    "role": "commandery"
   },
   {
    "px": 921,
    "py": 424,
    "name": "庐江郡/皖县",
    "role": "commandery"
   },
   {
    "px": 832,
    "py": 714,
    "name": "豫章郡/南昌",
    "role": "commandery"
   }
  ]
 },
 "features": [
  {
   "type": "Feature",
   "properties": {
    "kind": "state_boundary",
    "state": "扬州"
   },
   "geometry": {
    "type": "Polygon",
    "coordinates": [
     [
      [
       117.1336,
       33.0889
      ],
      [
       117.0759,
       33.072
      ],
      [
       116.9721,
       33.0121
      ],
      [
       116.8721,
       32.9784
      ],
      [
       116.7606,
       32.9087
      ],
      [
       116.6414,
       32.8683
      ],
      [
       116.53976136445482,
       32.86543209267649
      ],
      [
       116.4642,
       32.8633
      ],
      [
       116.4029,
       32.7809
      ],
      [
       116.3915,
       32.7382
      ],
      [
       116.4118,
       32.4897
      ],
      [
       116.2497,
       32.5602
      ],
      [
       116.196,
       32.5106
      ],
      [
       116.1614,
       32.4939
      ],
      [
       116.0879,
       32.5717
      ],
      [
       116.03,
       32.5876
      ],
      [
       115.9796,
       32.6624
      ],
      [
       115.872,
       32.6155
      ],
      [
       115.8029,
       32.5396
      ],
      [
       115.7375,
       32.5226
      ],
      [
       115.6528,
       32.5218
      ],
      [
       115.4997,
       32.2683
      ],
      [
       115.3961,
       32.1626
      ],
      [
       115.3426,
       32.0672
      ],
      [
       115.3352,
       31.9853
      ],
      [
       115.2699,
       31.9454
      ],
      [
       115.1658,
       31.951
      ],
      [
       114.9537,
       32.0243
      ],
      [
       114.9415,
       32.03822
      ],
      [
       114.97886689903817,
       31.858074265847563
      ],
      [
       115.00814169229017,
       31.757628126264876
      ],
      [
       115.02851,
       31.69529
      ],
      [
       115.0984,
       31.5888
      ],
      [
       115.07198,
       31.49712
      ],
      [
       115.02086492330608,
       31.363217702773156
      ],
      [
       115.00159,
       31.2908
      ],
      [
       115.05398,
       31.19948
      ],
      [
       115.1239,
       31.11588
      ],
      [
       115.19381,
       31.02465
      ],
      [
       115.28240765162182,
       30.905202794600015
      ],
      [
       115.32488,
       30.84977
      ],
      [
       115.30717,
       30.72761
      ],
      [
       115.32456,
       30.6514
      ],
      [
       115.5172,
       30.64465
      ],
      [
       115.61341,
       30.5688
      ],
      [
       115.59577,
       30.49242
      ],
      [
       115.6290544133743,
       30.364030118504324
      ],
      [
       115.64798,
       30.28666
      ],
      [
       115.71792,
       30.21832
      ],
      [
       115.63013,
       30.08058
      ],
      [
       115.57746,
       29.99641
      ],
      [
       115.49851,
       29.91212
      ],
      [
       115.4371,
       29.84317
      ],
      [
       115.41935,
       29.69813
      ],
      [
       115.33169,
       29.63669
      ],
      [
       115.17413,
       29.68174
      ],
      [
       115.07781,
       29.6813
      ],
      [
       115.12142,
       29.57469
      ],
      [
       114.99008,
       29.58171
      ],
      [
       114.92866,
       29.50513
      ],
      [
       114.87618,
       29.54304
      ],
      [
       114.84228492390218,
       29.4741996019913
      ],
      [
       114.79711,
       29.38245
      ],
      [
       114.68952772898456,
       29.375665920427885
      ],
      [
       114.47301,
       29.31992
      ],
      [
       114.438,
       29.33502
      ],
      [
       114.38544,
       29.31952
      ],
      [
       114.29794,
       29.3649
      ],
      [
       114.23654,
       29.30358
      ],
      [
       114.24519,
       29.23495
      ],
      [
       114.08753,
       29.21133
      ],
      [
       113.93849,
       29.10383
      ],
      [
       113.95591,
       29.04288
      ],
      [
       114.01703,
       28.93634
      ],
      [
       114.02564,
       28.84483
      ],
      [
       114.13937,
       28.77668
      ],
      [
       114.11298,
       28.70027
      ],
      [
       114.12163,
       28.63927
      ],
      [
       114.08647,
       28.55518
      ],
      [
       114.15642,
       28.48684
      ],
      [
       114.14756,
       28.42576
      ],
      [
       114.22628,
       28.36509
      ],
      [
       114.20237582117012,
       28.33726233893056
      ],
      [
       114.09468,
       28.21189
      ],
      [
       113.98084,
       28.21136
      ],
      [
       113.98084,
       28.21136
      ],
      [
       113.98069,
       28.11981
      ],
      [
       114.01562,
       28.05893
      ],
      [
       113.8492,
       28.03528
      ],
      [
       113.75364575420748,
       27.995684352602726
      ],
      [
       113.70023,
       27.97355
      ],
      [
       113.73506,
       27.85164
      ],
      [
       113.62986,
       27.77486
      ],
      [
       113.60343,
       27.67555
      ],
      [
       113.60328,
       27.584
      ],
      [
       113.75551309246677,
       27.495174441396745
      ],
      [
       113.90951,
       27.42518
      ],
      [
       114.0321,
       27.41812
      ],
      [
       114.14594,
       27.41864
      ],
      [
       114.22519116135854,
       27.483908164285353
      ],
      [
       114.295,
       27.5414
      ],
      [
       114.37373,
       27.48836
      ],
      [
       114.46992,
       27.40487
      ],
      [
       114.48725,
       27.29051
      ],
      [
       114.39076,
       27.19088
      ],
      [
       114.29433,
       27.12177
      ],
      [
       114.19791,
       27.06792
      ],
      [
       114.08403,
       27.03688
      ],
      [
       113.97887,
       26.99062
      ],
      [
       113.8912,
       26.92917
      ],
      [
       113.84728,
       26.84505
      ],
      [
       113.8296,
       26.73815
      ],
      [
       113.85577,
       26.67723
      ],
      [
       114.01339,
       26.67796
      ],
      [
       114.12715,
       26.62508
      ],
      [
       114.06965,
       26.58917
      ],
      [
       114.10944,
       26.50292
      ],
      [
       113.99279,
       26.42284
      ],
      [
       114.0083,
       26.32955
      ],
      [
       113.95442,
       26.28305
      ],
      [
       113.94677,
       26.23645
      ],
      [
       114.1879,
       26.28965
      ],
      [
       114.1879,
       26.28965
      ],
      [
       114.24908,
       26.21364
      ],
      [
       114.0563,
       26.13645
      ],
      [
       114.00368,
       26.0828
      ],
      [
       113.99471,
       25.95306
      ],
      [
       113.94202,
       25.86126
      ],
      [
       113.89805,
       25.74662
      ],
      [
       113.96798,
       25.67064
      ],
      [
       113.93272,
       25.52552
      ],
      [
       114.0114,
       25.44195
      ],
      [
       114.005610153348,
       25.362955790539164
      ],
      [
       113.98476,
       25.21294
      ],
      [
       113.97587,
       25.12897
      ],
      [
       113.97572,
       25.03742
      ],
      [
       113.92301,
       24.93036
      ],
      [
       113.94039,
       24.84652
      ],
      [
       114.04834,
       24.8375
      ],
      [
       114.19860068127683,
       24.759794423975087
      ],
      [
       114.31595905986265,
       24.702092954840154
      ],
      [
       114.43371,
       24.61014
      ],
      [
       114.50298,
       24.66993
      ],
      [
       114.65699,
       24.70954
      ],
      [
       114.72636,
       24.66275
      ],
      [
       114.76481,
       24.72927
      ],
      [
       114.88809,
       24.69568
      ],
      [
       114.92652,
       24.76886
      ],
      [
       115.05745,
       24.78853
      ],
      [
       115.07282,
       24.82846
      ],
      [
       115.14988,
       24.78832
      ],
      [
       115.30386,
       24.86123
      ],
      [
       115.36549,
       24.85443
      ],
      [
       115.48770763395781,
       24.84187295644513
      ],
      [
       115.53501,
       24.79409
      ],
      [
       115.68921,
       24.65386
      ],
      [
       115.84325,
       24.66682
      ],
      [
       115.80456,
       24.84675
      ],
      [
       115.78905,
       24.94669
      ],
      [
       115.91998,
       24.95971
      ],
      [
       116.06634,
       24.95271
      ],
      [
       116.25896,
       24.89898
      ],
      [
       116.36679,
       24.90539
      ],
      [
       116.47397,
       24.644
      ],
      [
       116.60509,
       24.62753
      ],
      [
       116.75379,
       24.6519
      ],
      [
       116.75937642960261,
       24.648296856743293
      ],
      [
       116.77531,
       24.63802
      ],
      [
       116.84467,
       24.61122
      ],
      [
       116.90638,
       24.51783
      ],
      [
       116.94505,
       24.3712
      ],
      [
       117.00673,
       24.31112
      ],
      [
       117.11466,
       24.22428
      ],
      [
       117.26862,
       24.31051
      ],
      [
       117.44356,
       24.18544
      ],
      [
       117.53995,
       24.2834
      ],
      [
       117.6711,
       24.28328
      ],
      [
       117.6711,
       24.28328
      ],
      [
       117.81114,
       24.34851
      ],
      [
       117.8914842007155,
       24.32794128285022
      ],
      [
       117.88130188212187,
       24.42752886227828
      ],
      [
       117.92572193504762,
       24.4671736037864
      ],
      [
       118.13887,
       24.46834
      ],
      [
       118.1388,
       24.53495
      ],
      [
       117.91542,
       24.53547
      ],
      [
       117.86914,
       24.60218
      ],
      [
       118.08478,
       24.63498
      ],
      [
       118.06162,
       24.68832
      ],
      [
       118.16171,
       24.73471
      ],
      [
       118.19243,
       24.81457
      ],
      [
       118.26185,
       24.72116
      ],
      [
       118.48515,
       24.80723
      ],
      [
       118.62395,
       24.66038
      ],
      [
       118.74707,
       24.77332
      ],
      [
       118.70078,
       24.84669
      ],
      [
       118.80856,
       24.89973
      ],
      [
       118.64676,
       24.94673
      ],
      [
       118.70056,
       25.06649
      ],
      [
       118.78535,
       24.99969
      ],
      [
       118.82383,
       25.03956
      ],
      [
       119.01642,
       25.01248
      ],
      [
       119.0626,
       25.04567
      ],
      [
       118.97015,
       25.06587
      ],
      [
       119.0702,
       25.14556
      ],
      [
       119.06246,
       25.18554
      ],
      [
       118.9084,
       25.19256
      ],
      [
       118.98536,
       25.25899
      ],
      [
       118.98528,
       25.33892
      ],
      [
       119.01601,
       25.41211
      ],
      [
       119.10847,
       25.39191
      ],
      [
       119.10087,
       25.28536
      ],
      [
       119.17782,
       25.35845
      ],
      [
       119.27032,
       25.29829
      ],
      [
       119.38581,
       25.34465
      ],
      [
       119.39343,
       25.43122
      ],
      [
       119.24707,
       25.43822
      ],
      [
       119.16992,
       25.55163
      ],
      [
       119.2469,
       25.59807
      ],
      [
       119.30847,
       25.65121
      ],
      [
       119.37775,
       25.69768
      ],
      [
       119.54741,
       25.50413
      ],
      [
       119.64748,
       25.56384
      ],
      [
       119.60892,
       25.61055
      ],
      [
       119.61655,
       25.67714
      ],
      [
       119.53179,
       25.71064
      ],
      [
       119.5317,
       25.79723
      ],
      [
       119.63183,
       25.80366
      ],
      [
       119.66254,
       25.90349
      ],
      [
       119.69325,
       25.99667
      ],
      [
       119.7317,
       26.05653
      ],
      [
       119.59298,
       26.13011
      ],
      [
       119.66985,
       26.27647
      ],
      [
       119.73142,
       26.33627
      ],
      [
       119.87003,
       26.36925
      ],
      [
       119.90076,
       26.44911
      ],
      [
       119.85452,
       26.47586
      ],
      [
       119.72363,
       26.41621
      ],
      [
       119.60795,
       26.54969
      ],
      [
       119.75435,
       26.50939
      ],
      [
       119.87756,
       26.54241
      ],
      [
       119.73876,
       26.68926
      ],
      [
       119.63095,
       26.65621
      ],
      [
       119.58468,
       26.7096
      ],
      [
       119.61546,
       26.74283
      ],
      [
       119.56915,
       26.82953
      ],
      [
       119.61534,
       26.85606
      ],
      [
       119.74638,
       26.76917
      ],
      [
       119.75402,
       26.82244
      ],
      [
       119.83875,
       26.82224
      ],
      [
       119.88504,
       26.75553
      ],
      [
       119.9774,
       26.82192
      ],
      [
       120.03133,
       26.81513
      ],
      [
       120.02374,
       26.70192
      ],
      [
       120.14702,
       26.66833
      ],
      [
       120.15456,
       26.82817
      ],
      [
       120.08515,
       26.91492
      ],
      [
       120.25452,
       26.99445
      ],
      [
       120.28519,
       27.13425
      ],
      [
       120.38533,
       27.13402
      ],
      [
       120.4315,
       27.18054
      ],
      [
       120.3467,
       27.24734
      ],
      [
       120.28507,
       27.25414
      ],
      [
       120.20806,
       27.23434
      ],
      [
       120.20799,
       27.30094
      ],
      [
       120.3158,
       27.32734
      ],
      [
       120.46994,
       27.24705
      ],
      [
       120.53152,
       27.28687
      ],
      [
       120.57761,
       27.41332
      ],
      [
       120.67007,
       27.38646
      ],
      [
       120.69307,
       27.48632
      ],
      [
       120.61598,
       27.5531
      ],
      [
       120.65435,
       27.69288
      ],
      [
       120.65429,
       27.74617
      ],
      [
       120.74669,
       27.78592
      ],
      [
       120.83903,
       27.87229
      ],
      [
       120.84661,
       27.99216
      ],
      [
       120.97751,
       28.03848
      ],
      [
       120.98509,
       28.15169
      ],
      [
       121.08516,
       28.21807
      ],
      [
       121.14675,
       28.25123
      ],
      [
       121.19283,
       28.38433
      ],
      [
       121.33168,
       28.19085
      ],
      [
       121.43182,
       28.18396
      ],
      [
       121.43937,
       28.33048
      ],
      [
       121.53178,
       28.35024
      ],
      [
       121.63971,
       28.26341
      ],
      [
       121.68584,
       28.34989
      ],
      [
       121.60873,
       28.42999
      ],
      [
       121.63944,
       28.52983
      ],
      [
       121.54696,
       28.57001
      ],
      [
       121.48523,
       28.67672
      ],
      [
       121.60843,
       28.72306
      ],
      [
       121.70852,
       28.76279
      ],
      [
       121.71615,
       28.83604
      ],
      [
       121.66217,
       28.89611
      ],
      [
       121.5466,
       28.92302
      ],
      [
       121.57738,
       28.95625
      ],
      [
       121.69295,
       28.92934
      ],
      [
       121.74685,
       28.94253
      ],
      [
       121.66197,
       29.08926
      ],
      [
       121.50791,
       29.09628
      ],
      [
       121.58476,
       29.26928
      ],
      [
       121.6618,
       29.25578
      ],
      [
       121.69268,
       29.1891
      ],
      [
       121.77742,
       29.17558
      ],
      [
       121.8236,
       29.21544
      ],
      [
       121.89295,
       29.18864
      ],
      [
       122.00077,
       29.20837
      ],
      [
       121.9622,
       29.26174
      ],
      [
       121.98512,
       29.44152
      ],
      [
       122.00812,
       29.54804
      ],
      [
       122.00804,
       29.62797
      ],
      [
       121.87712,
       29.60163
      ],
      [
       121.83865,
       29.56175
      ],
      [
       121.85411,
       29.50177
      ],
      [
       121.73857,
       29.50204
      ],
      [
       121.56149,
       29.42919
      ],
      [
       121.46899,
       29.48934
      ],
      [
       121.53824,
       29.56245
      ],
      [
       121.72309,
       29.57534
      ],
      [
       121.79237,
       29.62181
      ],
      [
       121.83851,
       29.69497
      ],
      [
       121.93858,
       29.75468
      ],
      [
       122.03096,
       29.80775
      ],
      [
       122.13875,
       29.86078
      ],
      [
       122.14641,
       29.89407
      ],
      [
       121.93074,
       29.89457
      ],
      [
       121.8768,
       29.90801
      ],
      [
       121.73806,
       30.00158
      ],
      [
       121.64557,
       30.05508
      ],
      [
       121.62242,
       30.0951
      ],
      [
       121.54531,
       30.1752
      ],
      [
       121.41428,
       30.25544
      ],
      [
       121.25251,
       30.27579
      ],
      [
       121.15238,
       30.26936
      ],
      [
       121.07542,
       30.20294
      ],
      [
       120.99076,
       30.13653
      ],
      [
       120.87524,
       30.11681
      ],
      [
       120.76741,
       30.10374
      ],
      [
       120.65184,
       30.13731
      ],
      [
       120.54396,
       30.17087
      ],
      [
       120.4361,
       30.19776
      ],
      [
       120.35132,
       30.24458
      ],
      [
       120.41291,
       30.27108
      ],
      [
       120.48993,
       30.27756
      ],
      [
       120.57464,
       30.29734
      ],
      [
       120.66703,
       30.34375
      ],
      [
       120.78254,
       30.37013
      ],
      [
       120.9751,
       30.37634
      ],
      [
       121.09836,
       30.3694
      ],
      [
       121.15995,
       30.3959
      ],
      [
       121.25233,
       30.44897
      ],
      [
       121.36012,
       30.49534
      ],
      [
       121.44479,
       30.54843
      ],
      [
       121.51397,
       30.68814
      ],
      [
       121.49849,
       30.7681
      ],
      [
       121.47528,
       30.8614
      ],
      [
       121.45208,
       30.95471
      ],
      [
       121.4597,
       31.03461
      ],
      [
       121.45193,
       31.10124
      ],
      [
       121.45175,
       31.27441
      ],
      [
       121.45161,
       31.40762
      ],
      [
       121.39761,
       31.48768
      ],
      [
       121.3513,
       31.58103
      ],
      [
       121.28959,
       31.66776
      ],
      [
       121.25872,
       31.72778
      ],
      [
       121.14308,
       31.82129
      ],
      [
       121.02747,
       31.88817
      ],
      [
       120.84256,
       31.92856
      ],
      [
       120.70383,
       32.00881
      ],
      [
       120.58828,
       32.0224
      ],
      [
       120.48042,
       32.04263
      ],
      [
       120.40337,
       32.06279
      ],
      [
       120.28451,
       32.06367
      ],
      [
       119.98313,
       32.13226
      ],
      [
       119.83163095630924,
       32.154887168553024
      ],
      [
       119.62566,
       32.18565
      ],
      [
       119.61054,
       32.16495
      ],
      [
       119.56598,
       32.18386
      ],
      [
       119.42747,
       32.13245
      ],
      [
       119.32278,
       32.10568
      ],
      [
       119.21829,
       32.09916
      ],
      [
       119.06534,
       32.09457
      ],
      [
       118.96466,
       32.09492
      ],
      [
       118.76663,
       32.0586
      ],
      [
       118.68409,
       32.00887
      ],
      [
       118.68409,
       32.00887
      ],
      [
       118.68922,
       32.14741
      ],
      [
       118.68738,
       32.33299
      ],
      [
       118.59812,
       32.35732
      ],
      [
       118.5691,
       32.43745
      ],
      [
       118.48754,
       32.48563
      ],
      [
       118.33453,
       32.47429
      ],
      [
       118.23377,
       32.46789
      ],
      [
       118.03596,
       32.45182
      ],
      [
       117.93907,
       32.45904
      ],
      [
       117.90204,
       32.48493
      ],
      [
       117.89818032480042,
       32.54244789636415
      ],
      [
       117.89232,
       32.62978
      ],
      [
       117.94608902453992,
       32.81058247908582
      ],
      [
       117.96622,
       32.92902
      ],
      [
       117.98973,
       33.04111
      ],
      [
       117.91557,
       33.08276
      ],
      [
       117.8037,
       33.1116
      ],
      [
       117.7112,
       33.1205
      ],
      [
       117.6078,
       32.9788
      ],
      [
       117.4841,
       33.0988
      ],
      [
       117.4339,
       33.131
      ],
      [
       117.1336,
       33.0889
      ],
      [
       117.1336,
       33.0889
      ],
      [
       117.1336,
       33.0889
      ]
     ]
    ]
   }
  },
  {
   "type": "Feature",
   "properties": {
    "kind": "commandery_seat",
    "name": "九江郡/寿春",
    "role": "capital"
   },
   "geometry": {
    "type": "Point",
    "coordinates": [
     116.73577,
     32.57119
    ]
   }
  },
  {
   "type": "Feature",
   "properties": {
    "kind": "commandery_seat",
    "name": "丹阳郡/宛陵县",
    "role": "commandery"
   },
   "geometry": {
    "type": "Point",
    "coordinates": [
     118.80894,
     31.10715
    ]
   }
  },
  {
   "type": "Feature",
   "properties": {
    "kind": "commandery_seat",
    "name": "吴郡/吴县",
    "role": "commandery"
   },
   "geometry": {
    "type": "Point",
    "coordinates": [
     120.58718,
     31.24837
    ]
   }
  },
  {
   "type": "Feature",
   "properties": {
    "kind": "commandery_seat",
    "name": "会稽郡/山阴",
    "role": "commandery"
   },
   "geometry": {
    "type": "Point",
    "coordinates": [
     120.69481,
     30.20436
    ]
   }
  },
  {
   "type": "Feature",
   "properties": {
    "kind": "commandery_seat",
    "name": "庐江郡/皖县",
    "role": "commandery"
   },
   "geometry": {
    "type": "Point",
    "coordinates": [
     116.80627,
     31.00431
    ]
   }
  },
  {
   "type": "Feature",
   "properties": {
    "kind": "commandery_seat",
    "name": "豫章郡/南昌",
    "role": "commandery"
   },
   "geometry": {
    "type": "Point",
    "coordinates": [
     116.3845,
     29.51227
    ]
   }
  }
 ]
}