{
  "type": "FeatureCollection",
  "metadata": {
    "state": "益州",
    "color": "#D5006F",
    "gcps": 8,
    "max_err_km": 13.8,
    "avg_err_km": 7.8,
    "verified": true
  },
  "pixels": {
    "gcps": [
      {
        "px": 1095,
        "py": 351,
        "lon": 104.4,
        "lat": 31.13,
        "name": "雒/广汉"
      },
      {
        "px": 1075,
        "py": 390,
        "lon": 104.07,
        "lat": 30.67,
        "name": "成都/成都"
      },
      {
        "px": 1128,
        "py": 600,
        "lon": 104.64,
        "lat": 28.77,
        "name": "犍为/宜宾"
      },
      {
        "px": 1317,
        "py": 825,
        "lon": 106.71,
        "lat": 26.65,
        "name": "牂牁/贵阳"
      },
      {
        "px": 608,
        "py": 987,
        "lon": 99.17,
        "lat": 25.12,
        "name": "永昌/保山"
      },
      {
        "px": 1354,
        "py": 120,
        "lon": 107.03,
        "lat": 33.07,
        "name": "汉中/汉中"
      },
      {
        "px": 1307,
        "py": 509,
        "lon": 106.55,
        "lat": 29.56,
        "name": "巴郡/重庆"
      },
      {
        "px": 957,
        "py": 1011,
        "lon": 102.71,
        "lat": 25.04,
        "name": "益州/昆明"
      }
    ],
    "bnd": [
      [
        440,
        1142
      ],
      [
        386,
        1099
      ],
      [
        355,
        1065
      ],
      [
        324,
        1015
      ],
      [
        299,
        956
      ],
      [
        287,
        899
      ],
      [
        279,
        804
      ],
      [
        291,
        784
      ],
      [
        302,
        780
      ],
      [
        311,
        764
      ],
      [
        340,
        757
      ],
      [
        371,
        742
      ],
      [
        393,
        764
      ],
      [
        419,
        768
      ],
      [
        405,
        751
      ],
      [
        393,
        718
      ],
      [
        399,
        707
      ],
      [
        410,
        702
      ],
      [
        422,
        688
      ],
      [
        432,
        691
      ],
      [
        435,
        682
      ],
      [
        430,
        674
      ],
      [
        431,
        663
      ],
      [
        437,
        657
      ],
      [
        436,
        653
      ],
      [
        444,
        645
      ],
      [
        450,
        645
      ],
      [
        453,
        626
      ],
      [
        457,
        622
      ],
      [
        464,
        622
      ],
      [
        469,
        619
      ],
      [
        473,
        623
      ],
      [
        482,
        640
      ],
      [
        489,
        636
      ],
      [
        502,
        654
      ],
      [
        504,
        659
      ],
      [
        507,
        657
      ],
      [
        512,
        661
      ],
      [
        520,
        657
      ],
      [
        519,
        650
      ],
      [
        523,
        647
      ],
      [
        529,
        639
      ],
      [
        540,
        652
      ],
      [
        558,
        649
      ],
      [
        574,
        673
      ],
      [
        592,
        664
      ],
      [
        605,
        676
      ],
      [
        632,
        691
      ],
      [
        642,
        703
      ],
      [
        659,
        750
      ],
      [
        691,
        784
      ],
      [
        695,
        777
      ],
      [
        693,
        771
      ],
      [
        701,
        766
      ],
      [
        711,
        754
      ],
      [
        714,
        744
      ],
      [
        707,
        736
      ],
      [
        709,
        728
      ],
      [
        716,
        724
      ],
      [
        725,
        703
      ],
      [
        731,
        702
      ],
      [
        738,
        689
      ],
      [
        757,
        665
      ],
      [
        773,
        649
      ],
      [
        791,
        642
      ],
      [
        785,
        617
      ],
      [
        776,
        583
      ],
      [
        770,
        561
      ],
      [
        767,
        543
      ],
      [
        771,
        526
      ],
      [
        811,
        496
      ],
      [
        833,
        486
      ],
      [
        849,
        485
      ],
      [
        861,
        490
      ],
      [
        869,
        485
      ],
      [
        880,
        472
      ],
      [
        904,
        444
      ],
      [
        913,
        427
      ],
      [
        928,
        388
      ],
      [
        947,
        351
      ],
      [
        957,
        336
      ],
      [
        944,
        321
      ],
      [
        939,
        306
      ],
      [
        944,
        280
      ],
      [
        958,
        237
      ],
      [
        958,
        212
      ],
      [
        964,
        183
      ],
      [
        985,
        155
      ],
      [
        1001,
        145
      ],
      [
        1019,
        139
      ],
      [
        1033,
        138
      ],
      [
        1043,
        138
      ],
      [
        1051,
        139
      ],
      [
        1057,
        142
      ],
      [
        1065,
        148
      ],
      [
        1068,
        159
      ],
      [
        1074,
        149
      ],
      [
        1080,
        145
      ],
      [
        1085,
        129
      ],
      [
        1096,
        115
      ],
      [
        1086,
        93
      ],
      [
        1098,
        91
      ],
      [
        1104,
        93
      ],
      [
        1110,
        87
      ],
      [
        1154,
        99
      ],
      [
        1169,
        107
      ],
      [
        1176,
        114
      ],
      [
        1195,
        114
      ],
      [
        1214,
        117
      ],
      [
        1230,
        124
      ],
      [
        1246,
        123
      ],
      [
        1259,
        128
      ],
      [
        1274,
        129
      ],
      [
        1304,
        123
      ],
      [
        1306,
        109
      ],
      [
        1311,
        92
      ],
      [
        1334,
        53
      ],
      [
        1338,
        49
      ],
      [
        1347,
        29
      ],
      [
        1361,
        12
      ],
      [
        1369,
        9
      ],
      [
        1375,
        18
      ],
      [
        1385,
        19
      ],
      [
        1394,
        16
      ],
      [
        1425,
        32
      ],
      [
        1438,
        41
      ],
      [
        1458,
        41
      ],
      [
        1475,
        37
      ],
      [
        1483,
        38
      ],
      [
        1491,
        39
      ],
      [
        1500,
        36
      ],
      [
        1507,
        36
      ],
      [
        1522,
        29
      ],
      [
        1537,
        28
      ],
      [
        1544,
        26
      ],
      [
        1550,
        32
      ],
      [
        1558,
        44
      ],
      [
        1567,
        75
      ],
      [
        1574,
        82
      ],
      [
        1578,
        92
      ],
      [
        1584,
        100
      ],
      [
        1614,
        106
      ],
      [
        1625,
        104
      ],
      [
        1641,
        109
      ],
      [
        1652,
        108
      ],
      [
        1657,
        114
      ],
      [
        1682,
        112
      ],
      [
        1689,
        104
      ],
      [
        1697,
        124
      ],
      [
        1704,
        130
      ],
      [
        1715,
        133
      ],
      [
        1723,
        138
      ],
      [
        1744,
        141
      ],
      [
        1739,
        149
      ],
      [
        1727,
        161
      ],
      [
        1718,
        173
      ],
      [
        1699,
        182
      ],
      [
        1693,
        186
      ],
      [
        1694,
        195
      ],
      [
        1716,
        205
      ],
      [
        1727,
        203
      ],
      [
        1737,
        206
      ],
      [
        1745,
        212
      ],
      [
        1751,
        228
      ],
      [
        1761,
        232
      ],
      [
        1770,
        231
      ],
      [
        1780,
        234
      ],
      [
        1799,
        242
      ],
      [
        1807,
        244
      ],
      [
        1815,
        240
      ],
      [
        1821,
        243
      ],
      [
        1821,
        248
      ],
      [
        1817,
        252
      ],
      [
        1810,
        253
      ],
      [
        1802,
        257
      ],
      [
        1784,
        257
      ],
      [
        1766,
        264
      ],
      [
        1759,
        279
      ],
      [
        1756,
        293
      ],
      [
        1754,
        298
      ],
      [
        1746,
        299
      ],
      [
        1734,
        294
      ],
      [
        1717,
        295
      ],
      [
        1695,
        293
      ],
      [
        1682,
        295
      ],
      [
        1668,
        295
      ],
      [
        1654,
        286
      ],
      [
        1633,
        276
      ],
      [
        1619,
        274
      ],
      [
        1611,
        283
      ],
      [
        1611,
        334
      ],
      [
        1602,
        356
      ],
      [
        1604,
        380
      ],
      [
        1598,
        385
      ],
      [
        1596,
        389
      ],
      [
        1591,
        388
      ],
      [
        1581,
        398
      ],
      [
        1581,
        402
      ],
      [
        1578,
        407
      ],
      [
        1575,
        406
      ],
      [
        1575,
        401
      ],
      [
        1574,
        399
      ],
      [
        1573,
        395
      ],
      [
        1572,
        393
      ],
      [
        1556,
        402
      ],
      [
        1556,
        394
      ],
      [
        1551,
        391
      ],
      [
        1543,
        392
      ],
      [
        1523,
        404
      ],
      [
        1517,
        404
      ],
      [
        1512,
        396
      ],
      [
        1507,
        397
      ],
      [
        1505,
        404
      ],
      [
        1501,
        406
      ],
      [
        1493,
        408
      ],
      [
        1487,
        410
      ],
      [
        1481,
        419
      ],
      [
        1483,
        425
      ],
      [
        1488,
        426
      ],
      [
        1491,
        431
      ],
      [
        1497,
        430
      ],
      [
        1496,
        451
      ],
      [
        1495,
        457
      ],
      [
        1498,
        462
      ],
      [
        1494,
        468
      ],
      [
        1494,
        475
      ],
      [
        1489,
        479
      ],
      [
        1485,
        478
      ],
      [
        1482,
        483
      ],
      [
        1486,
        486
      ],
      [
        1487,
        493
      ],
      [
        1495,
        495
      ],
      [
        1501,
        489
      ],
      [
        1502,
        483
      ],
      [
        1507,
        482
      ],
      [
        1511,
        492
      ],
      [
        1510,
        499
      ],
      [
        1519,
        503
      ],
      [
        1529,
        505
      ],
      [
        1530,
        516
      ],
      [
        1527,
        521
      ],
      [
        1532,
        527
      ],
      [
        1532,
        538
      ],
      [
        1535,
        539
      ],
      [
        1544,
        537
      ],
      [
        1546,
        556
      ],
      [
        1544,
        562
      ],
      [
        1536,
        578
      ],
      [
        1535,
        589
      ],
      [
        1535,
        599
      ],
      [
        1540,
        606
      ],
      [
        1536,
        618
      ],
      [
        1533,
        626
      ],
      [
        1524,
        630
      ],
      [
        1517,
        627
      ],
      [
        1511,
        616
      ],
      [
        1502,
        616
      ],
      [
        1495,
        612
      ],
      [
        1487,
        611
      ],
      [
        1479,
        605
      ],
      [
        1486,
        594
      ],
      [
        1482,
        590
      ],
      [
        1481,
        583
      ],
      [
        1478,
        571
      ],
      [
        1477,
        565
      ],
      [
        1474,
        563
      ],
      [
        1470,
        565
      ],
      [
        1465,
        564
      ],
      [
        1457,
        562
      ],
      [
        1447,
        566
      ],
      [
        1438,
        567
      ],
      [
        1431,
        572
      ],
      [
        1432,
        580
      ],
      [
        1428,
        594
      ],
      [
        1431,
        606
      ],
      [
        1423,
        616
      ],
      [
        1420,
        622
      ],
      [
        1412,
        639
      ],
      [
        1416,
        647
      ],
      [
        1424,
        650
      ],
      [
        1431,
        659
      ],
      [
        1425,
        667
      ],
      [
        1424,
        674
      ],
      [
        1428,
        678
      ],
      [
        1436,
        678
      ],
      [
        1439,
        686
      ],
      [
        1440,
        698
      ],
      [
        1437,
        705
      ],
      [
        1442,
        709
      ],
      [
        1443,
        723
      ],
      [
        1446,
        733
      ],
      [
        1444,
        742
      ],
      [
        1447,
        755
      ],
      [
        1438,
        778
      ],
      [
        1459,
        808
      ],
      [
        1461,
        817
      ],
      [
        1462,
        845
      ],
      [
        1470,
        863
      ],
      [
        1470,
        871
      ],
      [
        1465,
        878
      ],
      [
        1466,
        892
      ],
      [
        1468,
        900
      ],
      [
        1475,
        902
      ],
      [
        1471,
        918
      ],
      [
        1471,
        926
      ],
      [
        1476,
        928
      ],
      [
        1481,
        939
      ],
      [
        1479,
        949
      ],
      [
        1473,
        953
      ],
      [
        1466,
        952
      ],
      [
        1465,
        960
      ],
      [
        1471,
        969
      ],
      [
        1470,
        985
      ],
      [
        1463,
        997
      ],
      [
        1458,
        1007
      ],
      [
        1458,
        1015
      ],
      [
        1452,
        1021
      ],
      [
        1443,
        1023
      ],
      [
        1426,
        1034
      ],
      [
        1418,
        1034
      ],
      [
        1411,
        1032
      ],
      [
        1404,
        1025
      ],
      [
        1393,
        1024
      ],
      [
        1387,
        1027
      ],
      [
        1389,
        1039
      ],
      [
        1396,
        1047
      ],
      [
        1402,
        1057
      ],
      [
        1405,
        1071
      ],
      [
        1401,
        1080
      ],
      [
        1390,
        1073
      ],
      [
        1383,
        1065
      ],
      [
        1360,
        1047
      ],
      [
        1343,
        1039
      ],
      [
        1336,
        1039
      ],
      [
        1313,
        1059
      ],
      [
        1294,
        1079
      ],
      [
        1290,
        1093
      ],
      [
        1289,
        1111
      ],
      [
        1296,
        1122
      ],
      [
        1304,
        1127
      ],
      [
        1314,
        1128
      ],
      [
        1325,
        1140
      ],
      [
        1325,
        1150
      ],
      [
        1344,
        1169
      ],
      [
        1342,
        1194
      ],
      [
        1336,
        1202
      ],
      [
        1330,
        1203
      ],
      [
        1328,
        1210
      ],
      [
        1321,
        1217
      ],
      [
        1311,
        1218
      ],
      [
        1306,
        1216
      ],
      [
        1295,
        1221
      ],
      [
        1289,
        1221
      ],
      [
        1272,
        1212
      ],
      [
        1248,
        1213
      ],
      [
        1230,
        1203
      ],
      [
        1220,
        1200
      ],
      [
        1210,
        1183
      ],
      [
        1201,
        1179
      ],
      [
        1195,
        1174
      ],
      [
        1183,
        1177
      ],
      [
        1164,
        1184
      ],
      [
        1154,
        1193
      ],
      [
        1154,
        1212
      ],
      [
        1148,
        1218
      ],
      [
        1137,
        1223
      ],
      [
        1129,
        1224
      ],
      [
        1112,
        1240
      ],
      [
        1101,
        1240
      ],
      [
        1093,
        1234
      ],
      [
        1091,
        1225
      ],
      [
        1087,
        1225
      ],
      [
        1080,
        1232
      ],
      [
        1078,
        1238
      ],
      [
        1077,
        1248
      ],
      [
        1069,
        1262
      ],
      [
        1058,
        1259
      ],
      [
        1038,
        1236
      ],
      [
        1032,
        1235
      ],
      [
        1030,
        1242
      ],
      [
        1027,
        1250
      ],
      [
        1024,
        1254
      ],
      [
        1032,
        1275
      ],
      [
        1033,
        1283
      ],
      [
        1033,
        1295
      ],
      [
        1033,
        1299
      ],
      [
        1043,
        1314
      ],
      [
        1050,
        1335
      ],
      [
        1035,
        1346
      ],
      [
        1022,
        1360
      ],
      [
        1005,
        1362
      ],
      [
        954,
        1302
      ],
      [
        919,
        1275
      ],
      [
        899,
        1284
      ],
      [
        897,
        1283
      ],
      [
        854,
        1320
      ],
      [
        862,
        1340
      ],
      [
        857,
        1360
      ],
      [
        854,
        1381
      ],
      [
        866,
        1388
      ],
      [
        864,
        1397
      ],
      [
        849,
        1400
      ],
      [
        831,
        1391
      ],
      [
        813,
        1397
      ],
      [
        800,
        1383
      ],
      [
        804,
        1367
      ],
      [
        794,
        1336
      ],
      [
        778,
        1337
      ],
      [
        756,
        1365
      ],
      [
        735,
        1368
      ],
      [
        710,
        1365
      ],
      [
        685,
        1339
      ],
      [
        684,
        1325
      ],
      [
        687,
        1310
      ],
      [
        675,
        1303
      ],
      [
        636,
        1299
      ],
      [
        606,
        1295
      ],
      [
        580,
        1303
      ],
      [
        562,
        1301
      ],
      [
        549,
        1282
      ],
      [
        554,
        1264
      ],
      [
        545,
        1237
      ],
      [
        545,
        1225
      ],
      [
        555,
        1220
      ],
      [
        553,
        1216
      ],
      [
        547,
        1214
      ],
      [
        539,
        1204
      ],
      [
        547,
        1198
      ],
      [
        536,
        1186
      ],
      [
        536,
        1184
      ],
      [
        564,
        1174
      ],
      [
        565,
        1167
      ],
      [
        557,
        1160
      ],
      [
        558,
        1147
      ],
      [
        549,
        1131
      ],
      [
        542,
        1129
      ],
      [
        536,
        1120
      ],
      [
        535,
        1103
      ],
      [
        542,
        1093
      ],
      [
        518,
        1095
      ],
      [
        495,
        1103
      ],
      [
        459,
        1139
      ],
      [
        440,
        1142
      ]
    ],
    "seats": [
      {
        "px": 617,
        "py": 975,
        "name": "永昌郡/不韦",
        "role": "commandery"
      },
      {
        "px": 949,
        "py": 1027,
        "name": "益州郡/滇池",
        "role": "commandery"
      },
      {
        "px": 1405,
        "py": 817,
        "name": "牂柯郡/故且兰",
        "role": "commandery"
      },
      {
        "px": 1039,
        "py": 751,
        "name": "犍为属国/朱提",
        "role": "commandery"
      },
      {
        "px": 906,
        "py": 693,
        "name": "越巂郡/邛都",
        "role": "commandery"
      },
      {
        "px": 984,
        "py": 438,
        "name": "蜀郡属国/汉嘉",
        "role": "commandery"
      },
      {
        "px": 1060,
        "py": 442,
        "name": "犍为郡/武阳",
        "role": "commandery"
      },
      {
        "px": 1308,
        "py": 508,
        "name": "巴郡/江州",
        "role": "commandery"
      },
      {
        "px": 1076,
        "py": 390,
        "name": "蜀郡/成都",
        "role": "capital"
      },
      {
        "px": 1096,
        "py": 350,
        "name": "广汉郡/雒县",
        "role": "commandery"
      },
      {
        "px": 1129,
        "py": 136,
        "name": "广汉属国/阴平道",
        "role": "commandery"
      },
      {
        "px": 1354,
        "py": 120,
        "name": "汉中郡/南郑",
        "role": "commandery"
      }
    ]
  },
  "features": [
    {
      "type": "Feature",
      "properties": {
        "kind": "state_boundary",
        "state": "益州",
        "color": "#D5006F"
      },
      "geometry": {
        "type": "Polygon",
        "coordinates": [
          [
            [
              97.34155,
              23.77588
            ],
            [
              96.77398,
              24.17011
            ],
            [
              96.44882,
              24.48181
            ],
            [
              96.12482,
              24.94017
            ],
            [
              95.86488,
              25.48102
            ],
            [
              95.74218,
              26.00353
            ],
            [
              95.6645,
              26.87435
            ],
            [
              95.79277,
              27.05766
            ],
            [
              95.90931,
              27.09431
            ],
            [
              96.00558,
              27.24097
            ],
            [
              96.31256,
              27.30509
            ],
            [
              96.64126,
              27.44255
            ],
            [
              96.87217,
              27.24086
            ],
            [
              97.14666,
              27.20416
            ],
            [
              96.99993,
              27.36001
            ],
            [
              96.8755,
              27.66252
            ],
            [
              96.93971,
              27.76334
            ],
            [
              97.05632,
              27.80916
            ],
            [
              97.18415,
              27.93747
            ],
            [
              97.28961,
              27.90996
            ],
            [
              97.32197,
              27.99245
            ],
            [
              97.26971,
              28.06579
            ],
            [
              97.28107,
              28.16662
            ],
            [
              97.34491,
              28.22161
            ],
            [
              97.33463,
              28.25828
            ],
            [
              97.41976,
              28.3316
            ],
            [
              97.48317,
              28.33159
            ],
            [
              97.51625,
              28.50575
            ],
            [
              97.55881,
              28.54241
            ],
            [
              97.63279,
              28.5424
            ],
            [
              97.68584,
              28.56989
            ],
            [
              97.72783,
              28.53322
            ],
            [
              97.82171,
              28.37738
            ],
            [
              97.89598,
              28.41404
            ],
            [
              98.03207,
              28.24903
            ],
            [
              98.05284,
              28.20319
            ],
            [
              98.08469,
              28.22152
            ],
            [
              98.13724,
              28.18485
            ],
            [
              98.22208,
              28.2215
            ],
            [
              98.21201,
              28.28567
            ],
            [
              98.2545,
              28.31316
            ],
            [
              98.31849,
              28.38649
            ],
            [
              98.4338,
              28.26731
            ],
            [
              98.62425,
              28.29479
            ],
            [
              98.7916,
              28.07477
            ],
            [
              98.98248,
              28.15724
            ],
            [
              99.119,
              28.04723
            ],
            [
              99.40326,
              27.9097
            ],
            [
              99.50808,
              27.79969
            ],
            [
              99.68434,
              27.36884
            ],
            [
              100.02006,
              27.05714
            ],
            [
              100.06284,
              27.1213
            ],
            [
              100.04214,
              27.1763
            ],
            [
              100.12705,
              27.22212
            ],
            [
              100.2336,
              27.33211
            ],
            [
              100.26602,
              27.42377
            ],
            [
              100.19263,
              27.49711
            ],
            [
              100.21434,
              27.57044
            ],
            [
              100.28861,
              27.6071
            ],
            [
              100.38524,
              27.79958
            ],
            [
              100.44872,
              27.80874
            ],
            [
              100.52364,
              27.92789
            ],
            [
              100.72617,
              28.14786
            ],
            [
              100.89642,
              28.29451
            ],
            [
              101.08715,
              28.35865
            ],
            [
              101.02555,
              28.58782
            ],
            [
              100.9329,
              28.89949
            ],
            [
              100.87108,
              29.10116
            ],
            [
              100.84067,
              29.26616
            ],
            [
              100.88418,
              29.42198
            ],
            [
              101.30907,
              29.69692
            ],
            [
              101.5423,
              29.78856
            ],
            [
              101.71146,
              29.7977
            ],
            [
              101.83792,
              29.75186
            ],
            [
              101.92283,
              29.79768
            ],
            [
              102.04002,
              29.91683
            ],
            [
              102.29568,
              30.17346
            ],
            [
              102.39202,
              30.32927
            ],
            [
              102.55337,
              30.68675
            ],
            [
              102.75684,
              31.02588
            ],
            [
              102.8636,
              31.16336
            ],
            [
              102.7273,
              31.30088
            ],
            [
              102.67555,
              31.43838
            ],
            [
              102.73027,
              31.6767
            ],
            [
              102.88133,
              32.07084
            ],
            [
              102.88314,
              32.3
            ],
            [
              102.94864,
              32.56582
            ],
            [
              103.1726,
              32.82245
            ],
            [
              103.34242,
              32.9141
            ],
            [
              103.53308,
              32.96907
            ],
            [
              103.68111,
              32.97822
            ],
            [
              103.78679,
              32.97821
            ],
            [
              103.87126,
              32.96903
            ],
            [
              103.93445,
              32.94152
            ],
            [
              104.01857,
              32.88652
            ],
            [
              104.04948,
              32.78568
            ],
            [
              104.11361,
              32.87734
            ],
            [
              104.17731,
              32.914
            ],
            [
              104.2313,
              33.06065
            ],
            [
              104.34857,
              33.18897
            ],
            [
              104.24448,
              33.39064
            ],
            [
              104.41755194460207,
              33.40892665605293
            ],
            [
              104.45991597041898,
              33.42250584841869
            ],
            [
              104.49294935386688,
              33.41479399307286
            ],
            [
              104.90602,
              33.31836
            ],
            [
              105.05802,
              33.25796
            ],
            [
              105.14343,
              33.20475
            ],
            [
              105.59547,
              33.17048
            ],
            [
              105.70922476956127,
              33.11716866696987
            ],
            [
              105.86986417417002,
              33.13204276751968
            ],
            [
              106.07025,
              33.06959
            ],
            [
              106.30730258286411,
              33.10587431964882
            ],
            [
              106.4946,
              33.13808
            ],
            [
              106.50722506107172,
              33.29058547134453
            ],
            [
              106.55793403314735,
              33.41471511730254
            ],
            [
              106.79455092159077,
              33.736135981558476
            ],
            [
              106.84015,
              33.77931
            ],
            [
              106.94561,
              33.94938
            ],
            [
              107.07740987800213,
              34.06417715464496
            ],
            [
              107.1528203951855,
              34.129496184503786
            ],
            [
              107.23975,
              33.97061
            ],
            [
              107.35398,
              33.97448
            ],
            [
              107.43853,
              33.99856
            ],
            [
              107.75204708400811,
              33.867602360832066
            ],
            [
              107.90451,
              33.78352
            ],
            [
              108.13296,
              33.79125
            ],
            [
              108.3148,
              33.82251
            ],
            [
              108.39525797285778,
              33.81425318826229
            ],
            [
              108.44177,
              33.80948
            ],
            [
              108.56863,
              33.83374
            ],
            [
              108.64903,
              33.83068
            ],
            [
              108.78847,
              33.89568
            ],
            [
              108.84924869927214,
              33.89780172913823
            ],
            [
              109.02957,
              33.92041
            ],
            [
              109.08622,
              33.92631
            ],
            [
              109.19113,
              33.81998
            ],
            [
              109.28697,
              33.52286
            ],
            [
              109.3657,
              33.46982
            ],
            [
              109.38305,
              33.37071
            ],
            [
              109.4705,
              33.29482
            ],
            [
              109.7784913976478,
              33.24421528758058
            ],
            [
              109.89807194429588,
              33.25843794397988
            ],
            [
              110.06213702799252,
              33.222094481082486
            ],
            [
              110.17093,
              33.22175
            ],
            [
              110.21465,
              33.1838
            ],
            [
              110.5144481184255,
              33.210421001085
            ],
            [
              110.56506,
              33.26934
            ],
            [
              110.63398681878762,
              33.12657077374423
            ],
            [
              110.73106,
              33.03358
            ],
            [
              110.84488,
              33.01885
            ],
            [
              110.93235,
              32.95821
            ],
            [
              111.15124,
              32.93633
            ],
            [
              111.04893330213383,
              32.817016606947334
            ],
            [
              110.95706926120812,
              32.743354260696194
            ],
            [
              110.86178,
              32.63744
            ],
            [
              110.68653,
              32.56797
            ],
            [
              110.62110713559865,
              32.51785351148725
            ],
            [
              110.59215466822154,
              32.465024624047764
            ],
            [
              110.85903567393903,
              32.35585057512851
            ],
            [
              111.01076,
              32.3815
            ],
            [
              111.11623,
              32.35399
            ],
            [
              111.20034,
              32.29898
            ],
            [
              111.26259,
              32.15231
            ],
            [
              111.36798,
              32.11563
            ],
            [
              111.46317,
              32.12478
            ],
            [
              111.56864,
              32.09727
            ],
            [
              111.76885,
              32.02391
            ],
            [
              111.85326,
              32.00557
            ],
            [
              111.93462159027771,
              32.02723011319672
            ],
            [
              112.00128,
              32.01472
            ],
            [
              112.00092,
              31.96889
            ],
            [
              111.95836,
              31.93223
            ],
            [
              111.88431,
              31.92307
            ],
            [
              111.79948,
              31.88641
            ],
            [
              111.60925,
              31.88644
            ],
            [
              111.41851,
              31.8223
            ],
            [
              111.34345,
              31.68481
            ],
            [
              111.31073,
              31.55648
            ],
            [
              111.28924,
              31.51065
            ],
            [
              111.20462,
              31.5015
            ],
            [
              111.07816,
              31.54734
            ],
            [
              110.89843,
              31.5382
            ],
            [
              110.66607,
              31.55656
            ],
            [
              110.52854,
              31.53825
            ],
            [
              110.38058,
              31.53826
            ],
            [
              110.23328,
              31.62078
            ],
            [
              110.01207,
              31.71247
            ],
            [
              109.86426,
              31.73082
            ],
            [
              109.77906,
              31.64834
            ],
            [
              109.74987554944512,
              31.237633895901592
            ],
            [
              109.67867,
              30.9792
            ],
            [
              109.69807,
              30.7592
            ],
            [
              109.6343,
              30.71337
            ],
            [
              109.61287,
              30.67671
            ],
            [
              109.56011,
              30.68588
            ],
            [
              109.4537,
              30.59423
            ],
            [
              109.44151615398064,
              30.559918169380538
            ],
            [
              109.42135,
              30.51174
            ],
            [
              109.38971,
              30.52091
            ],
            [
              109.39007,
              30.56674
            ],
            [
              109.37965,
              30.58508
            ],
            [
              109.36937,
              30.62174
            ],
            [
              109.35895,
              30.64008
            ],
            [
              109.18921,
              30.5576
            ],
            [
              109.18978,
              30.63093
            ],
            [
              109.13716,
              30.65844
            ],
            [
              109.05254,
              30.64928
            ],
            [
              108.84031,
              30.53931
            ],
            [
              108.7769,
              30.53932
            ],
            [
              108.72464,
              30.61266
            ],
            [
              108.67172,
              30.6035
            ],
            [
              108.65008,
              30.53933
            ],
            [
              108.60766,
              30.52101
            ],
            [
              108.52297,
              30.50268
            ],
            [
              108.45942,
              30.48436
            ],
            [
              108.39536,
              30.40187
            ],
            [
              108.41606,
              30.34687
            ],
            [
              108.46883,
              30.33769
            ],
            [
              108.50017,
              30.29186
            ],
            [
              108.56366,
              30.30102
            ],
            [
              108.55157,
              30.10852
            ],
            [
              108.54057,
              30.05352
            ],
            [
              108.57191,
              30.00769
            ],
            [
              108.5292,
              29.95269
            ],
            [
              108.5287,
              29.88853
            ],
            [
              108.47557,
              29.85187
            ],
            [
              108.43337,
              29.86104
            ],
            [
              108.4013,
              29.81521
            ],
            [
              108.44336,
              29.78771
            ],
            [
              108.45342,
              29.72354
            ],
            [
              108.53782,
              29.7052
            ],
            [
              108.60166,
              29.76019
            ],
            [
              108.61266,
              29.81519
            ],
            [
              108.65836798497965,
              29.774251794308466
            ],
            [
              108.70713,
              29.73268
            ],
            [
              108.69605,
              29.66851
            ],
            [
              108.79501629505032,
              29.641331411550258
            ],
            [
              108.89642,
              29.61349
            ],
            [
              108.86973111294145,
              29.516881661261923
            ],
            [
              108.8516114236185,
              29.44632340551556
            ],
            [
              108.92125,
              29.37067
            ],
            [
              108.90394268544614,
              29.29568799854659
            ],
            [
              108.93861,
              29.27156
            ],
            [
              109.06124,
              29.29501
            ],
            [
              109.04366389094388,
              29.196277425868036
            ],
            [
              109.04341176119638,
              29.097651831688758
            ],
            [
              108.99945,
              28.98954
            ],
            [
              108.95375,
              28.8435
            ],
            [
              108.98113913978999,
              28.75907586503733
            ],
            [
              109.00536,
              28.68766
            ],
            [
              108.96054584644423,
              28.556112402503814
            ],
            [
              108.91103,
              28.46269
            ],
            [
              108.79718,
              28.45454
            ],
            [
              108.76078,
              28.4952
            ],
            [
              108.67677557051097,
              28.58158492216859
            ],
            [
              108.60763059057896,
              28.57605914209396
            ],
            [
              108.51799800308397,
              28.613134474501322
            ],
            [
              108.43085429245852,
              28.613075500936205
            ],
            [
              108.3430590142345,
              28.6747741726262
            ],
            [
              108.42916428186956,
              28.779996497629977
            ],
            [
              108.38619061430269,
              28.811656633741663
            ],
            [
              108.38628,
              28.87228
            ],
            [
              108.34508114740647,
              28.958539802530808
            ],
            [
              108.33403,
              29.04752
            ],
            [
              108.25650642219742,
              29.03966241549356
            ],
            [
              108.08886,
              29.06165
            ],
            [
              108.03086627591308,
              29.032534976334524
            ],
            [
              107.92188816019777,
              29.01494043343975
            ],
            [
              107.85468593473367,
              28.992677119482316
            ],
            [
              107.85209486383005,
              28.857596135363156
            ],
            [
              107.8257831796836,
              28.78596082753732
            ],
            [
              107.83415785036223,
              28.649802195048952
            ],
            [
              107.73396008663104,
              28.531740769543127
            ],
            [
              107.63411028960941,
              28.34820622196652
            ],
            [
              107.6864152064873,
              28.29594650262228
            ],
            [
              107.77816064824343,
              28.245450284315723
            ],
            [
              107.83344984992993,
              28.190750828936594
            ],
            [
              107.78113028118428,
              28.07478351286653
            ],
            [
              107.79959012366002,
              28.01475144911961
            ],
            [
              107.90324,
              27.99265
            ],
            [
              107.9467772843455,
              27.909136212640334
            ],
            [
              107.92039120470702,
              27.748768592639333
            ],
            [
              107.96407,
              27.703
            ],
            [
              108.00699289408254,
              27.285895863779647
            ],
            [
              107.93687628010315,
              27.085095357438128
            ],
            [
              108.12774230650594,
              26.820651958874954
            ],
            [
              108.15522,
              26.75365
            ],
            [
              108.15481,
              26.51366
            ],
            [
              108.26809721954899,
              26.300091367291284
            ],
            [
              108.1923828125,
              26.192489908247577
            ],
            [
              108.1979,
              26.0866
            ],
            [
              108.24135272042975,
              25.98037448922232
            ],
            [
              108.32067626963665,
              25.957532598174815
            ],
            [
              108.2536,
              25.82782
            ],
            [
              108.25302,
              25.75449
            ],
            [
              108.35758030237527,
              25.635658207311252
            ],
            [
              108.3359,
              25.54365
            ],
            [
              108.2722,
              25.50699
            ],
            [
              108.1983,
              25.51617
            ],
            [
              108.24991,
              25.36033
            ],
            [
              108.23819,
              25.21367
            ],
            [
              108.23851826374194,
              25.030473364745117
            ],
            [
              108.17605860591453,
              24.88868175546931
            ],
            [
              108.05851639855703,
              24.805108115010714
            ],
            [
              107.81551059812516,
              24.690881504253543
            ],
            [
              107.61115809658692,
              24.724765016072187
            ],
            [
              107.50309,
              24.7427
            ],
            [
              107.45143194813011,
              24.68259942625147
            ],
            [
              107.49721971833257,
              24.536685251825126
            ],
            [
              107.54503,
              24.42544
            ],
            [
              107.57205,
              24.27684
            ],
            [
              107.25806484362482,
              24.435426211222588
            ],
            [
              106.9432,
              24.60433
            ],
            [
              106.82014653845046,
              24.57123496724633
            ],
            [
              106.49448346448847,
              24.27374084826687
            ],
            [
              106.44083910738624,
              24.166809995865414
            ],
            [
              106.41733,
              24.01649
            ],
            [
              106.44273726077627,
              23.888445238369183
            ],
            [
              106.5792,
              23.90307
            ],
            [
              106.69458,
              23.79306
            ],
            [
              106.69386,
              23.7014
            ],
            [
              106.89328,
              23.52721
            ],
            [
              106.87034,
              23.29805
            ],
            [
              106.80635,
              23.22473
            ],
            [
              106.74287,
              23.21557
            ],
            [
              106.72123,
              23.15141
            ],
            [
              106.64674,
              23.08725
            ],
            [
              106.54099,
              23.0781
            ],
            [
              106.48829,
              23.09644
            ],
            [
              106.30827,
              23.05063
            ],
            [
              106.12926,
              23.13315
            ],
            [
              105.87555,
              23.12401
            ],
            [
              105.68605,
              23.2157
            ],
            [
              105.58058,
              23.24321
            ],
            [
              105.47613,
              23.39905
            ],
            [
              105.3813,
              23.43573
            ],
            [
              105.31826,
              23.48157
            ],
            [
              105.19122,
              23.45409
            ],
            [
              104.98992,
              23.38995
            ],
            [
              104.88358,
              23.30746
            ],
            [
              104.88221,
              23.1333
            ],
            [
              104.81837,
              23.07831
            ],
            [
              104.61714,
              23.02334
            ],
            [
              104.43632,
              22.87669
            ],
            [
              104.32007,
              22.87671
            ],
            [
              104.1732,
              23.01422
            ],
            [
              104.1732,
              23.01422
            ],
            [
              104.07715,
              22.89507
            ],
            [
              104.07715,
              22.89507
            ],
            [
              104.06585,
              22.80341
            ],
            [
              103.9803,
              22.67509
            ],
            [
              103.86426,
              22.7026
            ],
            [
              103.65456,
              22.91346
            ],
            [
              103.59122,
              22.92263
            ],
            [
              103.59122,
              22.92263
            ],
            [
              103.5053,
              22.74848
            ],
            [
              103.5053,
              22.74848
            ],
            [
              103.58833,
              22.55597
            ],
            [
              103.58975433054142,
              22.545514929068847
            ],
            [
              103.59832,
              22.48264
            ],
            [
              103.59745,
              22.37264
            ],
            [
              103.59716,
              22.33598
            ],
            [
              103.70176,
              22.19847
            ],
            [
              103.77422,
              22.00596
            ],
            [
              103.6149,
              21.90515
            ],
            [
              103.4765,
              21.77684
            ],
            [
              103.2967,
              21.75853
            ],
            [
              102.76206,
              22.30858
            ],
            [
              102.39412,
              22.55612
            ],
            [
              102.18211,
              22.47365
            ],
            [
              102.16104,
              22.48282
            ],
            [
              101.70393,
              22.14371
            ],
            [
              101.78703,
              21.96037
            ],
            [
              101.73274,
              21.77705
            ],
            [
              101.69952,
              21.58456
            ],
            [
              101.82583,
              21.52038
            ],
            [
              101.80405,
              21.43788
            ],
            [
              101.64531,
              21.4104
            ],
            [
              101.45573,
              21.49293
            ],
            [
              101.26507,
              21.43795
            ],
            [
              101.12869,
              21.5663
            ],
            [
              101.17212,
              21.71296
            ],
            [
              101.06868,
              21.99713
            ],
            [
              100.89952,
              21.98798
            ],
            [
              100.66499,
              21.73135
            ],
            [
              100.44284,
              21.70388
            ],
            [
              100.17885,
              21.73141
            ],
            [
              99.91653,
              21.96977
            ],
            [
              99.90697,
              22.0981
            ],
            [
              99.93976,
              22.2356
            ],
            [
              99.81345,
              22.29978
            ],
            [
              99.40157,
              22.33649
            ],
            [
              99.08482,
              22.3732
            ],
            [
              98.80946,
              22.2999
            ],
            [
              98.61938,
              22.31826
            ],
            [
              98.48337,
              22.49244
            ],
            [
              98.53751,
              22.65743
            ],
            [
              98.44435,
              22.90493
            ],
            [
              98.44522,
              23.01493
            ],
            [
              98.55126,
              23.06075
            ],
            [
              98.53041,
              23.09742
            ],
            [
              98.46715,
              23.11576
            ],
            [
              98.38332,
              23.20743
            ],
            [
              98.4683,
              23.26242
            ],
            [
              98.35292,
              23.37243
            ],
            [
              98.35307,
              23.39076
            ],
            [
              98.6497,
              23.48239
            ],
            [
              98.66077,
              23.54656
            ],
            [
              98.57673,
              23.61073
            ],
            [
              98.58824,
              23.72989
            ],
            [
              98.49428,
              23.87657
            ],
            [
              98.42045,
              23.89491
            ],
            [
              98.35769,
              23.97742
            ],
            [
              98.34835,
              24.13325
            ],
            [
              98.42305,
              24.2249
            ],
            [
              98.16927,
              24.2066
            ],
            [
              97.92562,
              24.1333
            ],
            [
              97.54257,
              23.80335
            ],
            [
              97.34155,
              23.77588
            ],
            [
              97.34155,
              23.77588
            ],
            [
              97.34155,
              23.77588
            ],
            [
              97.34155,
              23.77588
            ],
            [
              97.34155,
              23.77588
            ],
            [
              97.34155,
              23.77588
            ],
            [
              97.34155,
              23.77588
            ]
          ]
        ]
      }
    },
    {
      "type": "Feature",
      "properties": {
        "kind": "commandery_seat",
        "name": "永昌郡/不韦",
        "role": "commandery"
      },
      "geometry": {
        "type": "Point",
        "coordinates": [
          99.2242,
          25.30645
        ]
      }
    },
    {
      "type": "Feature",
      "properties": {
        "kind": "commandery_seat",
        "name": "益州郡/滇池",
        "role": "commandery"
      },
      "geometry": {
        "type": "Point",
        "coordinates": [
          102.7291,
          24.82936
        ]
      }
    },
    {
      "type": "Feature",
      "properties": {
        "kind": "commandery_seat",
        "name": "牂柯郡/故且兰",
        "role": "commandery"
      },
      "geometry": {
        "type": "Point",
        "coordinates": [
          107.5634,
          26.75372
        ]
      }
    },
    {
      "type": "Feature",
      "properties": {
        "kind": "commandery_seat",
        "name": "犍为属国/朱提",
        "role": "commandery"
      },
      "geometry": {
        "type": "Point",
        "coordinates": [
          103.70019,
          27.35918
        ]
      }
    },
    {
      "type": "Feature",
      "properties": {
        "kind": "commandery_seat",
        "name": "越巂郡/邛都",
        "role": "commandery"
      },
      "geometry": {
        "type": "Point",
        "coordinates": [
          102.29881,
          27.89101
        ]
      }
    },
    {
      "type": "Feature",
      "properties": {
        "kind": "commandery_seat",
        "name": "蜀郡属国/汉嘉",
        "role": "commandery"
      },
      "geometry": {
        "type": "Point",
        "coordinates": [
          103.14157,
          30.22835
        ]
      }
    },
    {
      "type": "Feature",
      "properties": {
        "kind": "commandery_seat",
        "name": "犍为郡/武阳",
        "role": "commandery"
      },
      "geometry": {
        "type": "Point",
        "coordinates": [
          103.94447,
          30.19159
        ]
      }
    },
    {
      "type": "Feature",
      "properties": {
        "kind": "commandery_seat",
        "name": "巴郡/江州",
        "role": "commandery"
      },
      "geometry": {
        "type": "Point",
        "coordinates": [
          106.56062,
          29.58628
        ]
      }
    },
    {
      "type": "Feature",
      "properties": {
        "kind": "commandery_seat",
        "name": "蜀郡/成都",
        "role": "capital"
      },
      "geometry": {
        "type": "Point",
        "coordinates": [
          104.11732,
          30.66822
        ]
      }
    },
    {
      "type": "Feature",
      "properties": {
        "kind": "commandery_seat",
        "name": "广汉郡/雒县",
        "role": "commandery"
      },
      "geometry": {
        "type": "Point",
        "coordinates": [
          104.33158,
          31.03485
        ]
      }
    },
    {
      "type": "Feature",
      "properties": {
        "kind": "commandery_seat",
        "name": "广汉属国/阴平道",
        "role": "commandery"
      },
      "geometry": {
        "type": "Point",
        "coordinates": [
          104.6958,
          32.99643
        ]
      }
    },
    {
      "type": "Feature",
      "properties": {
        "kind": "commandery_seat",
        "name": "汉中郡/南郑",
        "role": "commandery"
      },
      "geometry": {
        "type": "Point",
        "coordinates": [
          107.07481,
          33.1428
        ]
      }
    }
  ]
}