{
 "type": "FeatureCollection",
 "metadata": {
  "state": "荆州",
  "color": "#AB47BC",
  "gcps": 15,
  "max_err_km": 7.3,
  "avg_err_km": 2.5,
  "verified": true
 },
 "pixels": {
  "gcps": [
   {
    "px": 1415,
    "py": 509,
    "lon": 114.305,
    "lat": 30.593,
    "name": "武汉"
   },
   {
    "px": 1177,
    "py": 548,
    "lon": 112.239,
    "lat": 30.326,
    "name": "荆州"
   },
   {
    "px": 1268,
    "py": 821,
    "lon": 112.938,
    "lat": 28.228,
    "name": "长沙"
   },
   {
    "px": 1166,
    "py": 320,
    "lon": 112.142,
    "lat": 32.041,
    "name": "襄阳"
   },
   {
    "px": 980,
    "py": 703,
    "lon": 110.479,
    "lat": 29.117,
    "name": "张家界"
   },
   {
    "px": 1218,
    "py": 989,
    "lon": 112.607,
    "lat": 26.893,
    "name": "衡阳"
   },
   {
    "px": 1281,
    "py": 672,
    "lon": 113.132,
    "lat": 29.359,
    "name": "岳阳"
   },
   {
    "px": 925,
    "py": 903,
    "lon": 110,
    "lat": 27.55,
    "name": "怀化"
   },
   {
    "px": 1092,
    "py": 946,
    "lon": 111.471,
    "lat": 27.238,
    "name": "邵阳"
   },
   {
    "px": 1193,
    "py": 776,
    "lon": 112.355,
    "lat": 28.554,
    "name": "益阳"
   },
   {
    "px": 1176,
    "py": 450,
    "lon": 112.204,
    "lat": 31.035,
    "name": "荆门"
   },
   {
    "px": 1215,
    "py": 186,
    "lon": 112.538,
    "lat": 32.999,
    "name": "南阳"
   },
   {
    "px": 1281,
    "py": 870,
    "lon": 113.132,
    "lat": 27.832,
    "name": "株洲"
   },
   {
    "px": 1261,
    "py": 869,
    "lon": 112.944,
    "lat": 27.829,
    "name": "湘潭"
   },
   {
    "px": 1119,
    "py": 712,
    "lon": 111.699,
    "lat": 29.031,
    "name": "常德"
   }
  ],
  "bnd": [
   [
    828,
    64
   ],
   [
    819,
    69
   ],
   [
    831,
    83
   ],
   [
    836,
    103
   ],
   [
    842,
    122
   ],
   [
    851,
    129
   ],
   [
    853,
    142
   ],
   [
    863,
    152
   ],
   [
    881,
    155
   ],
   [
    899,
    159
   ],
   [
    912,
    157
   ],
   [
    931,
    162
   ],
   [
    943,
    162
   ],
   [
    948,
    167
   ],
   [
    964,
    167
   ],
   [
    982,
    164
   ],
   [
    988,
    156
   ],
   [
    996,
    175
   ],
   [
    1007,
    187
   ],
   [
    1020,
    189
   ],
   [
    1030,
    197
   ],
   [
    1055,
    200
   ],
   [
    1051,
    206
   ],
   [
    1043,
    216
   ],
   [
    1033,
    225
   ],
   [
    1022,
    239
   ],
   [
    1002,
    248
   ],
   [
    994,
    255
   ],
   [
    991,
    262
   ],
   [
    994,
    266
   ],
   [
    1022,
    276
   ],
   [
    1035,
    275
   ],
   [
    1045,
    278
   ],
   [
    1056,
    286
   ],
   [
    1064,
    305
   ],
   [
    1073,
    309
   ],
   [
    1087,
    308
   ],
   [
    1102,
    313
   ],
   [
    1120,
    323
   ],
   [
    1130,
    323
   ],
   [
    1142,
    317
   ],
   [
    1147,
    322
   ],
   [
    1146,
    328
   ],
   [
    1143,
    333
   ],
   [
    1136,
    334
   ],
   [
    1123,
    339
   ],
   [
    1103,
    339
   ],
   [
    1095,
    341
   ],
   [
    1082,
    348
   ],
   [
    1075,
    357
   ],
   [
    1071,
    373
   ],
   [
    1066,
    385
   ],
   [
    1055,
    390
   ],
   [
    1042,
    385
   ],
   [
    1030,
    385
   ],
   [
    1014,
    383
   ],
   [
    1000,
    383
   ],
   [
    987,
    384
   ],
   [
    973,
    387
   ],
   [
    960,
    384
   ],
   [
    950,
    375
   ],
   [
    936,
    371
   ],
   [
    920,
    361
   ],
   [
    904,
    360
   ],
   [
    895,
    369
   ],
   [
    895,
    379
   ],
   [
    894,
    396
   ],
   [
    897,
    409
   ],
   [
    895,
    423
   ],
   [
    894,
    437
   ],
   [
    890,
    447
   ],
   [
    884,
    458
   ],
   [
    887,
    479
   ],
   [
    883,
    489
   ],
   [
    878,
    493
   ],
   [
    877,
    498
   ],
   [
    870,
    498
   ],
   [
    861,
    507
   ],
   [
    854,
    521
   ],
   [
    850,
    508
   ],
   [
    848,
    502
   ],
   [
    828,
    514
   ],
   [
    829,
    503
   ],
   [
    823,
    501
   ],
   [
    810,
    503
   ],
   [
    797,
    510
   ],
   [
    789,
    516
   ],
   [
    783,
    516
   ],
   [
    778,
    505
   ],
   [
    770,
    507
   ],
   [
    765,
    518
   ],
   [
    751,
    522
   ],
   [
    743,
    523
   ],
   [
    738,
    535
   ],
   [
    741,
    541
   ],
   [
    747,
    543
   ],
   [
    751,
    548
   ],
   [
    759,
    548
   ],
   [
    757,
    561
   ],
   [
    756,
    575
   ],
   [
    758,
    583
   ],
   [
    756,
    593
   ],
   [
    751,
    604
   ],
   [
    743,
    606
   ],
   [
    740,
    611
   ],
   [
    745,
    614
   ],
   [
    745,
    622
   ],
   [
    756,
    626
   ],
   [
    761,
    617
   ],
   [
    764,
    610
   ],
   [
    770,
    610
   ],
   [
    776,
    630
   ],
   [
    785,
    635
   ],
   [
    797,
    637
   ],
   [
    793,
    656
   ],
   [
    801,
    666
   ],
   [
    799,
    676
   ],
   [
    803,
    679
   ],
   [
    817,
    676
   ],
   [
    815,
    689
   ],
   [
    815,
    702
   ],
   [
    810,
    716
   ],
   [
    804,
    724
   ],
   [
    803,
    736
   ],
   [
    809,
    757
   ],
   [
    806,
    772
   ],
   [
    800,
    785
   ],
   [
    787,
    786
   ],
   [
    773,
    769
   ],
   [
    765,
    770
   ],
   [
    755,
    765
   ],
   [
    745,
    765
   ],
   [
    735,
    757
   ],
   [
    745,
    743
   ],
   [
    740,
    739
   ],
   [
    740,
    731
   ],
   [
    735,
    719
   ],
   [
    734,
    708
   ],
   [
    725,
    709
   ],
   [
    715,
    707
   ],
   [
    706,
    706
   ],
   [
    699,
    710
   ],
   [
    687,
    712
   ],
   [
    679,
    715
   ],
   [
    679,
    733
   ],
   [
    676,
    742
   ],
   [
    677,
    760
   ],
   [
    665,
    776
   ],
   [
    654,
    799
   ],
   [
    660,
    806
   ],
   [
    671,
    813
   ],
   [
    677,
    820
   ],
   [
    671,
    835
   ],
   [
    673,
    843
   ],
   [
    685,
    846
   ],
   [
    690,
    857
   ],
   [
    687,
    878
   ],
   [
    692,
    884
   ],
   [
    694,
    898
   ],
   [
    695,
    912
   ],
   [
    696,
    925
   ],
   [
    697,
    939
   ],
   [
    693,
    952
   ],
   [
    689,
    965
   ],
   [
    696,
    977
   ],
   [
    704,
    988
   ],
   [
    711,
    1000
   ],
   [
    716,
    1012
   ],
   [
    714,
    1026
   ],
   [
    714,
    1040
   ],
   [
    720,
    1053
   ],
   [
    727,
    1068
   ],
   [
    722,
    1081
   ],
   [
    719,
    1096
   ],
   [
    724,
    1110
   ],
   [
    733,
    1113
   ],
   [
    752,
    1109
   ],
   [
    762,
    1107
   ],
   [
    778,
    1116
   ],
   [
    798,
    1122
   ],
   [
    816,
    1132
   ],
   [
    823,
    1129
   ],
   [
    830,
    1137
   ],
   [
    835,
    1132
   ],
   [
    843,
    1141
   ],
   [
    853,
    1136
   ],
   [
    855,
    1122
   ],
   [
    858,
    1121
   ],
   [
    864,
    1112
   ],
   [
    860,
    1109
   ],
   [
    865,
    1101
   ],
   [
    874,
    1108
   ],
   [
    878,
    1102
   ],
   [
    887,
    1105
   ],
   [
    883,
    1116
   ],
   [
    887,
    1124
   ],
   [
    893,
    1133
   ],
   [
    895,
    1148
   ],
   [
    898,
    1161
   ],
   [
    902,
    1174
   ],
   [
    906,
    1188
   ],
   [
    907,
    1200
   ],
   [
    908,
    1213
   ],
   [
    905,
    1227
   ],
   [
    901,
    1234
   ],
   [
    903,
    1251
   ],
   [
    910,
    1262
   ],
   [
    920,
    1265
   ],
   [
    932,
    1271
   ],
   [
    945,
    1271
   ],
   [
    958,
    1269
   ],
   [
    970,
    1266
   ],
   [
    985,
    1264
   ],
   [
    999,
    1253
   ],
   [
    1014,
    1248
   ],
   [
    1028,
    1251
   ],
   [
    1043,
    1242
   ],
   [
    1040,
    1230
   ],
   [
    1038,
    1216
   ],
   [
    1056,
    1203
   ],
   [
    1055,
    1194
   ],
   [
    1060,
    1181
   ],
   [
    1074,
    1179
   ],
   [
    1086,
    1188
   ],
   [
    1098,
    1192
   ],
   [
    1110,
    1201
   ],
   [
    1122,
    1204
   ],
   [
    1136,
    1207
   ],
   [
    1155,
    1203
   ],
   [
    1154,
    1215
   ],
   [
    1159,
    1222
   ],
   [
    1167,
    1223
   ],
   [
    1164,
    1234
   ],
   [
    1170,
    1242
   ],
   [
    1170,
    1251
   ],
   [
    1160,
    1251
   ],
   [
    1158,
    1258
   ],
   [
    1149,
    1265
   ],
   [
    1143,
    1275
   ],
   [
    1151,
    1287
   ],
   [
    1151,
    1299
   ],
   [
    1158,
    1310
   ],
   [
    1153,
    1319
   ],
   [
    1156,
    1326
   ],
   [
    1171,
    1318
   ],
   [
    1182,
    1307
   ],
   [
    1188,
    1308
   ],
   [
    1195,
    1315
   ],
   [
    1204,
    1321
   ],
   [
    1219,
    1322
   ],
   [
    1229,
    1330
   ],
   [
    1241,
    1338
   ],
   [
    1245,
    1350
   ],
   [
    1257,
    1356
   ],
   [
    1276,
    1350
   ],
   [
    1289,
    1348
   ],
   [
    1302,
    1350
   ],
   [
    1314,
    1363
   ],
   [
    1327,
    1365
   ],
   [
    1336,
    1366
   ],
   [
    1354,
    1360
   ],
   [
    1367,
    1353
   ],
   [
    1388,
    1351
   ],
   [
    1403,
    1332
   ],
   [
    1405,
    1318
   ],
   [
    1406,
    1299
   ],
   [
    1396,
    1288
   ],
   [
    1397,
    1278
   ],
   [
    1404,
    1274
   ],
   [
    1389,
    1266
   ],
   [
    1375,
    1262
   ],
   [
    1373,
    1251
   ],
   [
    1379,
    1237
   ],
   [
    1379,
    1225
   ],
   [
    1380,
    1214
   ],
   [
    1382,
    1200
   ],
   [
    1383,
    1184
   ],
   [
    1374,
    1173
   ],
   [
    1378,
    1154
   ],
   [
    1370,
    1144
   ],
   [
    1369,
    1134
   ],
   [
    1375,
    1129
   ],
   [
    1376,
    1123
   ],
   [
    1381,
    1117
   ],
   [
    1382,
    1100
   ],
   [
    1388,
    1093
   ],
   [
    1410,
    1083
   ],
   [
    1403,
    1073
   ],
   [
    1375,
    1081
   ],
   [
    1374,
    1076
   ],
   [
    1381,
    1073
   ],
   [
    1380,
    1058
   ],
   [
    1394,
    1045
   ],
   [
    1389,
    1035
   ],
   [
    1396,
    1029
   ],
   [
    1383,
    1022
   ],
   [
    1365,
    1022
   ],
   [
    1362,
    1014
   ],
   [
    1364,
    1000
   ],
   [
    1369,
    989
   ],
   [
    1379,
    981
   ],
   [
    1391,
    975
   ],
   [
    1404,
    971
   ],
   [
    1415,
    964
   ],
   [
    1426,
    955
   ],
   [
    1437,
    942
   ],
   [
    1435,
    927
   ],
   [
    1424,
    916
   ],
   [
    1415,
    909
   ],
   [
    1398,
    925
   ],
   [
    1385,
    925
   ],
   [
    1371,
    924
   ],
   [
    1359,
    918
   ],
   [
    1347,
    911
   ],
   [
    1336,
    903
   ],
   [
    1336,
    891
   ],
   [
    1339,
    878
   ],
   [
    1351,
    868
   ],
   [
    1347,
    852
   ],
   [
    1364,
    844
   ],
   [
    1383,
    841
   ],
   [
    1379,
    833
   ],
   [
    1379,
    821
   ],
   [
    1392,
    821
   ],
   [
    1407,
    801
   ],
   [
    1398,
    793
   ],
   [
    1399,
    785
   ],
   [
    1391,
    776
   ],
   [
    1395,
    765
   ],
   [
    1394,
    757
   ],
   [
    1397,
    747
   ],
   [
    1384,
    738
   ],
   [
    1383,
    726
   ],
   [
    1376,
    712
   ],
   [
    1374,
    704
   ],
   [
    1391,
    690
   ],
   [
    1409,
    687
   ],
   [
    1408,
    678
   ],
   [
    1415,
    670
   ],
   [
    1425,
    676
   ],
   [
    1431,
    674
   ],
   [
    1435,
    676
   ],
   [
    1466,
    667
   ],
   [
    1472,
    668
   ],
   [
    1481,
    647
   ],
   [
    1487,
    652
   ],
   [
    1494,
    642
   ],
   [
    1509,
    643
   ],
   [
    1504,
    629
   ],
   [
    1515,
    629
   ],
   [
    1533,
    635
   ],
   [
    1543,
    627
   ],
   [
    1545,
    608
   ],
   [
    1552,
    599
   ],
   [
    1561,
    588
   ],
   [
    1567,
    577
   ],
   [
    1577,
    559
   ],
   [
    1569,
    550
   ],
   [
    1566,
    536
   ],
   [
    1563,
    523
   ],
   [
    1565,
    513
   ],
   [
    1554,
    503
   ],
   [
    1532,
    502
   ],
   [
    1530,
    492
   ],
   [
    1532,
    476
   ],
   [
    1524,
    464
   ],
   [
    1517,
    453
   ],
   [
    1509,
    441
   ],
   [
    1501,
    430
   ],
   [
    1495,
    418
   ],
   [
    1498,
    405
   ],
   [
    1503,
    391
   ],
   [
    1506,
    379
   ],
   [
    1498,
    365
   ],
   [
    1494,
    351
   ],
   [
    1491,
    338
   ],
   [
    1488,
    320
   ],
   [
    1481,
    312
   ],
   [
    1474,
    301
   ],
   [
    1466,
    282
   ],
   [
    1456,
    283
   ],
   [
    1442,
    286
   ],
   [
    1429,
    287
   ],
   [
    1420,
    275
   ],
   [
    1397,
    264
   ],
   [
    1394,
    272
   ],
   [
    1394,
    281
   ],
   [
    1377,
    291
   ],
   [
    1367,
    284
   ],
   [
    1367,
    266
   ],
   [
    1377,
    257
   ],
   [
    1369,
    251
   ],
   [
    1356,
    218
   ],
   [
    1336,
    197
   ],
   [
    1329,
    185
   ],
   [
    1327,
    173
   ],
   [
    1319,
    163
   ],
   [
    1312,
    153
   ],
   [
    1309,
    132
   ],
   [
    1305,
    113
   ],
   [
    1294,
    110
   ],
   [
    1291,
    98
   ],
   [
    1288,
    94
   ],
   [
    1265,
    93
   ],
   [
    1264,
    76
   ],
   [
    1259,
    69
   ],
   [
    1243,
    62
   ],
   [
    1237,
    54
   ],
   [
    1222,
    47
   ],
   [
    1206,
    45
   ],
   [
    1189,
    28
   ],
   [
    1180,
    28
   ],
   [
    1171,
    38
   ],
   [
    1164,
    52
   ],
   [
    1153,
    59
   ],
   [
    1148,
    66
   ],
   [
    1146,
    84
   ],
   [
    1153,
    104
   ],
   [
    1149,
    114
   ],
   [
    1137,
    117
   ],
   [
    1122,
    117
   ],
   [
    1108,
    118
   ],
   [
    1094,
    118
   ],
   [
    1084,
    116
   ],
   [
    1067,
    122
   ],
   [
    1053,
    123
   ],
   [
    1041,
    129
   ],
   [
    1031,
    140
   ],
   [
    1026,
    141
   ],
   [
    1028,
    135
   ],
   [
    1023,
    134
   ],
   [
    1022,
    129
   ],
   [
    1017,
    125
   ],
   [
    998,
    122
   ],
   [
    984,
    120
   ],
   [
    971,
    119
   ],
   [
    956,
    104
   ],
   [
    943,
    102
   ],
   [
    930,
    88
   ],
   [
    920,
    87
   ],
   [
    907,
    78
   ],
   [
    894,
    78
   ],
   [
    890,
    74
   ],
   [
    873,
    74
   ],
   [
    867,
    67
   ],
   [
    860,
    67
   ],
   [
    852,
    72
   ],
   [
    846,
    72
   ],
   [
    837,
    65
   ],
   [
    828,
    64
   ]
  ],
  "seats": [
   {
    "px": 1173,
    "py": 542,
    "name": "南郡/江陵",
    "role": "capital"
   },
   {
    "px": 1468,
    "py": 474,
    "name": "江夏/西陵",
    "role": "commandery"
   },
   {
    "px": 1215,
    "py": 184,
    "name": "南阳郡/宛县",
    "role": "commandery"
   },
   {
    "px": 1121,
    "py": 710,
    "name": "武陵郡/临沅",
    "role": "commandery"
   },
   {
    "px": 1267,
    "py": 820,
    "name": "长沙郡/临湘",
    "role": "commandery"
   },
   {
    "px": 1110,
    "py": 1071,
    "name": "零陵郡/泉陵",
    "role": "commandery"
   },
   {
    "px": 1270,
    "py": 1129,
    "name": "桂阳郡/郴县",
    "role": "commandery"
   }
  ]
 },
 "features": [
  {
   "type": "Feature",
   "properties": {
    "kind": "state_boundary",
    "state": "荆州"
   },
   "geometry": {
    "type": "Polygon",
    "coordinates": [
     [
      [
       109.16509,
       33.96482
      ],
      [
       109.08622,
       33.92631
      ],
      [
       109.19113,
       33.81998
      ],
      [
       109.28697,
       33.52286
      ],
      [
       109.3657,
       33.46982
      ],
      [
       109.38305,
       33.37071
      ],
      [
       109.4705,
       33.29482
      ],
      [
       109.78566,
       33.24286
      ],
      [
       109.89953,
       33.25864
      ],
      [
       110.06585,
       33.22126
      ],
      [
       110.17093,
       33.22175
      ],
      [
       110.21465,
       33.1838
      ],
      [
       110.5144481184255,
       33.210421001085
      ],
      [
       110.56506,
       33.26934
      ],
      [
       110.63489,
       33.1247
      ],
      [
       110.73106,
       33.03358
      ],
      [
       110.84488,
       33.01885
      ],
      [
       110.93235,
       32.95821
      ],
      [
       111.15124,
       32.93633
      ],
      [
       111.04893330213383,
       32.817016606947334
      ],
      [
       110.95828,
       32.7447
      ],
      [
       110.86178,
       32.63744
      ],
      [
       110.68653,
       32.56797
      ],
      [
       110.61639,
       32.51424
      ],
      [
       110.59257751169172,
       32.4642701636605
      ],
      [
       110.63967693143208,
       32.444391774645105
      ],
      [
       110.86132,
       32.35515
      ],
      [
       111.01561468097482,
       32.380233741598396
      ],
      [
       111.11139420673109,
       32.35525133187473
      ],
      [
       111.20034,
       32.29898
      ],
      [
       111.26213021572785,
       32.15339331822004
      ],
      [
       111.36675964278339,
       32.11605473387139
      ],
      [
       111.46230181553472,
       32.12469654703375
      ],
      [
       111.57007232671234,
       32.09674517362961
      ],
      [
       111.76976053254872,
       32.023712166011805
      ],
      [
       111.84806280963241,
       32.006699208285056
      ],
      [
       111.93462159027771,
       32.02723011319672
      ],
      [
       112.00128,
       32.01472
      ],
      [
       112.00093934282286,
       31.97135244881026
      ],
      [
       111.96109855467819,
       31.93458891481444
      ],
      [
       111.88322131753263,
       31.922599516689218
      ],
      [
       111.79622915653421,
       31.886410512670473
      ],
      [
       111.60897655774023,
       31.886348049771723
      ],
      [
       111.4185727191047,
       31.82232109050737
      ],
      [
       111.39365272490828,
       31.776768068846767
      ],
      [
       111.34367614582658,
       31.685224239137955
      ],
      [
       111.31073,
       31.55648
      ],
      [
       111.28998422478008,
       31.51223714851888
      ],
      [
       111.20497262540785,
       31.501538129549537
      ],
      [
       111.07816,
       31.54734
      ],
      [
       110.90413918861489,
       31.5384903354139
      ],
      [
       110.75576530880065,
       31.54947269637812
      ],
      [
       110.6651358950933,
       31.556435638327333
      ],
      [
       110.53974230512736,
       31.539741414286933
      ],
      [
       110.38058,
       31.53826
      ],
      [
       110.32817375219295,
       31.56761888370018
      ],
      [
       110.23636990917277,
       31.61904897959988
      ],
      [
       110.13174360577833,
       31.662866126242868
      ],
      [
       110.01088539838727,
       31.71261706338944
      ],
      [
       109.86426,
       31.73082
      ],
      [
       109.77906,
       31.64834
      ],
      [
       109.77285991855847,
       31.561087670573542
      ],
      [
       109.76363495039759,
       31.43126680152328
      ],
      [
       109.75694602443865,
       31.337135074902907
      ],
      [
       109.74739,
       31.22847
      ],
      [
       109.71882044909405,
       31.124922307635217
      ],
      [
       109.6971751815538,
       31.046362829310134
      ],
      [
       109.67874805983722,
       30.978314785351074
      ],
      [
       109.69764434585912,
       30.7640270057213
      ],
      [
       109.63806703096805,
       30.716077276607585
      ],
      [
       109.61335428028077,
       30.67753845147426
      ],
      [
       109.56011,
       30.68588
      ],
      [
       109.52755,
       30.65523
      ],
      [
       109.45650085243635,
       30.596642349645627
      ],
      [
       109.4225686884791,
       30.5134821239238
      ],
      [
       109.39006490581019,
       30.56609148133763
      ],
      [
       109.35895,
       30.64008
      ],
      [
       109.19162265563462,
       30.55877235676177
      ],
      [
       109.18978,
       30.63093
      ],
      [
       109.13716,
       30.65844
      ],
      [
       109.05254,
       30.64928
      ],
      [
       108.88814,
       30.56073
      ],
      [
       108.8434228829613,
       30.54092298468292
      ],
      [
       108.77872731019441,
       30.53931971182618
      ],
      [
       108.72451091040439,
       30.612637655693582
      ],
      [
       108.67165996418096,
       30.60332197326677
      ],
      [
       108.65008,
       30.53933
      ],
      [
       108.458675490396,
       30.4834012957035
      ],
      [
       108.39579203076774,
       30.400722092163015
      ],
      [
       108.41541326564102,
       30.34858837631613
      ],
      [
       108.46883,
       30.33769
      ],
      [
       108.50017,
       30.29186
      ],
      [
       108.56366,
       30.30102
      ],
      [
       108.55143887476954,
       30.1078643738477
      ],
      [
       108.54074008752318,
       30.054370437615837
      ],
      [
       108.57136962019992,
       30.008480223555768
      ],
      [
       108.5300006930514,
       29.953721096179525
      ],
      [
       108.5287,
       29.88853
      ],
      [
       108.47974987510663,
       29.854754137425356
      ],
      [
       108.43337,
       29.86104
      ],
      [
       108.40298094076338,
       29.8176121676079
      ],
      [
       108.44327932304228,
       29.787762748843022
      ],
      [
       108.45833488340809,
       29.72247200282341
      ],
      [
       108.53782,
       29.7052
      ],
      [
       108.60169625085624,
       29.760371254281235
      ],
      [
       108.61266,
       29.81519
      ],
      [
       108.70681570478772,
       29.730859754172105
      ],
      [
       108.69605,
       29.66851
      ],
      [
       108.89511279519033,
       29.613717280730125
      ],
      [
       108.85132,
       29.44664
      ],
      [
       108.92125,
       29.37067
      ],
      [
       108.90362,
       29.29429
      ],
      [
       108.93861,
       29.27156
      ],
      [
       109.06124,
       29.29501
      ],
      [
       109.04357,
       29.19575
      ],
      [
       109.04341,
       29.09656
      ],
      [
       108.99945,
       28.98954
      ],
      [
       108.97890420516828,
       28.923883372489623
      ],
      [
       108.9537363433121,
       28.841761427759966
      ],
      [
       109.00506029188355,
       28.6868958624078
      ],
      [
       108.96373,
       28.56212
      ],
      [
       108.91103,
       28.46269
      ],
      [
       108.79718,
       28.45454
      ],
      [
       108.67479,
       28.58368
      ],
      [
       108.60473,
       28.57573
      ],
      [
       108.51722,
       28.61347
      ],
      [
       108.42965,
       28.61307
      ],
      [
       108.34218,
       28.6737
      ],
      [
       108.42992,
       28.78092
      ],
      [
       108.38619,
       28.81124
      ],
      [
       108.38628,
       28.87228
      ],
      [
       108.34265,
       28.96363
      ],
      [
       108.33403,
       29.04752
      ],
      [
       108.2552,
       29.03953
      ],
      [
       108.16766,
       29.05438
      ],
      [
       108.08886,
       29.06165
      ],
      [
       108.02751,
       29.03085
      ],
      [
       107.9224,
       29.01511
      ],
      [
       107.85231,
       28.99189
      ],
      [
       107.85209,
       28.85456
      ],
      [
       107.82571,
       28.78577
      ],
      [
       107.83424,
       28.64848
      ],
      [
       107.72896,
       28.52592
      ],
      [
       107.63235,
       28.34999
      ],
      [
       107.68481,
       28.29683
      ],
      [
       107.78105,
       28.24386
      ],
      [
       107.8335,
       28.1907
      ],
      [
       107.78078,
       28.07601
      ],
      [
       107.79819,
       28.01505
      ],
      [
       107.90324,
       27.99265
      ],
      [
       107.94689,
       27.90892
      ],
      [
       107.92036,
       27.74858
      ],
      [
       107.96407,
       27.703
      ],
      [
       107.98141,
       27.59627
      ],
      [
       107.99,
       27.48949
      ],
      [
       107.99859,
       27.39035
      ],
      [
       108.00718,
       27.28357
      ],
      [
       107.97199,
       27.18423
      ],
      [
       107.9368,
       27.08488
      ],
      [
       107.99796,
       26.9936
      ],
      [
       108.06788,
       26.91
      ],
      [
       108.12903,
       26.81873
      ],
      [
       108.15527296385743,
       26.752058231423167
      ],
      [
       108.15498,
       26.62048
      ],
      [
       108.15481,
       26.51366
      ],
      [
       108.20719,
       26.41472
      ],
      [
       108.2683,
       26.30055
      ],
      [
       108.1931653827374,
       26.193343852856547
      ],
      [
       108.1979,
       26.0866
      ],
      [
       108.24151,
       25.97999
      ],
      [
       108.32029,
       25.95746
      ],
      [
       108.48672,
       25.98874
      ],
      [
       108.57079637831423,
       26.003781407103368
      ],
      [
       109.10821,
       25.83901
      ],
      [
       109.21326,
       25.81661
      ],
      [
       109.37083,
       25.78681
      ],
      [
       109.4148,
       25.90146
      ],
      [
       109.43246,
       25.9931
      ],
      [
       109.47635,
       26.05434
      ],
      [
       109.59017,
       26.04723
      ],
      [
       109.63379,
       25.94062
      ],
      [
       109.73848,
       25.69695
      ],
      [
       109.76459,
       25.59789
      ],
      [
       109.79945,
       25.49886
      ],
      [
       109.84774,
       25.36961
      ],
      [
       109.84292,
       25.30069
      ],
      [
       109.85152,
       25.20155
      ],
      [
       109.82507,
       25.09461
      ],
      [
       109.86843,
       24.82777
      ],
      [
       110.06097,
       24.75999
      ],
      [
       110.17481,
       24.76052
      ],
      [
       110.28867,
       24.7763
      ],
      [
       110.39379,
       24.79967
      ],
      [
       110.52517,
       24.81554
      ],
      [
       110.6479,
       24.90003
      ],
      [
       110.79105,
       24.88656
      ],
      [
       110.90461,
       24.83742
      ],
      [
       111.00084,
       24.86184
      ],
      [
       111.06233,
       24.99252
      ],
      [
       110.98988,
       25.1839
      ],
      [
       111.14766,
       25.28381
      ],
      [
       111.18296,
       25.45182
      ],
      [
       111.30558,
       25.46765
      ],
      [
       111.41055,
       25.39946
      ],
      [
       111.62056,
       25.30124
      ],
      [
       111.7256,
       25.27884
      ],
      [
       112.01459,
       25.2878
      ],
      [
       112.00569,
       25.1962
      ],
      [
       112.11943,
       25.13569
      ],
      [
       112.18137,
       24.91788
      ],
      [
       112.16376,
       24.8607
      ],
      [
       112.16376,
       24.8607
      ],
      [
       112.08501,
       24.83626
      ],
      [
       112.04114,
       24.76276
      ],
      [
       111.94479,
       24.68113
      ],
      [
       111.99650118651854,
       24.473942301996786
      ],
      [
       112.07501,
       24.23974
      ],
      [
       112.20637,
       24.33767
      ],
      [
       112.34629,
       24.3457
      ],
      [
       112.39461515292487,
       24.313350136912288
      ],
      [
       112.46853,
       24.26387
      ],
      [
       112.66958,
       24.23915
      ],
      [
       112.66958,
       24.23915
      ],
      [
       112.80055,
       24.14914
      ],
      [
       112.90592,
       24.12457
      ],
      [
       112.90592,
       24.12457
      ],
      [
       113.07237,
       24.17111
      ],
      [
       113.18624,
       24.1869
      ],
      [
       113.30005,
       24.17216
      ],
      [
       113.40497,
       24.07346
      ],
      [
       113.51879,
       24.05872
      ],
      [
       113.59759,
       24.05146
      ],
      [
       113.75529,
       24.09796
      ],
      [
       113.86921,
       24.15189
      ],
      [
       114.05313,
       24.168
      ],
      [
       114.18472,
       24.31357
      ],
      [
       114.2024,
       24.42046
      ],
      [
       114.2114,
       24.56547
      ],
      [
       114.12396,
       24.64899
      ],
      [
       114.13284,
       24.72533
      ],
      [
       114.19419,
       24.75613
      ],
      [
       114.06293,
       24.81656
      ],
      [
       113.94039,
       24.84652
      ],
      [
       113.92301,
       24.93036
      ],
      [
       113.97572,
       25.03742
      ],
      [
       113.97587,
       25.12897
      ],
      [
       113.98476,
       25.21294
      ],
      [
       114.00245,
       25.31984
      ],
      [
       114.0114,
       25.44195
      ],
      [
       113.93272,
       25.52552
      ],
      [
       113.96798,
       25.67064
      ],
      [
       113.89805,
       25.74662
      ],
      [
       113.94202,
       25.86126
      ],
      [
       113.94202,
       25.86126
      ],
      [
       113.96683189158684,
       25.90448891720766
      ],
      [
       113.99471,
       25.95306
      ],
      [
       114.00368,
       26.0828
      ],
      [
       114.0563,
       26.13645
      ],
      [
       114.24908,
       26.21364
      ],
      [
       114.1879,
       26.28965
      ],
      [
       113.94677,
       26.23645
      ],
      [
       113.95442,
       26.28305
      ],
      [
       114.0083,
       26.32955
      ],
      [
       113.99279,
       26.42284
      ],
      [
       114.10944,
       26.50292
      ],
      [
       114.06577,
       26.57902
      ],
      [
       114.12715,
       26.62508
      ],
      [
       114.01339,
       26.67796
      ],
      [
       113.85577,
       26.67723
      ],
      [
       113.8296,
       26.73815
      ],
      [
       113.84728,
       26.84505
      ],
      [
       113.8912,
       26.92917
      ],
      [
       113.97887,
       26.99062
      ],
      [
       114.08403,
       27.03688
      ],
      [
       114.19791,
       27.06792
      ],
      [
       114.29433,
       27.12177
      ],
      [
       114.39076,
       27.19088
      ],
      [
       114.48725,
       27.29051
      ],
      [
       114.46992,
       27.40487
      ],
      [
       114.37373,
       27.48836
      ],
      [
       114.295,
       27.5414
      ],
      [
       114.14594,
       27.41864
      ],
      [
       114.0321,
       27.41812
      ],
      [
       113.90951,
       27.42518
      ],
      [
       113.80451,
       27.47048
      ],
      [
       113.69951,
       27.5234
      ],
      [
       113.60328,
       27.584
      ],
      [
       113.60343,
       27.67555
      ],
      [
       113.62986,
       27.77486
      ],
      [
       113.73506,
       27.85164
      ],
      [
       113.70023,
       27.97355
      ],
      [
       113.8492,
       28.03528
      ],
      [
       114.01562,
       28.05893
      ],
      [
       113.98069,
       28.11981
      ],
      [
       113.98084,
       28.21136
      ],
      [
       114.09468,
       28.21189
      ],
      [
       114.22628,
       28.36509
      ],
      [
       114.14756,
       28.42576
      ],
      [
       114.15642,
       28.48684
      ],
      [
       114.08647,
       28.55518
      ],
      [
       114.12163,
       28.63927
      ],
      [
       114.11298,
       28.70027
      ],
      [
       114.13937,
       28.77668
      ],
      [
       114.02564,
       28.84483
      ],
      [
       114.01703,
       28.93634
      ],
      [
       113.95591,
       29.04288
      ],
      [
       113.93849,
       29.10383
      ],
      [
       114.08753,
       29.21133
      ],
      [
       114.24519,
       29.23495
      ],
      [
       114.23654,
       29.30358
      ],
      [
       114.29794,
       29.3649
      ],
      [
       114.38544,
       29.31952
      ],
      [
       114.438,
       29.33502
      ],
      [
       114.47301,
       29.31992
      ],
      [
       114.74458,
       29.38984
      ],
      [
       114.79711,
       29.38245
      ],
      [
       114.87618,
       29.54304
      ],
      [
       114.92866,
       29.50513
      ],
      [
       114.99008,
       29.58171
      ],
      [
       115.12142,
       29.57469
      ],
      [
       115.07781,
       29.6813
      ],
      [
       115.17413,
       29.68174
      ],
      [
       115.33169,
       29.63669
      ],
      [
       115.41935,
       29.69813
      ],
      [
       115.4371,
       29.84317
      ],
      [
       115.49851,
       29.91212
      ],
      [
       115.57746,
       29.99641
      ],
      [
       115.63013,
       30.08058
      ],
      [
       115.71792,
       30.21832
      ],
      [
       115.64798,
       30.28666
      ],
      [
       115.62188,
       30.39336
      ],
      [
       115.59577,
       30.49242
      ],
      [
       115.61341,
       30.5688
      ],
      [
       115.5172,
       30.64465
      ],
      [
       115.32456,
       30.6514
      ],
      [
       115.30717,
       30.72761
      ],
      [
       115.32488,
       30.84977
      ],
      [
       115.25498,
       30.941
      ],
      [
       115.19381,
       31.02465
      ],
      [
       115.1239,
       31.11588
      ],
      [
       115.05398,
       31.19948
      ],
      [
       115.00159,
       31.2908
      ],
      [
       115.02802,
       31.3901
      ],
      [
       115.07198,
       31.49712
      ],
      [
       115.0984,
       31.5888
      ],
      [
       115.02851,
       31.69529
      ],
      [
       114.99366,
       31.80195
      ],
      [
       114.96755,
       31.90101
      ],
      [
       114.9415,
       32.03822
      ],
      [
       114.81913,
       32.18262
      ],
      [
       114.7446,
       32.3005
      ],
      [
       114.6483,
       32.3029
      ],
      [
       114.4443,
       32.265
      ],
      [
       114.3437,
       32.3557
      ],
      [
       114.1663,
       32.4293
      ],
      [
       114.1318,
       32.3668
      ],
      [
       114.1283,
       32.3013
      ],
      [
       113.986,
       32.2214
      ],
      [
       113.901,
       32.2926
      ],
      [
       113.916,
       32.4073
      ],
      [
       113.985,
       32.4734
      ],
      [
       113.9078,
       32.5185
      ],
      [
       113.8028,
       32.763
      ],
      [
       113.77792971325242,
       32.787829448838316
      ],
      [
       113.65753229468365,
       32.90802917049647
      ],
      [
       113.5592,
       33.0062
      ],
      [
       113.5472,
       33.1075
      ],
      [
       113.4815,
       33.1658
      ],
      [
       113.4196,
       33.234
      ],
      [
       113.3882,
       33.3973
      ],
      [
       113.353,
       33.5312
      ],
      [
       113.2681,
       33.55
      ],
      [
       113.2447,
       33.6447
      ],
      [
       113.206,
       33.6706
      ],
      [
       113.0558,
       33.6659
      ],
      [
       113.0095,
       33.6916
      ],
      [
       112.9819,
       33.8419
      ],
      [
       112.76106,
       33.98676
      ],
      [
       112.76106,
       33.98676
      ],
      [
       112.60859,
       34.04715
      ],
      [
       112.48163,
       34.05679
      ],
      [
       112.32476,
       34.18158
      ],
      [
       112.2359,
       34.1846
      ],
      [
       112.18079102032061,
       34.118555839676965
      ],
      [
       112.08829,
       34.0077
      ],
      [
       112.00382,
       33.9531
      ],
      [
       111.97008,
       33.91228
      ],
      [
       111.95774,
       33.78001
      ],
      [
       112.00467,
       33.63781
      ],
      [
       111.97945,
       33.57329
      ],
      [
       111.90761,
       33.54248
      ],
      [
       111.77120234724832,
       33.54191139053215
      ],
      [
       111.67491,
       33.54151
      ],
      [
       111.52596129880125,
       33.54089253992958
      ],
      [
       111.39991,
       33.54037
      ],
      [
       111.28153,
       33.50598
      ],
      [
       111.13467,
       33.52374
      ],
      [
       111.01935,
       33.45404
      ],
      [
       110.98987,
       33.40645
      ],
      [
       110.93919,
       33.37234
      ],
      [
       110.90957,
       33.37221
      ],
      [
       110.90099,
       33.41625
      ],
      [
       110.85865,
       33.42625
      ],
      [
       110.85859,
       33.44998
      ],
      [
       110.82042,
       33.48372
      ],
      [
       110.53591655024441,
       33.51987749264638
      ],
      [
       110.39719,
       33.53621
      ],
      [
       110.28548,
       33.66479
      ],
      [
       110.17167,
       33.67953
      ],
      [
       110.058,
       33.78582
      ],
      [
       109.97044,
       33.79304
      ],
      [
       109.85671,
       33.86119
      ],
      [
       109.74287,
       33.86066
      ],
      [
       109.7079,
       33.89102
      ],
      [
       109.55903,
       33.89034
      ],
      [
       109.50657,
       33.9435
      ],
      [
       109.44528,
       33.94322
      ],
      [
       109.37516,
       33.90475
      ],
      [
       109.32262,
       33.90451
      ],
      [
       109.24389,
       33.95755
      ],
      [
       109.16509,
       33.96482
      ],
      [
       109.16509,
       33.96482
      ],
      [
       109.16509,
       33.96482
      ],
      [
       109.16509,
       33.96482
      ],
      [
       109.16509,
       33.96482
      ],
      [
       109.16509,
       33.96482
      ]
     ]
    ]
   }
  },
  {
   "type": "Feature",
   "properties": {
    "kind": "commandery_seat",
    "name": "南郡/江陵",
    "role": "capital"
   },
   "geometry": {
    "type": "Point",
    "coordinates": [
     112.18034,
     30.33174
    ]
   }
  },
  {
   "type": "Feature",
   "properties": {
    "kind": "commandery_seat",
    "name": "江夏/西陵",
    "role": "commandery"
   },
   "geometry": {
    "type": "Point",
    "coordinates": [
     114.76447,
     30.86245
    ]
   }
  },
  {
   "type": "Feature",
   "properties": {
    "kind": "commandery_seat",
    "name": "南阳郡/宛县",
    "role": "commandery"
   },
   "geometry": {
    "type": "Point",
    "coordinates": [
     112.55254,
     33.06486
    ]
   }
  },
  {
   "type": "Feature",
   "properties": {
    "kind": "commandery_seat",
    "name": "武陵郡/临沅",
    "role": "commandery"
   },
   "geometry": {
    "type": "Point",
    "coordinates": [
     111.72292,
     29.04786
    ]
   }
  },
  {
   "type": "Feature",
   "properties": {
    "kind": "commandery_seat",
    "name": "长沙郡/临湘",
    "role": "commandery"
   },
   "geometry": {
    "type": "Point",
    "coordinates": [
     113.00008,
     28.21448
    ]
   }
  },
  {
   "type": "Feature",
   "properties": {
    "kind": "commandery_seat",
    "name": "零陵郡/泉陵",
    "role": "commandery"
   },
   "geometry": {
    "type": "Point",
    "coordinates": [
     111.62216,
     26.2931
    ]
   }
  },
  {
   "type": "Feature",
   "properties": {
    "kind": "commandery_seat",
    "name": "桂阳郡/郴县",
    "role": "commandery"
   },
   "geometry": {
    "type": "Point",
    "coordinates": [
     113.02255,
     25.85703
    ]
   }
  }
 ]
}