{
  "type": "FeatureCollection",
  "metadata": {
    "state": "豫州",
    "color": "#5E35B1",
    "gcps": 15,
    "max_err_km": 0.0,
    "avg_err_km": 0.0,
    "verified": false
  },
  "pixels": {
    "gcps": [
      {
        "px": 1118.1,
        "py": 712.4,
        "lon": 115.79,
        "lat": 33.87,
        "name": "谯/亳州"
      },
      {
        "px": 896.2,
        "py": 520.6,
        "lon": 114.62,
        "lat": 33.03,
        "name": "汝南/平舆"
      },
      {
        "px": 674.4,
        "py": 776.4,
        "lon": 113.45,
        "lat": 34.15,
        "name": "颍川/禹州"
      },
      {
        "px": 943.6,
        "py": 682.7,
        "lon": 114.87,
        "lat": 33.74,
        "name": "陈/淮阳"
      },
      {
        "px": 1091.5,
        "py": 835.7,
        "lon": 115.65,
        "lat": 34.41,
        "name": "梁/商丘"
      },
      {
        "px": 1336.2,
        "py": 810.6,
        "lon": 116.94,
        "lat": 34.3,
        "name": "沛/沛县"
      },
      {
        "px": 1345.6,
        "py": 1102.9,
        "lon": 116.99,
        "lat": 35.58,
        "name": "鲁/曲阜"
      },
      {
        "px": 974.0,
        "py": 315.1,
        "lon": 115.03,
        "lat": 32.13,
        "name": "弋阳/潢川"
      },
      {
        "px": 1125.7,
        "py": 324.2,
        "lon": 115.83,
        "lat": 32.17,
        "name": "安丰/固始"
      },
      {
        "px": 687.6,
        "py": 710.1,
        "lon": 113.52,
        "lat": 33.86,
        "name": "襄城/襄城"
      },
      {
        "px": 784.3,
        "py": 648.5,
        "lon": 114.03,
        "lat": 33.59,
        "name": "郾/漯河"
      },
      {
        "px": 1061.2,
        "py": 710.1,
        "lon": 115.49,
        "lat": 33.86,
        "name": "苦/鹿邑"
      },
      {
        "px": 917.1,
        "py": 365.3,
        "lon": 114.73,
        "lat": 32.35,
        "name": "新息/息县"
      },
      {
        "px": 674.4,
        "py": 776.4,
        "lon": 113.45,
        "lat": 34.15,
        "name": "阳翟/禹州"
      },
      {
        "px": 1118.1,
        "py": 712.4,
        "lon": 115.79,
        "lat": 33.87,
        "name": "城父/亳州"
      }
    ],
    "bnd": [
      [
        1562,
        115
      ],
      [
        1481,
        82
      ],
      [
        1433,
        38
      ],
      [
        1410,
        33
      ],
      [
        1399,
        123
      ],
      [
        1417,
        122
      ],
      [
        1418,
        138
      ],
      [
        1401,
        146
      ],
      [
        1427,
        164
      ],
      [
        1427,
        185
      ],
      [
        1407,
        236
      ],
      [
        1413,
        277
      ],
      [
        1390,
        296
      ],
      [
        1381,
        348
      ],
      [
        1321,
        341
      ],
      [
        1276,
        353
      ],
      [
        1260,
        401
      ],
      [
        1272,
        449
      ],
      [
        1254,
        466
      ],
      [
        1164,
        440
      ],
      [
        1077,
        446
      ],
      [
        1068,
        360
      ],
      [
        1037,
        367
      ],
      [
        1021,
        380
      ],
      [
        1022,
        435
      ],
      [
        965,
        454
      ],
      [
        960,
        488
      ],
      [
        987,
        518
      ],
      [
        989,
        535
      ],
      [
        972,
        590
      ],
      [
        958,
        596
      ],
      [
        927,
        587
      ],
      [
        888,
        549
      ],
      [
        860,
        546
      ],
      [
        829,
        576
      ],
      [
        744,
        624
      ],
      [
        717,
        551
      ],
      [
        664,
        511
      ],
      [
        602,
        513
      ],
      [
        568,
        533
      ],
      [
        533,
        526
      ],
      [
        526,
        512
      ],
      [
        494,
        516
      ],
      [
        472,
        416
      ],
      [
        500,
        424
      ],
      [
        498,
        408
      ],
      [
        458,
        407
      ],
      [
        441,
        439
      ],
      [
        423,
        429
      ],
      [
        421,
        443
      ],
      [
        347,
        484
      ],
      [
        335,
        484
      ],
      [
        329,
        468
      ],
      [
        329,
        484
      ],
      [
        310,
        491
      ],
      [
        307,
        509
      ],
      [
        358,
        572
      ],
      [
        358,
        597
      ],
      [
        337,
        639
      ],
      [
        352,
        640
      ],
      [
        351,
        660
      ],
      [
        382,
        672
      ],
      [
        391,
        719
      ],
      [
        442,
        726
      ],
      [
        458,
        762
      ],
      [
        484,
        775
      ],
      [
        498,
        860
      ],
      [
        529,
        898
      ],
      [
        535,
        934
      ],
      [
        591,
        996
      ],
      [
        622,
        1077
      ],
      [
        637,
        1088
      ],
      [
        624,
        1115
      ],
      [
        627,
        1160
      ],
      [
        644,
        1168
      ],
      [
        673,
        1149
      ],
      [
        684,
        1110
      ],
      [
        734,
        1129
      ],
      [
        760,
        1156
      ],
      [
        840,
        1146
      ],
      [
        890,
        1234
      ],
      [
        975,
        1257
      ],
      [
        1073,
        1082
      ],
      [
        1123,
        1075
      ],
      [
        1129,
        1055
      ],
      [
        1162,
        1045
      ],
      [
        1204,
        1090
      ],
      [
        1231,
        1071
      ],
      [
        1267,
        1089
      ],
      [
        1265,
        1008
      ],
      [
        1284,
        980
      ],
      [
        1315,
        980
      ],
      [
        1314,
        1004
      ],
      [
        1332,
        1011
      ],
      [
        1325,
        980
      ],
      [
        1392,
        955
      ],
      [
        1473,
        902
      ],
      [
        1489,
        903
      ],
      [
        1489,
        926
      ],
      [
        1516,
        927
      ],
      [
        1519,
        900
      ],
      [
        1532,
        899
      ],
      [
        1583,
        944
      ],
      [
        1590,
        919
      ],
      [
        1607,
        906
      ],
      [
        1657,
        901
      ],
      [
        1666,
        867
      ],
      [
        1629,
        850
      ],
      [
        1625,
        821
      ],
      [
        1604,
        796
      ],
      [
        1605,
        760
      ],
      [
        1575,
        753
      ],
      [
        1546,
        698
      ],
      [
        1519,
        689
      ],
      [
        1417,
        694
      ],
      [
        1416,
        684
      ],
      [
        1394,
        676
      ],
      [
        1399,
        646
      ],
      [
        1389,
        645
      ],
      [
        1404,
        600
      ],
      [
        1421,
        607
      ],
      [
        1427,
        589
      ],
      [
        1447,
        589
      ],
      [
        1446,
        632
      ],
      [
        1459,
        585
      ],
      [
        1521,
        589
      ],
      [
        1525,
        573
      ],
      [
        1539,
        574
      ],
      [
        1539,
        591
      ],
      [
        1529,
        592
      ],
      [
        1536,
        612
      ],
      [
        1570,
        619
      ],
      [
        1578,
        633
      ],
      [
        1594,
        613
      ],
      [
        1553,
        600
      ],
      [
        1560,
        558
      ],
      [
        1637,
        551
      ],
      [
        1637,
        535
      ],
      [
        1515,
        543
      ],
      [
        1514,
        528
      ],
      [
        1499,
        524
      ],
      [
        1506,
        492
      ],
      [
        1544,
        497
      ],
      [
        1544,
        484
      ],
      [
        1525,
        469
      ],
      [
        1515,
        410
      ],
      [
        1498,
        408
      ],
      [
        1503,
        379
      ],
      [
        1483,
        367
      ],
      [
        1493,
        328
      ],
      [
        1481,
        267
      ],
      [
        1505,
        240
      ],
      [
        1543,
        248
      ],
      [
        1554,
        241
      ],
      [
        1567,
        186
      ]
    ],
    "seats": [
      {
        "px": 1118.1,
        "py": 712.4,
        "name": "谯/亳州",
        "role": "commandery"
      },
      {
        "px": 896.2,
        "py": 520.6,
        "name": "汝南/平舆",
        "role": "commandery"
      },
      {
        "px": 674.4,
        "py": 776.4,
        "name": "颍川/禹州",
        "role": "commandery"
      },
      {
        "px": 943.6,
        "py": 682.7,
        "name": "陈/淮阳",
        "role": "commandery"
      },
      {
        "px": 1091.5,
        "py": 835.7,
        "name": "梁/商丘",
        "role": "commandery"
      },
      {
        "px": 1336.2,
        "py": 810.6,
        "name": "沛/沛县",
        "role": "commandery"
      },
      {
        "px": 1345.6,
        "py": 1102.9,
        "name": "鲁/曲阜",
        "role": "commandery"
      },
      {
        "px": 974.0,
        "py": 315.1,
        "name": "弋阳/潢川",
        "role": "commandery"
      },
      {
        "px": 1125.7,
        "py": 324.2,
        "name": "安丰/固始",
        "role": "commandery"
      },
      {
        "px": 687.6,
        "py": 710.1,
        "name": "襄城/襄城",
        "role": "commandery"
      },
      {
        "px": 784.3,
        "py": 648.5,
        "name": "郾/漯河",
        "role": "commandery"
      },
      {
        "px": 1061.2,
        "py": 710.1,
        "name": "苦/鹿邑",
        "role": "commandery"
      },
      {
        "px": 917.1,
        "py": 365.3,
        "name": "新息/息县",
        "role": "commandery"
      },
      {
        "px": 674.4,
        "py": 776.4,
        "name": "阳翟/禹州",
        "role": "commandery"
      },
      {
        "px": 1118.1,
        "py": 712.4,
        "name": "城父/亳州",
        "role": "commandery"
      }
    ]
  },
  "features": [
    {
      "type": "Feature",
      "properties": {
        "kind": "state_boundary",
        "state": "豫州",
        "color": "#5E35B1"
      },
      "geometry": {
        "type": "Polygon",
        "coordinates": [
          [
            [
              118.13099,
              31.25363
            ],
            [
              117.70384,
              31.10911
            ],
            [
              117.45071,
              30.91642
            ],
            [
              117.32941,
              30.89452
            ],
            [
              117.27141,
              31.28867
            ],
            [
              117.36633,
              31.28429
            ],
            [
              117.3716,
              31.35436
            ],
            [
              117.28195,
              31.38939
            ],
            [
              117.41906,
              31.46822
            ],
            [
              117.41906,
              31.56019
            ],
            [
              117.31359,
              31.78354
            ],
            [
              117.34523,
              31.9631
            ],
            [
              117.22394,
              32.0463
            ],
            [
              117.17648,
              32.27403
            ],
            [
              116.86007,
              32.24338
            ],
            [
              116.62276,
              32.29593
            ],
            [
              116.53838,
              32.50614
            ],
            [
              116.60167,
              32.71635
            ],
            [
              116.50674,
              32.7908
            ],
            [
              116.03212,
              32.67694
            ],
            [
              115.57333,
              32.70322
            ],
            [
              115.52587,
              32.32659
            ],
            [
              115.36239,
              32.35724
            ],
            [
              115.27801,
              32.41417
            ],
            [
              115.28328,
              32.65504
            ],
            [
              114.98269,
              32.73825
            ],
            [
              114.95632,
              32.88715
            ],
            [
              115.09871,
              33.01853
            ],
            [
              115.10926,
              33.09298
            ],
            [
              115.01961,
              33.33385
            ],
            [
              114.94578,
              33.36013
            ],
            [
              114.7823,
              33.32071
            ],
            [
              114.57663,
              33.15429
            ],
            [
              114.42897,
              33.14116
            ],
            [
              114.26549,
              33.27254
            ],
            [
              113.81724,
              33.48275
            ],
            [
              113.67485,
              33.16305
            ],
            [
              113.39536,
              32.98788
            ],
            [
              113.0684,
              32.99664
            ],
            [
              112.8891,
              33.08422
            ],
            [
              112.70452,
              33.05357
            ],
            [
              112.66761,
              32.99226
            ],
            [
              112.49886,
              33.00977
            ],
            [
              112.38284,
              32.57183
            ],
            [
              112.5305,
              32.60687
            ],
            [
              112.51995,
              32.5368
            ],
            [
              112.30901,
              32.53242
            ],
            [
              112.21936,
              32.67256
            ],
            [
              112.12443,
              32.62877
            ],
            [
              112.11389,
              32.69008
            ],
            [
              111.72365,
              32.86963
            ],
            [
              111.66036,
              32.86963
            ],
            [
              111.62872,
              32.79956
            ],
            [
              111.62872,
              32.86963
            ],
            [
              111.52853,
              32.90029
            ],
            [
              111.5127,
              32.97912
            ],
            [
              111.78166,
              33.25502
            ],
            [
              111.78166,
              33.36451
            ],
            [
              111.67091,
              33.54844
            ],
            [
              111.75001,
              33.55282
            ],
            [
              111.74474,
              33.64041
            ],
            [
              111.90822,
              33.69296
            ],
            [
              111.95568,
              33.89879
            ],
            [
              112.22463,
              33.92945
            ],
            [
              112.30901,
              34.08711
            ],
            [
              112.44612,
              34.14404
            ],
            [
              112.51995,
              34.51629
            ],
            [
              112.68343,
              34.68271
            ],
            [
              112.71507,
              34.84037
            ],
            [
              113.01039,
              35.11189
            ],
            [
              113.17387,
              35.46662
            ],
            [
              113.25297,
              35.5148
            ],
            [
              113.18442,
              35.63304
            ],
            [
              113.20024,
              35.83011
            ],
            [
              113.28989,
              35.86515
            ],
            [
              113.44282,
              35.78194
            ],
            [
              113.50083,
              35.61114
            ],
            [
              113.7645,
              35.69435
            ],
            [
              113.90162,
              35.8126
            ],
            [
              114.3235,
              35.7688
            ],
            [
              114.58718,
              36.15419
            ],
            [
              115.03543,
              36.25492
            ],
            [
              115.55223,
              35.48852
            ],
            [
              115.81591,
              35.45786
            ],
            [
              115.84755,
              35.37028
            ],
            [
              116.02158,
              35.32648
            ],
            [
              116.24307,
              35.52355
            ],
            [
              116.38545,
              35.44035
            ],
            [
              116.5753,
              35.51917
            ],
            [
              116.56475,
              35.16444
            ],
            [
              116.66495,
              35.04182
            ],
            [
              116.82843,
              35.04182
            ],
            [
              116.82315,
              35.14693
            ],
            [
              116.91808,
              35.17758
            ],
            [
              116.88116,
              35.04182
            ],
            [
              117.23449,
              34.93233
            ],
            [
              117.66165,
              34.70023
            ],
            [
              117.74602,
              34.70461
            ],
            [
              117.74602,
              34.80533
            ],
            [
              117.88841,
              34.80971
            ],
            [
              117.90423,
              34.69147
            ],
            [
              117.97279,
              34.68709
            ],
            [
              118.24174,
              34.88416
            ],
            [
              118.27865,
              34.77468
            ],
            [
              118.3683,
              34.71774
            ],
            [
              118.63198,
              34.69585
            ],
            [
              118.67944,
              34.54695
            ],
            [
              118.48432,
              34.4725
            ],
            [
              118.46322,
              34.34549
            ],
            [
              118.35248,
              34.23601
            ],
            [
              118.35775,
              34.07835
            ],
            [
              118.19955,
              34.04769
            ],
            [
              118.04661,
              33.80683
            ],
            [
              117.90423,
              33.76741
            ],
            [
              117.36633,
              33.78931
            ],
            [
              117.36106,
              33.74551
            ],
            [
              117.24504,
              33.71048
            ],
            [
              117.27141,
              33.5791
            ],
            [
              117.21867,
              33.57472
            ],
            [
              117.29777,
              33.37764
            ],
            [
              117.38742,
              33.4083
            ],
            [
              117.41906,
              33.32947
            ],
            [
              117.52453,
              33.32947
            ],
            [
              117.51926,
              33.51779
            ],
            [
              117.58782,
              33.31195
            ],
            [
              117.91478,
              33.32947
            ],
            [
              117.93587,
              33.2594
            ],
            [
              118.0097,
              33.26378
            ],
            [
              118.0097,
              33.33823
            ],
            [
              117.95696,
              33.34261
            ],
            [
              117.99388,
              33.4302
            ],
            [
              118.17318,
              33.46085
            ],
            [
              118.21537,
              33.52217
            ],
            [
              118.29974,
              33.43458
            ],
            [
              118.08353,
              33.37764
            ],
            [
              118.12044,
              33.19371
            ],
            [
              118.52651,
              33.16305
            ],
            [
              118.52651,
              33.09298
            ],
            [
              117.88314,
              33.12802
            ],
            [
              117.87786,
              33.06233
            ],
            [
              117.79876,
              33.04481
            ],
            [
              117.83567,
              32.90467
            ],
            [
              118.03607,
              32.92657
            ],
            [
              118.03607,
              32.86963
            ],
            [
              117.93587,
              32.80394
            ],
            [
              117.88314,
              32.54556
            ],
            [
              117.79349,
              32.5368
            ],
            [
              117.81985,
              32.4098
            ],
            [
              117.71438,
              32.35724
            ],
            [
              117.76712,
              32.18645
            ],
            [
              117.70384,
              31.9193
            ],
            [
              117.8304,
              31.80106
            ],
            [
              118.03079,
              31.83609
            ],
            [
              118.0888,
              31.80544
            ],
            [
              118.15736,
              31.56457
            ],
            [
              118.13099,
              31.25363
            ]
          ]
        ]
      }
    },
    {
      "type": "Feature",
      "properties": {
        "kind": "commandery_seat",
        "state": "豫州",
        "name": "谯/亳州",
        "role": "commandery"
      },
      "geometry": {
        "type": "Point",
        "coordinates": [
          115.79,
          33.87
        ]
      }
    },
    {
      "type": "Feature",
      "properties": {
        "kind": "commandery_seat",
        "state": "豫州",
        "name": "汝南/平舆",
        "role": "commandery"
      },
      "geometry": {
        "type": "Point",
        "coordinates": [
          115.79,
          33.87
        ]
      }
    },
    {
      "type": "Feature",
      "properties": {
        "kind": "commandery_seat",
        "state": "豫州",
        "name": "颍川/禹州",
        "role": "commandery"
      },
      "geometry": {
        "type": "Point",
        "coordinates": [
          115.79,
          33.87
        ]
      }
    },
    {
      "type": "Feature",
      "properties": {
        "kind": "commandery_seat",
        "state": "豫州",
        "name": "陈/淮阳",
        "role": "commandery"
      },
      "geometry": {
        "type": "Point",
        "coordinates": [
          115.79,
          33.87
        ]
      }
    },
    {
      "type": "Feature",
      "properties": {
        "kind": "commandery_seat",
        "state": "豫州",
        "name": "梁/商丘",
        "role": "commandery"
      },
      "geometry": {
        "type": "Point",
        "coordinates": [
          115.79,
          33.87
        ]
      }
    },
    {
      "type": "Feature",
      "properties": {
        "kind": "commandery_seat",
        "state": "豫州",
        "name": "沛/沛县",
        "role": "commandery"
      },
      "geometry": {
        "type": "Point",
        "coordinates": [
          115.79,
          33.87
        ]
      }
    },
    {
      "type": "Feature",
      "properties": {
        "kind": "commandery_seat",
        "state": "豫州",
        "name": "鲁/曲阜",
        "role": "commandery"
      },
      "geometry": {
        "type": "Point",
        "coordinates": [
          115.79,
          33.87
        ]
      }
    },
    {
      "type": "Feature",
      "properties": {
        "kind": "commandery_seat",
        "state": "豫州",
        "name": "弋阳/潢川",
        "role": "commandery"
      },
      "geometry": {
        "type": "Point",
        "coordinates": [
          115.79,
          33.87
        ]
      }
    },
    {
      "type": "Feature",
      "properties": {
        "kind": "commandery_seat",
        "state": "豫州",
        "name": "安丰/固始",
        "role": "commandery"
      },
      "geometry": {
        "type": "Point",
        "coordinates": [
          115.79,
          33.87
        ]
      }
    },
    {
      "type": "Feature",
      "properties": {
        "kind": "commandery_seat",
        "state": "豫州",
        "name": "襄城/襄城",
        "role": "commandery"
      },
      "geometry": {
        "type": "Point",
        "coordinates": [
          115.79,
          33.87
        ]
      }
    },
    {
      "type": "Feature",
      "properties": {
        "kind": "commandery_seat",
        "state": "豫州",
        "name": "郾/漯河",
        "role": "commandery"
      },
      "geometry": {
        "type": "Point",
        "coordinates": [
          115.79,
          33.87
        ]
      }
    },
    {
      "type": "Feature",
      "properties": {
        "kind": "commandery_seat",
        "state": "豫州",
        "name": "苦/鹿邑",
        "role": "commandery"
      },
      "geometry": {
        "type": "Point",
        "coordinates": [
          115.79,
          33.87
        ]
      }
    },
    {
      "type": "Feature",
      "properties": {
        "kind": "commandery_seat",
        "state": "豫州",
        "name": "新息/息县",
        "role": "commandery"
      },
      "geometry": {
        "type": "Point",
        "coordinates": [
          115.79,
          33.87
        ]
      }
    },
    {
      "type": "Feature",
      "properties": {
        "kind": "commandery_seat",
        "state": "豫州",
        "name": "阳翟/禹州",
        "role": "commandery"
      },
      "geometry": {
        "type": "Point",
        "coordinates": [
          115.79,
          33.87
        ]
      }
    },
    {
      "type": "Feature",
      "properties": {
        "kind": "commandery_seat",
        "state": "豫州",
        "name": "城父/亳州",
        "role": "commandery"
      },
      "geometry": {
        "type": "Point",
        "coordinates": [
          115.79,
          33.87
        ]
      }
    }
  ]
}