{
  "type": "FeatureCollection",
  "metadata": {
    "state": "青州",
    "color": "#880E4F",
    "gcps": 15,
    "max_err_km": 0.0,
    "avg_err_km": 0.0,
    "verified": false
  },
  "pixels": {
    "gcps": [
      {
        "px": 1277.9,
        "py": 655.7,
        "lon": 120.382,
        "lat": 36.067,
        "name": "青岛"
      },
      {
        "px": 1062.7,
        "py": 790.1,
        "lon": 119.107,
        "lat": 36.709,
        "name": "潍坊"
      },
      {
        "px": 885.1,
        "py": 811.9,
        "lon": 118.054,
        "lat": 36.813,
        "name": "淄博"
      },
      {
        "px": 707.2,
        "py": 778.0,
        "lon": 117.0,
        "lat": 36.651,
        "name": "济南"
      },
      {
        "px": 1448.3,
        "py": 964.0,
        "lon": 121.392,
        "lat": 37.539,
        "name": "烟台"
      },
      {
        "px": 935.8,
        "py": 454.0,
        "lon": 118.355,
        "lat": 35.104,
        "name": "临沂"
      },
      {
        "px": 1122.5,
        "py": 521.9,
        "lon": 119.461,
        "lat": 35.428,
        "name": "日照"
      },
      {
        "px": 989.8,
        "py": 942.0,
        "lon": 118.675,
        "lat": 37.434,
        "name": "东营"
      },
      {
        "px": 1571.1,
        "py": 957.9,
        "lon": 122.12,
        "lat": 37.51,
        "name": "威海"
      },
      {
        "px": 637.5,
        "py": 519.2,
        "lon": 116.587,
        "lat": 35.415,
        "name": "济宁"
      },
      {
        "px": 729.0,
        "py": 679.4,
        "lon": 117.129,
        "lat": 36.18,
        "name": "泰安"
      },
      {
        "px": 598.7,
        "py": 942.0,
        "lon": 116.357,
        "lat": 37.434,
        "name": "德州"
      },
      {
        "px": 878.6,
        "py": 931.3,
        "lon": 118.016,
        "lat": 37.383,
        "name": "滨州"
      },
      {
        "px": 535.1,
        "py": 737.2,
        "lon": 115.98,
        "lat": 36.456,
        "name": "聊城"
      },
      {
        "px": 448.9,
        "py": 481.0,
        "lon": 115.469,
        "lat": 35.233,
        "name": "菏泽"
      }
    ],
    "bnd": [
      [
        517,
        0
      ],
      [
        532,
        17
      ],
      [
        538,
        31
      ],
      [
        516,
        29
      ],
      [
        497,
        36
      ],
      [
        482,
        53
      ],
      [
        486,
        75
      ],
      [
        490,
        98
      ],
      [
        484,
        113
      ],
      [
        474,
        126
      ],
      [
        477,
        148
      ],
      [
        486,
        169
      ],
      [
        496,
        189
      ],
      [
        506,
        210
      ],
      [
        516,
        230
      ],
      [
        536,
        238
      ],
      [
        558,
        245
      ],
      [
        553,
        267
      ],
      [
        571,
        279
      ],
      [
        591,
        291
      ],
      [
        610,
        302
      ],
      [
        631,
        310
      ],
      [
        653,
        314
      ],
      [
        676,
        318
      ],
      [
        698,
        322
      ],
      [
        720,
        327
      ],
      [
        742,
        331
      ],
      [
        760,
        345
      ],
      [
        775,
        340
      ],
      [
        789,
        323
      ],
      [
        810,
        329
      ],
      [
        831,
        329
      ],
      [
        849,
        315
      ],
      [
        866,
        325
      ],
      [
        884,
        339
      ],
      [
        895,
        359
      ],
      [
        904,
        379
      ],
      [
        913,
        400
      ],
      [
        922,
        421
      ],
      [
        936,
        438
      ],
      [
        954,
        452
      ],
      [
        972,
        466
      ],
      [
        966,
        484
      ],
      [
        943,
        483
      ],
      [
        921,
        485
      ],
      [
        904,
        499
      ],
      [
        889,
        516
      ],
      [
        883,
        537
      ],
      [
        877,
        559
      ],
      [
        871,
        581
      ],
      [
        866,
        603
      ],
      [
        871,
        615
      ],
      [
        882,
        628
      ],
      [
        891,
        645
      ],
      [
        913,
        651
      ],
      [
        934,
        657
      ],
      [
        956,
        663
      ],
      [
        978,
        669
      ],
      [
        977,
        690
      ],
      [
        976,
        711
      ],
      [
        998,
        708
      ],
      [
        1021,
        705
      ],
      [
        1043,
        702
      ],
      [
        1063,
        702
      ],
      [
        1077,
        711
      ],
      [
        1099,
        703
      ],
      [
        1120,
        696
      ],
      [
        1134,
        678
      ],
      [
        1148,
        660
      ],
      [
        1161,
        642
      ],
      [
        1156,
        621
      ],
      [
        1155,
        602
      ],
      [
        1174,
        591
      ],
      [
        1194,
        580
      ],
      [
        1214,
        569
      ],
      [
        1233,
        557
      ],
      [
        1253,
        546
      ],
      [
        1268,
        530
      ],
      [
        1280,
        511
      ],
      [
        1291,
        492
      ],
      [
        1303,
        472
      ],
      [
        1324,
        463
      ],
      [
        1345,
        455
      ],
      [
        1366,
        446
      ],
      [
        1387,
        438
      ],
      [
        1408,
        429
      ],
      [
        1430,
        429
      ],
      [
        1453,
        431
      ],
      [
        1475,
        433
      ],
      [
        1487,
        451
      ],
      [
        1498,
        471
      ],
      [
        1520,
        476
      ],
      [
        1539,
        483
      ],
      [
        1545,
        505
      ],
      [
        1553,
        525
      ],
      [
        1575,
        525
      ],
      [
        1598,
        524
      ],
      [
        1617,
        533
      ],
      [
        1632,
        550
      ],
      [
        1648,
        566
      ],
      [
        1664,
        581
      ],
      [
        1686,
        577
      ],
      [
        1709,
        573
      ],
      [
        1731,
        570
      ],
      [
        1753,
        566
      ],
      [
        1776,
        562
      ],
      [
        1796,
        553
      ],
      [
        1817,
        543
      ],
      [
        1837,
        533
      ],
      [
        1852,
        548
      ],
      [
        1867,
        565
      ],
      [
        1881,
        582
      ],
      [
        1900,
        589
      ],
      [
        1923,
        588
      ],
      [
        1946,
        586
      ],
      [
        1968,
        585
      ],
      [
        1991,
        583
      ],
      [
        2005,
        590
      ],
      [
        1996,
        605
      ],
      [
        1975,
        612
      ],
      [
        1968,
        633
      ],
      [
        1969,
        655
      ],
      [
        1972,
        678
      ],
      [
        1957,
        688
      ],
      [
        1938,
        696
      ],
      [
        1930,
        717
      ],
      [
        1936,
        735
      ],
      [
        1953,
        749
      ],
      [
        1951,
        767
      ],
      [
        1940,
        787
      ],
      [
        1929,
        806
      ],
      [
        1908,
        808
      ],
      [
        1885,
        806
      ],
      [
        1863,
        805
      ],
      [
        1847,
        795
      ],
      [
        1839,
        773
      ],
      [
        1822,
        771
      ],
      [
        1802,
        778
      ],
      [
        1787,
        761
      ],
      [
        1768,
        774
      ],
      [
        1750,
        787
      ],
      [
        1731,
        800
      ],
      [
        1713,
        813
      ],
      [
        1694,
        827
      ],
      [
        1674,
        835
      ],
      [
        1651,
        834
      ],
      [
        1629,
        835
      ],
      [
        1609,
        846
      ],
      [
        1590,
        857
      ],
      [
        1570,
        867
      ],
      [
        1550,
        878
      ],
      [
        1530,
        889
      ],
      [
        1510,
        900
      ],
      [
        1489,
        901
      ],
      [
        1468,
        893
      ],
      [
        1458,
        891
      ],
      [
        1476,
        905
      ],
      [
        1484,
        922
      ],
      [
        1477,
        943
      ],
      [
        1469,
        964
      ],
      [
        1459,
        974
      ],
      [
        1444,
        957
      ],
      [
        1427,
        952
      ],
      [
        1413,
        967
      ],
      [
        1411,
        990
      ],
      [
        1409,
        1012
      ],
      [
        1407,
        1035
      ],
      [
        1405,
        1057
      ],
      [
        1396,
        1075
      ],
      [
        1375,
        1082
      ],
      [
        1353,
        1088
      ],
      [
        1331,
        1095
      ],
      [
        1310,
        1102
      ],
      [
        1292,
        1103
      ],
      [
        1293,
        1080
      ],
      [
        1293,
        1058
      ],
      [
        1294,
        1035
      ],
      [
        1285,
        1053
      ],
      [
        1264,
        1043
      ],
      [
        1245,
        1048
      ],
      [
        1234,
        1066
      ],
      [
        1236,
        1084
      ],
      [
        1257,
        1093
      ],
      [
        1263,
        1112
      ],
      [
        1283,
        1113
      ],
      [
        1285,
        1132
      ],
      [
        1265,
        1142
      ],
      [
        1244,
        1151
      ],
      [
        1223,
        1160
      ],
      [
        1212,
        1177
      ],
      [
        1206,
        1199
      ],
      [
        1195,
        1213
      ],
      [
        1173,
        1207
      ],
      [
        1170,
        1228
      ],
      [
        1167,
        1251
      ],
      [
        1148,
        1258
      ],
      [
        1126,
        1263
      ],
      [
        1104,
        1268
      ],
      [
        1087,
        1280
      ],
      [
        1076,
        1300
      ],
      [
        1065,
        1319
      ],
      [
        1054,
        1339
      ],
      [
        1043,
        1359
      ],
      [
        1032,
        1379
      ],
      [
        1012,
        1385
      ],
      [
        1010,
        1364
      ],
      [
        998,
        1361
      ],
      [
        984,
        1374
      ],
      [
        993,
        1391
      ],
      [
        1016,
        1392
      ],
      [
        1015,
        1414
      ],
      [
        1034,
        1417
      ],
      [
        1057,
        1417
      ],
      [
        1080,
        1417
      ],
      [
        1102,
        1417
      ],
      [
        1125,
        1417
      ],
      [
        1147,
        1417
      ],
      [
        1170,
        1417
      ],
      [
        1193,
        1417
      ],
      [
        1215,
        1417
      ],
      [
        1238,
        1417
      ],
      [
        1261,
        1417
      ],
      [
        1283,
        1417
      ],
      [
        1306,
        1417
      ],
      [
        1329,
        1417
      ],
      [
        1351,
        1417
      ],
      [
        1374,
        1417
      ],
      [
        1396,
        1417
      ],
      [
        1419,
        1417
      ],
      [
        1442,
        1417
      ],
      [
        1464,
        1417
      ],
      [
        1487,
        1417
      ],
      [
        1510,
        1417
      ],
      [
        1532,
        1417
      ],
      [
        1532,
        1395
      ],
      [
        1547,
        1388
      ],
      [
        1548,
        1410
      ],
      [
        1564,
        1417
      ],
      [
        1586,
        1417
      ],
      [
        1609,
        1417
      ],
      [
        1624,
        1409
      ],
      [
        1623,
        1387
      ],
      [
        1638,
        1396
      ],
      [
        1641,
        1417
      ],
      [
        1663,
        1417
      ],
      [
        1686,
        1417
      ],
      [
        1708,
        1417
      ],
      [
        1731,
        1417
      ],
      [
        1754,
        1417
      ],
      [
        1776,
        1417
      ],
      [
        1799,
        1417
      ],
      [
        1822,
        1417
      ],
      [
        1844,
        1417
      ],
      [
        1867,
        1417
      ],
      [
        1890,
        1417
      ],
      [
        1912,
        1417
      ],
      [
        1935,
        1417
      ],
      [
        1957,
        1417
      ],
      [
        1980,
        1417
      ],
      [
        2003,
        1417
      ],
      [
        2019,
        1411
      ],
      [
        2019,
        1388
      ],
      [
        2019,
        1365
      ],
      [
        2019,
        1343
      ],
      [
        2019,
        1320
      ],
      [
        2019,
        1297
      ],
      [
        2019,
        1275
      ],
      [
        2019,
        1252
      ],
      [
        2019,
        1230
      ],
      [
        2019,
        1207
      ],
      [
        2019,
        1184
      ],
      [
        2019,
        1162
      ],
      [
        2019,
        1139
      ],
      [
        2019,
        1116
      ],
      [
        2019,
        1094
      ],
      [
        2019,
        1071
      ],
      [
        2019,
        1048
      ],
      [
        2019,
        1026
      ],
      [
        2019,
        1003
      ],
      [
        2019,
        980
      ],
      [
        2019,
        958
      ],
      [
        2019,
        935
      ],
      [
        2019,
        913
      ],
      [
        2019,
        890
      ],
      [
        2019,
        867
      ],
      [
        2019,
        845
      ],
      [
        2019,
        822
      ],
      [
        2019,
        799
      ],
      [
        2019,
        777
      ],
      [
        2019,
        754
      ],
      [
        2019,
        731
      ],
      [
        2019,
        709
      ],
      [
        2019,
        686
      ],
      [
        2019,
        664
      ],
      [
        2019,
        641
      ],
      [
        2019,
        618
      ],
      [
        2019,
        596
      ],
      [
        2019,
        573
      ],
      [
        2019,
        550
      ],
      [
        2019,
        528
      ],
      [
        2019,
        505
      ],
      [
        2019,
        482
      ],
      [
        2019,
        460
      ],
      [
        2019,
        437
      ],
      [
        2019,
        415
      ],
      [
        2019,
        392
      ],
      [
        2019,
        369
      ],
      [
        2019,
        347
      ],
      [
        2019,
        324
      ],
      [
        2019,
        301
      ],
      [
        2019,
        279
      ],
      [
        2019,
        256
      ],
      [
        2019,
        233
      ],
      [
        2019,
        211
      ],
      [
        2019,
        188
      ],
      [
        2019,
        166
      ],
      [
        2019,
        143
      ],
      [
        2019,
        120
      ],
      [
        2019,
        98
      ],
      [
        2019,
        75
      ],
      [
        2019,
        52
      ],
      [
        2019,
        30
      ],
      [
        2019,
        7
      ],
      [
        2003,
        0
      ],
      [
        1981,
        0
      ],
      [
        1958,
        0
      ],
      [
        1936,
        0
      ],
      [
        1913,
        0
      ],
      [
        1890,
        0
      ],
      [
        1868,
        0
      ],
      [
        1845,
        0
      ],
      [
        1822,
        0
      ],
      [
        1800,
        0
      ],
      [
        1777,
        0
      ],
      [
        1754,
        0
      ],
      [
        1732,
        0
      ],
      [
        1709,
        0
      ],
      [
        1699,
        9
      ],
      [
        1705,
        31
      ],
      [
        1690,
        42
      ],
      [
        1668,
        50
      ],
      [
        1647,
        58
      ],
      [
        1626,
        66
      ],
      [
        1605,
        74
      ],
      [
        1584,
        81
      ],
      [
        1562,
        89
      ],
      [
        1541,
        97
      ],
      [
        1530,
        89
      ],
      [
        1528,
        67
      ],
      [
        1526,
        44
      ],
      [
        1525,
        22
      ],
      [
        1539,
        10
      ],
      [
        1560,
        4
      ],
      [
        1568,
        0
      ],
      [
        1545,
        0
      ],
      [
        1522,
        0
      ],
      [
        1500,
        0
      ],
      [
        1477,
        0
      ],
      [
        1454,
        0
      ],
      [
        1432,
        0
      ],
      [
        1409,
        0
      ],
      [
        1386,
        0
      ],
      [
        1364,
        0
      ],
      [
        1341,
        0
      ],
      [
        1319,
        0
      ],
      [
        1296,
        0
      ],
      [
        1273,
        0
      ],
      [
        1251,
        0
      ],
      [
        1228,
        0
      ],
      [
        1205,
        0
      ],
      [
        1183,
        0
      ],
      [
        1160,
        0
      ],
      [
        1137,
        0
      ],
      [
        1115,
        0
      ],
      [
        1092,
        0
      ],
      [
        1069,
        0
      ],
      [
        1047,
        0
      ],
      [
        1024,
        0
      ],
      [
        1002,
        0
      ],
      [
        979,
        0
      ],
      [
        956,
        0
      ],
      [
        934,
        0
      ],
      [
        911,
        0
      ],
      [
        888,
        0
      ],
      [
        866,
        0
      ],
      [
        843,
        0
      ],
      [
        820,
        0
      ],
      [
        798,
        0
      ],
      [
        775,
        0
      ],
      [
        759,
        11
      ],
      [
        743,
        0
      ],
      [
        721,
        0
      ],
      [
        698,
        0
      ],
      [
        675,
        0
      ],
      [
        653,
        0
      ],
      [
        630,
        0
      ],
      [
        608,
        0
      ],
      [
        585,
        0
      ],
      [
        562,
        0
      ],
      [
        540,
        0
      ]
    ],
    "seats": []
  },
  "features": [
    {
      "type": "Feature",
      "properties": {
        "kind": "state_boundary",
        "state": "青州",
        "color": "#880E4F"
      },
      "geometry": {
        "type": "Polygon",
        "coordinates": [
          [
            [
              115.87267,
              32.93594
            ],
            [
              115.96157,
              33.01711
            ],
            [
              115.99713,
              33.08397
            ],
            [
              115.86674,
              33.07442
            ],
            [
              115.75414,
              33.10784
            ],
            [
              115.66524,
              33.18902
            ],
            [
              115.68894,
              33.29407
            ],
            [
              115.71265,
              33.4039
            ],
            [
              115.67709,
              33.47553
            ],
            [
              115.61782,
              33.5376
            ],
            [
              115.6356,
              33.64266
            ],
            [
              115.68894,
              33.74293
            ],
            [
              115.74821,
              33.83844
            ],
            [
              115.80748,
              33.93871
            ],
            [
              115.86674,
              34.03422
            ],
            [
              115.98528,
              34.07242
            ],
            [
              116.11566,
              34.10584
            ],
            [
              116.08603,
              34.21089
            ],
            [
              116.19271,
              34.2682
            ],
            [
              116.31124,
              34.3255
            ],
            [
              116.42385,
              34.37802
            ],
            [
              116.54831,
              34.41623
            ],
            [
              116.67869,
              34.43533
            ],
            [
              116.815,
              34.45443
            ],
            [
              116.94539,
              34.47353
            ],
            [
              117.07578,
              34.4974
            ],
            [
              117.20616,
              34.5165
            ],
            [
              117.31284,
              34.58335
            ],
            [
              117.40174,
              34.55948
            ],
            [
              117.48471,
              34.4783
            ],
            [
              117.60917,
              34.50695
            ],
            [
              117.73363,
              34.50695
            ],
            [
              117.84031,
              34.4401
            ],
            [
              117.94106,
              34.48785
            ],
            [
              118.04774,
              34.5547
            ],
            [
              118.11294,
              34.65021
            ],
            [
              118.16628,
              34.74571
            ],
            [
              118.21962,
              34.84599
            ],
            [
              118.27296,
              34.94626
            ],
            [
              118.35593,
              35.02744
            ],
            [
              118.46261,
              35.09429
            ],
            [
              118.56929,
              35.16114
            ],
            [
              118.53373,
              35.2471
            ],
            [
              118.39742,
              35.24232
            ],
            [
              118.26703,
              35.25187
            ],
            [
              118.16628,
              35.31872
            ],
            [
              118.07738,
              35.3999
            ],
            [
              118.04182,
              35.50018
            ],
            [
              118.00626,
              35.60523
            ],
            [
              117.9707,
              35.71028
            ],
            [
              117.94106,
              35.81534
            ],
            [
              117.9707,
              35.87264
            ],
            [
              118.03589,
              35.93471
            ],
            [
              118.08923,
              36.01589
            ],
            [
              118.21962,
              36.04454
            ],
            [
              118.34408,
              36.07319
            ],
            [
              118.47446,
              36.10184
            ],
            [
              118.60485,
              36.1305
            ],
            [
              118.59892,
              36.23077
            ],
            [
              118.59299,
              36.33105
            ],
            [
              118.72338,
              36.31672
            ],
            [
              118.85969,
              36.3024
            ],
            [
              118.99008,
              36.28807
            ],
            [
              119.10861,
              36.28807
            ],
            [
              119.19158,
              36.33105
            ],
            [
              119.32197,
              36.29285
            ],
            [
              119.44643,
              36.25942
            ],
            [
              119.5294,
              36.17347
            ],
            [
              119.61238,
              36.08752
            ],
            [
              119.68942,
              36.00157
            ],
            [
              119.65979,
              35.90129
            ],
            [
              119.65386,
              35.81056
            ],
            [
              119.76647,
              35.75804
            ],
            [
              119.885,
              35.70551
            ],
            [
              120.00353,
              35.65298
            ],
            [
              120.11614,
              35.59568
            ],
            [
              120.23467,
              35.54315
            ],
            [
              120.32357,
              35.46675
            ],
            [
              120.39469,
              35.37603
            ],
            [
              120.45988,
              35.2853
            ],
            [
              120.531,
              35.1898
            ],
            [
              120.65546,
              35.14682
            ],
            [
              120.77992,
              35.10862
            ],
            [
              120.90438,
              35.06564
            ],
            [
              121.02884,
              35.02744
            ],
            [
              121.1533,
              34.98447
            ],
            [
              121.28369,
              34.98447
            ],
            [
              121.42,
              34.99402
            ],
            [
              121.55038,
              35.00357
            ],
            [
              121.6215,
              35.08952
            ],
            [
              121.6867,
              35.18502
            ],
            [
              121.81708,
              35.2089
            ],
            [
              121.92969,
              35.24232
            ],
            [
              121.96525,
              35.34737
            ],
            [
              122.01266,
              35.44288
            ],
            [
              122.14305,
              35.44288
            ],
            [
              122.27936,
              35.4381
            ],
            [
              122.39197,
              35.48108
            ],
            [
              122.48087,
              35.56226
            ],
            [
              122.57569,
              35.63866
            ],
            [
              122.67052,
              35.71028
            ],
            [
              122.8009,
              35.69118
            ],
            [
              122.93722,
              35.67208
            ],
            [
              123.0676,
              35.65776
            ],
            [
              123.19799,
              35.63866
            ],
            [
              123.3343,
              35.61956
            ],
            [
              123.45283,
              35.57658
            ],
            [
              123.57729,
              35.52883
            ],
            [
              123.69583,
              35.48108
            ],
            [
              123.78473,
              35.5527
            ],
            [
              123.87363,
              35.63388
            ],
            [
              123.9566,
              35.71506
            ],
            [
              124.0692,
              35.74849
            ],
            [
              124.20552,
              35.74371
            ],
            [
              124.34183,
              35.73416
            ],
            [
              124.47222,
              35.72938
            ],
            [
              124.60853,
              35.71983
            ],
            [
              124.6915,
              35.75326
            ],
            [
              124.63816,
              35.82489
            ],
            [
              124.5137,
              35.85831
            ],
            [
              124.47222,
              35.95859
            ],
            [
              124.47814,
              36.06364
            ],
            [
              124.49592,
              36.17347
            ],
            [
              124.40702,
              36.22122
            ],
            [
              124.29442,
              36.25942
            ],
            [
              124.247,
              36.3597
            ],
            [
              124.28256,
              36.44565
            ],
            [
              124.38332,
              36.5125
            ],
            [
              124.37146,
              36.59846
            ],
            [
              124.30627,
              36.69396
            ],
            [
              124.24108,
              36.78469
            ],
            [
              124.11662,
              36.79424
            ],
            [
              123.9803,
              36.78469
            ],
            [
              123.84992,
              36.77991
            ],
            [
              123.75509,
              36.73216
            ],
            [
              123.70768,
              36.62711
            ],
            [
              123.60693,
              36.61756
            ],
            [
              123.48839,
              36.65098
            ],
            [
              123.39949,
              36.56981
            ],
            [
              123.28689,
              36.63188
            ],
            [
              123.18021,
              36.69396
            ],
            [
              123.0676,
              36.75604
            ],
            [
              122.96092,
              36.81811
            ],
            [
              122.84832,
              36.88496
            ],
            [
              122.72978,
              36.92317
            ],
            [
              122.59347,
              36.91839
            ],
            [
              122.46309,
              36.92317
            ],
            [
              122.34455,
              36.97569
            ],
            [
              122.23195,
              37.02822
            ],
            [
              122.11341,
              37.07597
            ],
            [
              121.99488,
              37.1285
            ],
            [
              121.87635,
              37.18102
            ],
            [
              121.75782,
              37.23355
            ],
            [
              121.63336,
              37.23832
            ],
            [
              121.5089,
              37.20012
            ],
            [
              121.44963,
              37.19057
            ],
            [
              121.55631,
              37.25742
            ],
            [
              121.60372,
              37.3386
            ],
            [
              121.56224,
              37.43888
            ],
            [
              121.51482,
              37.53916
            ],
            [
              121.45556,
              37.58691
            ],
            [
              121.36666,
              37.50573
            ],
            [
              121.26591,
              37.48186
            ],
            [
              121.18293,
              37.55348
            ],
            [
              121.17108,
              37.66331
            ],
            [
              121.15923,
              37.76836
            ],
            [
              121.14737,
              37.87819
            ],
            [
              121.13552,
              37.98324
            ],
            [
              121.08218,
              38.0692
            ],
            [
              120.95772,
              38.10262
            ],
            [
              120.82734,
              38.13127
            ],
            [
              120.69695,
              38.1647
            ],
            [
              120.57249,
              38.19812
            ],
            [
              120.46581,
              38.2029
            ],
            [
              120.47174,
              38.09307
            ],
            [
              120.47174,
              37.98802
            ],
            [
              120.47766,
              37.87819
            ],
            [
              120.42432,
              37.96414
            ],
            [
              120.29986,
              37.91639
            ],
            [
              120.18726,
              37.94027
            ],
            [
              120.12207,
              38.02622
            ],
            [
              120.13392,
              38.11217
            ],
            [
              120.25838,
              38.15515
            ],
            [
              120.29394,
              38.24588
            ],
            [
              120.41247,
              38.25065
            ],
            [
              120.42432,
              38.34138
            ],
            [
              120.30579,
              38.38913
            ],
            [
              120.18133,
              38.43211
            ],
            [
              120.05687,
              38.47508
            ],
            [
              119.99168,
              38.55626
            ],
            [
              119.95612,
              38.66131
            ],
            [
              119.89093,
              38.72816
            ],
            [
              119.76054,
              38.69951
            ],
            [
              119.74276,
              38.79979
            ],
            [
              119.72498,
              38.90962
            ],
            [
              119.61238,
              38.94304
            ],
            [
              119.48199,
              38.96692
            ],
            [
              119.3516,
              38.99079
            ],
            [
              119.25085,
              39.0481
            ],
            [
              119.18566,
              39.1436
            ],
            [
              119.12046,
              39.23433
            ],
            [
              119.05527,
              39.32983
            ],
            [
              118.99008,
              39.42533
            ],
            [
              118.92489,
              39.52083
            ],
            [
              118.80635,
              39.54948
            ],
            [
              118.7945,
              39.44921
            ],
            [
              118.72338,
              39.43488
            ],
            [
              118.64041,
              39.49696
            ],
            [
              118.69375,
              39.57814
            ],
            [
              118.83006,
              39.58291
            ],
            [
              118.82413,
              39.68796
            ],
            [
              118.93674,
              39.70229
            ],
            [
              119.07305,
              39.70229
            ],
            [
              119.20936,
              39.70229
            ],
            [
              119.33975,
              39.70229
            ],
            [
              119.47606,
              39.70229
            ],
            [
              119.60645,
              39.70229
            ],
            [
              119.74276,
              39.70229
            ],
            [
              119.87907,
              39.70229
            ],
            [
              120.00946,
              39.70229
            ],
            [
              120.14577,
              39.70229
            ],
            [
              120.28209,
              39.70229
            ],
            [
              120.41247,
              39.70229
            ],
            [
              120.54878,
              39.70229
            ],
            [
              120.6851,
              39.70229
            ],
            [
              120.81548,
              39.70229
            ],
            [
              120.95179,
              39.70229
            ],
            [
              121.08218,
              39.70229
            ],
            [
              121.21849,
              39.70229
            ],
            [
              121.35481,
              39.70229
            ],
            [
              121.48519,
              39.70229
            ],
            [
              121.6215,
              39.70229
            ],
            [
              121.75782,
              39.70229
            ],
            [
              121.8882,
              39.70229
            ],
            [
              121.8882,
              39.59724
            ],
            [
              121.9771,
              39.56381
            ],
            [
              121.98303,
              39.66886
            ],
            [
              122.07786,
              39.70229
            ],
            [
              122.20824,
              39.70229
            ],
            [
              122.34455,
              39.70229
            ],
            [
              122.43345,
              39.66409
            ],
            [
              122.42753,
              39.55903
            ],
            [
              122.51643,
              39.60201
            ],
            [
              122.53421,
              39.70229
            ],
            [
              122.66459,
              39.70229
            ],
            [
              122.8009,
              39.70229
            ],
            [
              122.93129,
              39.70229
            ],
            [
              123.0676,
              39.70229
            ],
            [
              123.20392,
              39.70229
            ],
            [
              123.3343,
              39.70229
            ],
            [
              123.47061,
              39.70229
            ],
            [
              123.60693,
              39.70229
            ],
            [
              123.73731,
              39.70229
            ],
            [
              123.87363,
              39.70229
            ],
            [
              124.00994,
              39.70229
            ],
            [
              124.14032,
              39.70229
            ],
            [
              124.27664,
              39.70229
            ],
            [
              124.40702,
              39.70229
            ],
            [
              124.54333,
              39.70229
            ],
            [
              124.67965,
              39.70229
            ],
            [
              124.77447,
              39.67364
            ],
            [
              124.77447,
              39.56381
            ],
            [
              124.77447,
              39.45398
            ],
            [
              124.77447,
              39.34893
            ],
            [
              124.77447,
              39.2391
            ],
            [
              124.77447,
              39.12927
            ],
            [
              124.77447,
              39.02422
            ],
            [
              124.77447,
              38.91439
            ],
            [
              124.77447,
              38.80934
            ],
            [
              124.77447,
              38.69951
            ],
            [
              124.77447,
              38.58968
            ],
            [
              124.77447,
              38.48463
            ],
            [
              124.77447,
              38.3748
            ],
            [
              124.77447,
              38.26498
            ],
            [
              124.77447,
              38.15992
            ],
            [
              124.77447,
              38.0501
            ],
            [
              124.77447,
              37.94027
            ],
            [
              124.77447,
              37.83521
            ],
            [
              124.77447,
              37.72539
            ],
            [
              124.77447,
              37.61556
            ],
            [
              124.77447,
              37.51051
            ],
            [
              124.77447,
              37.40068
            ],
            [
              124.77447,
              37.29563
            ],
            [
              124.77447,
              37.1858
            ],
            [
              124.77447,
              37.07597
            ],
            [
              124.77447,
              36.97092
            ],
            [
              124.77447,
              36.86109
            ],
            [
              124.77447,
              36.75126
            ],
            [
              124.77447,
              36.64621
            ],
            [
              124.77447,
              36.53638
            ],
            [
              124.77447,
              36.42655
            ],
            [
              124.77447,
              36.3215
            ],
            [
              124.77447,
              36.21167
            ],
            [
              124.77447,
              36.10662
            ],
            [
              124.77447,
              35.99679
            ],
            [
              124.77447,
              35.88696
            ],
            [
              124.77447,
              35.78191
            ],
            [
              124.77447,
              35.67208
            ],
            [
              124.77447,
              35.56226
            ],
            [
              124.77447,
              35.4572
            ],
            [
              124.77447,
              35.34737
            ],
            [
              124.77447,
              35.23755
            ],
            [
              124.77447,
              35.13249
            ],
            [
              124.77447,
              35.02267
            ],
            [
              124.77447,
              34.91761
            ],
            [
              124.77447,
              34.80779
            ],
            [
              124.77447,
              34.69796
            ],
            [
              124.77447,
              34.5929
            ],
            [
              124.77447,
              34.48308
            ],
            [
              124.77447,
              34.37325
            ],
            [
              124.77447,
              34.2682
            ],
            [
              124.77447,
              34.15837
            ],
            [
              124.77447,
              34.04854
            ],
            [
              124.77447,
              33.94349
            ],
            [
              124.77447,
              33.83366
            ],
            [
              124.77447,
              33.72861
            ],
            [
              124.77447,
              33.61878
            ],
            [
              124.77447,
              33.50895
            ],
            [
              124.77447,
              33.4039
            ],
            [
              124.77447,
              33.29407
            ],
            [
              124.77447,
              33.18424
            ],
            [
              124.77447,
              33.07919
            ],
            [
              124.77447,
              32.96936
            ],
            [
              124.67965,
              32.93594
            ],
            [
              124.54926,
              32.93594
            ],
            [
              124.41295,
              32.93594
            ],
            [
              124.28256,
              32.93594
            ],
            [
              124.14625,
              32.93594
            ],
            [
              124.00994,
              32.93594
            ],
            [
              123.87955,
              32.93594
            ],
            [
              123.74324,
              32.93594
            ],
            [
              123.60693,
              32.93594
            ],
            [
              123.47654,
              32.93594
            ],
            [
              123.34023,
              32.93594
            ],
            [
              123.20392,
              32.93594
            ],
            [
              123.07353,
              32.93594
            ],
            [
              122.93722,
              32.93594
            ],
            [
              122.87795,
              32.97891
            ],
            [
              122.91351,
              33.08397
            ],
            [
              122.82461,
              33.13649
            ],
            [
              122.69422,
              33.17469
            ],
            [
              122.56977,
              33.21289
            ],
            [
              122.44531,
              33.25109
            ],
            [
              122.32085,
              33.2893
            ],
            [
              122.19639,
              33.32272
            ],
            [
              122.066,
              33.36092
            ],
            [
              121.94154,
              33.39912
            ],
            [
              121.87635,
              33.36092
            ],
            [
              121.8645,
              33.25587
            ],
            [
              121.85264,
              33.14604
            ],
            [
              121.84672,
              33.04099
            ],
            [
              121.92969,
              32.98369
            ],
            [
              122.05415,
              32.95504
            ],
            [
              122.10156,
              32.93594
            ],
            [
              121.96525,
              32.93594
            ],
            [
              121.82894,
              32.93594
            ],
            [
              121.69855,
              32.93594
            ],
            [
              121.56224,
              32.93594
            ],
            [
              121.42593,
              32.93594
            ],
            [
              121.29554,
              32.93594
            ],
            [
              121.15923,
              32.93594
            ],
            [
              121.02291,
              32.93594
            ],
            [
              120.89253,
              32.93594
            ],
            [
              120.75622,
              32.93594
            ],
            [
              120.62583,
              32.93594
            ],
            [
              120.48952,
              32.93594
            ],
            [
              120.3532,
              32.93594
            ],
            [
              120.22282,
              32.93594
            ],
            [
              120.08651,
              32.93594
            ],
            [
              119.95019,
              32.93594
            ],
            [
              119.81981,
              32.93594
            ],
            [
              119.6835,
              32.93594
            ],
            [
              119.54718,
              32.93594
            ],
            [
              119.4168,
              32.93594
            ],
            [
              119.28048,
              32.93594
            ],
            [
              119.14417,
              32.93594
            ],
            [
              119.01379,
              32.93594
            ],
            [
              118.87747,
              32.93594
            ],
            [
              118.74709,
              32.93594
            ],
            [
              118.61077,
              32.93594
            ],
            [
              118.47446,
              32.93594
            ],
            [
              118.34408,
              32.93594
            ],
            [
              118.20776,
              32.93594
            ],
            [
              118.07145,
              32.93594
            ],
            [
              117.94106,
              32.93594
            ],
            [
              117.80475,
              32.93594
            ],
            [
              117.66844,
              32.93594
            ],
            [
              117.53805,
              32.93594
            ],
            [
              117.40174,
              32.93594
            ],
            [
              117.30691,
              32.98846
            ],
            [
              117.21209,
              32.93594
            ],
            [
              117.0817,
              32.93594
            ],
            [
              116.94539,
              32.93594
            ],
            [
              116.80908,
              32.93594
            ],
            [
              116.67869,
              32.93594
            ],
            [
              116.54238,
              32.93594
            ],
            [
              116.41199,
              32.93594
            ],
            [
              116.27568,
              32.93594
            ],
            [
              116.13937,
              32.93594
            ],
            [
              116.00898,
              32.93594
            ],
            [
              115.87267,
              32.93594
            ]
          ]
        ]
      }
    }
  ]
}