{
  "type": "FeatureCollection",
  "metadata": {
    "state": "冀州",
    "color": "#5E35B1",
    "gcps": 7,
    "max_err_km": 2.7,
    "avg_err_km": 1.7,
    "verified": true
  },
  "pixels": {
    "gcps": [
      {
        "px": 846,
        "py": 575,
        "lon": 114.514,
        "lat": 38.042,
        "name": "石家庄"
      },
      {
        "px": 1278,
        "py": 18,
        "lon": 116.407,
        "lat": 39.904,
        "name": "北京"
      },
      {
        "px": 1463,
        "py": 268,
        "lon": 117.201,
        "lat": 39.085,
        "name": "天津"
      },
      {
        "px": 1064,
        "py": 330,
        "lon": 115.464,
        "lat": 38.873,
        "name": "保定"
      },
      {
        "px": 1380,
        "py": 498,
        "lon": 116.838,
        "lat": 38.304,
        "name": "沧州"
      },
      {
        "px": 1111,
        "py": 663,
        "lon": 115.665,
        "lat": 37.735,
        "name": "衡水"
      },
      {
        "px": 852,
        "py": 984,
        "lon": 114.491,
        "lat": 36.613,
        "name": "邯郸"
      }
    ],
    "bnd": [
      [
        717,
        270
      ],
      [
        698,
        294
      ],
      [
        678,
        295
      ],
      [
        682,
        322
      ],
      [
        696,
        337
      ],
      [
        695,
        358
      ],
      [
        679,
        362
      ],
      [
        678,
        381
      ],
      [
        659,
        405
      ],
      [
        644,
        399
      ],
      [
        629,
        423
      ],
      [
        623,
        474
      ],
      [
        632,
        486
      ],
      [
        628,
        504
      ],
      [
        640,
        522
      ],
      [
        644,
        539
      ],
      [
        638,
        566
      ],
      [
        616,
        588
      ],
      [
        598,
        617
      ],
      [
        593,
        651
      ],
      [
        608,
        679
      ],
      [
        635,
        682
      ],
      [
        656,
        719
      ],
      [
        718,
        753
      ],
      [
        720,
        771
      ],
      [
        705,
        787
      ],
      [
        698,
        799
      ],
      [
        697,
        811
      ],
      [
        687,
        826
      ],
      [
        676,
        836
      ],
      [
        675,
        872
      ],
      [
        680,
        898
      ],
      [
        678,
        917
      ],
      [
        682,
        947
      ],
      [
        676,
        958
      ],
      [
        657,
        966
      ],
      [
        645,
        970
      ],
      [
        641,
        967
      ],
      [
        636,
        962
      ],
      [
        629,
        948
      ],
      [
        610,
        959
      ],
      [
        605,
        982
      ],
      [
        623,
        987
      ],
      [
        622,
        995
      ],
      [
        633,
        999
      ],
      [
        626,
        1025
      ],
      [
        662,
        1055
      ],
      [
        672,
        1054
      ],
      [
        715,
        1070
      ],
      [
        735,
        1078
      ],
      [
        757,
        1106
      ],
      [
        776,
        1113
      ],
      [
        813,
        1119
      ],
      [
        823,
        1121
      ],
      [
        824,
        1133
      ],
      [
        820,
        1172
      ],
      [
        841,
        1203
      ],
      [
        840,
        1222
      ],
      [
        830,
        1239
      ],
      [
        812,
        1247
      ],
      [
        791,
        1266
      ],
      [
        783,
        1285
      ],
      [
        783,
        1311
      ],
      [
        784,
        1321
      ],
      [
        819,
        1308
      ],
      [
        838,
        1297
      ],
      [
        849,
        1281
      ],
      [
        854,
        1265
      ],
      [
        859,
        1254
      ],
      [
        871,
        1244
      ],
      [
        896,
        1233
      ],
      [
        948,
        1232
      ],
      [
        951,
        1226
      ],
      [
        945,
        1204
      ],
      [
        950,
        1185
      ],
      [
        958,
        1174
      ],
      [
        971,
        1175
      ],
      [
        985,
        1171
      ],
      [
        995,
        1161
      ],
      [
        996,
        1150
      ],
      [
        993,
        1143
      ],
      [
        978,
        1140
      ],
      [
        967,
        1134
      ],
      [
        962,
        1123
      ],
      [
        964,
        1115
      ],
      [
        973,
        1103
      ],
      [
        987,
        1101
      ],
      [
        1005,
        1105
      ],
      [
        1016,
        1113
      ],
      [
        1022,
        1122
      ],
      [
        1024,
        1136
      ],
      [
        1032,
        1137
      ],
      [
        1042,
        1126
      ],
      [
        1059,
        1116
      ],
      [
        1070,
        1118
      ],
      [
        1069,
        1093
      ],
      [
        1063,
        1077
      ],
      [
        1066,
        1058
      ],
      [
        1063,
        1039
      ],
      [
        1069,
        1019
      ],
      [
        1076,
        1007
      ],
      [
        1081,
        993
      ],
      [
        1081,
        971
      ],
      [
        1132,
        969
      ],
      [
        1186,
        951
      ],
      [
        1213,
        954
      ],
      [
        1241,
        954
      ],
      [
        1257,
        945
      ],
      [
        1267,
        936
      ],
      [
        1270,
        918
      ],
      [
        1270,
        870
      ],
      [
        1253,
        853
      ],
      [
        1249,
        837
      ],
      [
        1255,
        827
      ],
      [
        1261,
        812
      ],
      [
        1268,
        801
      ],
      [
        1261,
        781
      ],
      [
        1258,
        763
      ],
      [
        1263,
        744
      ],
      [
        1257,
        731
      ],
      [
        1260,
        707
      ],
      [
        1271,
        696
      ],
      [
        1271,
        683
      ],
      [
        1280,
        667
      ],
      [
        1295,
        658
      ],
      [
        1306,
        663
      ],
      [
        1308,
        680
      ],
      [
        1319,
        693
      ],
      [
        1322,
        708
      ],
      [
        1342,
        733
      ],
      [
        1357,
        745
      ],
      [
        1388,
        738
      ],
      [
        1396,
        725
      ],
      [
        1408,
        720
      ],
      [
        1414,
        712
      ],
      [
        1428,
        706
      ],
      [
        1437,
        690
      ],
      [
        1455,
        680
      ],
      [
        1467,
        679
      ],
      [
        1474,
        671
      ],
      [
        1485,
        664
      ],
      [
        1499,
        667
      ],
      [
        1512,
        653
      ],
      [
        1529,
        660
      ],
      [
        1542,
        657
      ],
      [
        1553,
        662
      ],
      [
        1566,
        677
      ],
      [
        1581,
        682
      ],
      [
        1595,
        690
      ],
      [
        1626,
        698
      ],
      [
        1645,
        684
      ],
      [
        1655,
        668
      ],
      [
        1638,
        664
      ],
      [
        1635,
        655
      ],
      [
        1634,
        650
      ],
      [
        1632,
        644
      ],
      [
        1625,
        636
      ],
      [
        1619,
        627
      ],
      [
        1609,
        604
      ],
      [
        1607,
        588
      ],
      [
        1600,
        563
      ],
      [
        1579,
        537
      ],
      [
        1562,
        524
      ],
      [
        1546,
        493
      ],
      [
        1539,
        466
      ],
      [
        1516,
        441
      ],
      [
        1509,
        429
      ],
      [
        1505,
        408
      ],
      [
        1495,
        392
      ],
      [
        1485,
        313
      ],
      [
        1495,
        294
      ],
      [
        1441,
        271
      ],
      [
        1425,
        258
      ],
      [
        1408,
        277
      ],
      [
        1388,
        285
      ],
      [
        1361,
        288
      ],
      [
        1324,
        290
      ],
      [
        1310,
        288
      ],
      [
        1286,
        284
      ],
      [
        1248,
        282
      ],
      [
        1172,
        291
      ],
      [
        1145,
        311
      ],
      [
        1129,
        328
      ],
      [
        1119,
        358
      ],
      [
        1112,
        394
      ],
      [
        1081,
        392
      ],
      [
        1049,
        342
      ],
      [
        1052,
        298
      ],
      [
        1049,
        280
      ],
      [
        1039,
        274
      ],
      [
        977,
        241
      ],
      [
        930,
        220
      ],
      [
        916,
        205
      ],
      [
        914,
        188
      ],
      [
        925,
        159
      ],
      [
        947,
        129
      ],
      [
        962,
        112
      ],
      [
        937,
        102
      ],
      [
        900,
        110
      ],
      [
        868,
        122
      ],
      [
        840,
        178
      ],
      [
        843,
        197
      ],
      [
        830,
        204
      ],
      [
        828,
        227
      ],
      [
        826,
        244
      ],
      [
        802,
        257
      ],
      [
        785,
        278
      ],
      [
        750,
        278
      ],
      [
        717,
        270
      ]
    ],
    "seats": [
      {
        "px": 823,
        "py": 637,
        "name": "常山/元氏",
        "role": "郡治"
      },
      {
        "px": 910,
        "py": 726,
        "name": "巨鹿/廮陶",
        "role": "郡治"
      },
      {
        "px": 824,
        "py": 993,
        "name": "赵国/邯郸",
        "role": "郡治"
      },
      {
        "px": 1122,
        "py": 915,
        "name": "清河国/甘陵",
        "role": "郡治"
      },
      {
        "px": 1077,
        "py": 705,
        "name": "安平国/信都",
        "role": "郡治"
      },
      {
        "px": 1340,
        "py": 556,
        "name": "渤海郡/南皮",
        "role": "commandery"
      },
      {
        "px": 1224,
        "py": 538,
        "name": "河间国/乐成",
        "role": "commandery"
      },
      {
        "px": 807,
        "py": 1082,
        "name": "魏国/邺县",
        "role": "capital"
      },
      {
        "px": 954,
        "py": 438,
        "name": "中山国/卢奴",
        "role": "commandery"
      }
    ]
  },
  "features": [
    {
      "type": "Feature",
      "properties": {
        "kind": "state_boundary",
        "state": "冀州",
        "color": "#5E35B1"
      },
      "geometry": {
        "type": "Polygon",
        "coordinates": [
          [
            [
              113.94523,
              39.05236
            ],
            [
              113.86292,
              38.98815
            ],
            [
              113.78056,
              38.98345
            ],
            [
              113.76905,
              38.9511
            ],
            [
              113.84048,
              38.85413
            ],
            [
              113.84701,
              38.77559
            ],
            [
              113.78246,
              38.75243
            ],
            [
              113.77114,
              38.69697
            ],
            [
              113.7012,
              38.61373
            ],
            [
              113.62461,
              38.6229
            ],
            [
              113.56636,
              38.54891
            ],
            [
              113.5443,
              38.36868
            ],
            [
              113.574,
              38.33637
            ],
            [
              113.55691,
              38.26704
            ],
            [
              113.6103,
              38.21627
            ],
            [
              113.62849,
              38.1516
            ],
            [
              113.60571,
              38.05916
            ],
            [
              113.50053,
              37.96665
            ],
            [
              113.4212,
              37.87712
            ],
            [
              113.39759,
              37.76141
            ],
            [
              113.46137,
              37.66649
            ],
            [
              113.57875,
              37.65681
            ],
            [
              113.66816,
              37.53141
            ],
            [
              113.95897979859225,
              37.41992108608105
            ],
            [
              113.96679229859225,
              37.34961174175685
            ],
            [
              113.8925750740615,
              37.292971905675806
            ],
            [
              113.87694702312301,
              37.248051608513705
            ],
            [
              113.87304077312301,
              37.20898831959475
            ],
            [
              113.83202438538838,
              37.175778094324194
            ],
            [
              113.78319626038838,
              37.12890861675685
            ],
            [
              113.77343139812301,
              36.99805239743266
            ],
            [
              113.7968685167557,
              36.91406644459475
            ],
            [
              113.79296112265376,
              36.84180397527056
            ],
            [
              113.81663408452694,
              36.746520376657614
            ],
            [
              113.74224,
              36.71912
            ],
            [
              113.65909,
              36.69155
            ],
            [
              113.60663,
              36.67771
            ],
            [
              113.58984375,
              36.675785983513705
            ],
            [
              113.57812309316344,
              36.744124846620984
            ],
            [
              113.55077896179613,
              36.73242976418951
            ],
            [
              113.49023246816344,
              36.70117266391895
            ],
            [
              113.47616,
              36.63588
            ],
            [
              113.55077324128645,
              36.60937894459475
            ],
            [
              113.54724,
              36.5805
            ],
            [
              113.60029,
              36.57131
            ],
            [
              113.56566,
              36.48811
            ],
            [
              113.69575,
              36.4143
            ],
            [
              113.76207835012222,
              36.39089562770133
            ],
            [
              113.89842682171526,
              36.324204549458884
            ],
            [
              113.99218711863269,
              36.3085921721621
            ],
            [
              114.08592949128645,
              36.21486899540643
            ],
            [
              114.16601028585764,
              36.197259313648395
            ],
            [
              114.32992,
              36.17431
            ],
            [
              114.37335,
              36.1677
            ],
            [
              114.37705,
              36.12692
            ],
            [
              114.35353087969249,
              35.992227734866496
            ],
            [
              114.44725990449032,
              35.88869948716328
            ],
            [
              114.4394657101213,
              35.82227509202741
            ],
            [
              114.39650458746753,
              35.765629733513705
            ],
            [
              114.35353583746753,
              35.75389126053994
            ],
            [
              114.2246318756714,
              35.6757796721621
            ],
            [
              114.18556518063097,
              35.613284405675806
            ],
            [
              114.18960372842459,
              35.52571145856172
            ],
            [
              114.19141845375398,
              35.486360470676985
            ],
            [
              114.361913115886,
              35.537698609774516
            ],
            [
              114.44531707640775,
              35.58395676283672
            ],
            [
              114.47784,
              35.62415
            ],
            [
              114.52285,
              35.71616
            ],
            [
              114.58202438538838,
              35.74996292080931
            ],
            [
              114.68944092124602,
              35.79098249040406
            ],
            [
              114.9115,
              35.79268
            ],
            [
              114.92489,
              35.81314
            ],
            [
              114.89997,
              35.88784
            ],
            [
              114.92277,
              35.95254
            ],
            [
              114.95819,
              35.9901
            ],
            [
              115.01473,
              35.98695
            ],
            [
              115.07616348491914,
              36.00388100459357
            ],
            [
              115.1210971823058,
              36.04099511310728
            ],
            [
              115.12493,
              36.07244
            ],
            [
              115.11225,
              36.09618
            ],
            [
              115.04711,
              36.1061
            ],
            [
              114.99955,
              36.12628
            ],
            [
              114.97838,
              36.16359
            ],
            [
              114.9882843009385,
              36.197249846620984
            ],
            [
              115.02929954457119,
              36.23435843270203
            ],
            [
              115.09375114410193,
              36.23631471337784
            ],
            [
              115.16656,
              36.22563
            ],
            [
              115.22070388773463,
              36.20115294094518
            ],
            [
              115.23621142598567,
              36.16657838535709
            ],
            [
              115.2536,
              36.12781
            ],
            [
              115.28124694906151,
              36.11717487729678
            ],
            [
              115.32421455495957,
              36.154262951485116
            ],
            [
              115.40625038136731,
              36.19724590202623
            ],
            [
              115.44883,
              36.18268
            ],
            [
              115.44583,
              36.26767
            ],
            [
              115.42058,
              36.32196
            ],
            [
              115.43468,
              36.38662
            ],
            [
              115.42265,
              36.45117
            ],
            [
              115.44986,
              36.51929
            ],
            [
              115.48098,
              36.56023
            ],
            [
              115.50351,
              36.60794
            ],
            [
              115.50471,
              36.68274
            ],
            [
              115.72684,
              36.69053
            ],
            [
              115.96291,
              36.75278
            ],
            [
              116.08029,
              36.7431
            ],
            [
              116.20219,
              36.74364
            ],
            [
              116.27234,
              36.77455
            ],
            [
              116.31636,
              36.80535
            ],
            [
              116.3304,
              36.86662
            ],
            [
              116.33301,
              37.02983
            ],
            [
              116.25992,
              37.08731
            ],
            [
              116.24338,
              37.14164
            ],
            [
              116.27004,
              37.17576
            ],
            [
              116.29698,
              37.22688
            ],
            [
              116.32805,
              37.26442
            ],
            [
              116.29866,
              37.33229
            ],
            [
              116.28658,
              37.39343
            ],
            [
              116.30938,
              37.45814
            ],
            [
              116.28397,
              37.50223
            ],
            [
              116.29833,
              37.58389
            ],
            [
              116.34682,
              37.62151
            ],
            [
              116.34753,
              37.66571
            ],
            [
              116.38758,
              37.72029
            ],
            [
              116.45337,
              37.75118
            ],
            [
              116.50099,
              37.7344
            ],
            [
              116.50877,
              37.67663
            ],
            [
              116.55595,
              37.63264
            ],
            [
              116.5682,
              37.58169
            ],
            [
              116.65391,
              37.49707
            ],
            [
              116.71856,
              37.45655
            ],
            [
              116.8539,
              37.48096
            ],
            [
              116.88943,
              37.52532
            ],
            [
              116.94195,
              37.54255
            ],
            [
              116.9685,
              37.56987
            ],
            [
              117.02978,
              37.59054
            ],
            [
              117.06983,
              37.64512
            ],
            [
              117.14874,
              37.67947
            ],
            [
              117.20103,
              37.6831
            ],
            [
              117.23194,
              37.71044
            ],
            [
              117.28021,
              37.73446
            ],
            [
              117.341,
              37.72453
            ],
            [
              117.39835,
              37.77238
            ],
            [
              117.47198,
              37.74891
            ],
            [
              117.52874,
              37.75936
            ],
            [
              117.57636,
              37.74257
            ],
            [
              117.63214,
              37.69182
            ],
            [
              117.69717,
              37.67511
            ],
            [
              117.75768,
              37.64818
            ],
            [
              117.89221,
              37.62157
            ],
            [
              117.97568,
              37.66954
            ],
            [
              118.02009,
              37.72414
            ],
            [
              117.9463,
              37.73742
            ],
            [
              117.93373,
              37.76796
            ],
            [
              117.92964,
              37.78494
            ],
            [
              117.92126,
              37.80531
            ],
            [
              117.89122,
              37.83237
            ],
            [
              117.86559,
              37.86286
            ],
            [
              117.82331,
              37.94087
            ],
            [
              117.81547,
              37.99524
            ],
            [
              117.78635,
              38.08011
            ],
            [
              117.69634,
              38.16812
            ],
            [
              117.62304,
              38.21199
            ],
            [
              117.55507,
              38.31709
            ],
            [
              117.52606,
              38.40877
            ],
            [
              117.42729,
              38.49333
            ],
            [
              117.39747,
              38.534
            ],
            [
              117.38119,
              38.60533
            ],
            [
              117.33853,
              38.65954
            ],
            [
              117.29929,
              38.92797
            ],
            [
              117.32819,
              38.99885
            ],
            [
              117.11538,
              39.05869
            ],
            [
              117.0236,
              39.11383
            ],
            [
              116.94431,
              39.05187
            ],
            [
              116.85831,
              39.01776
            ],
            [
              116.76081,
              39.01058
            ],
            [
              116.55179,
              39.00436
            ],
            [
              116.55179,
              39.00436
            ],
            [
              116.41808301126387,
              39.01893317749438
            ],
            [
              116.24990328142812,
              39.024486906847095
            ],
            [
              115.92475,
              38.99422
            ],
            [
              115.79483066959641,
              38.90802605834849
            ],
            [
              115.73765,
              38.87009
            ],
            [
              115.69187117493857,
              38.74473868332212
            ],
            [
              115.65591,
              38.64627
            ],
            [
              115.5348,
              38.64539
            ],
            [
              115.38771,
              38.81173
            ],
            [
              115.39443681919316,
              38.952418095555636
            ],
            [
              115.39812,
              39.02945
            ],
            [
              115.34069746549915,
              39.051654766556425
            ],
            [
              115.07233,
              39.15543
            ],
            [
              114.88107,
              39.22659
            ],
            [
              114.82492,
              39.28198
            ],
            [
              114.81168,
              39.34885
            ],
            [
              114.86298,
              39.4441
            ],
            [
              114.95186863310384,
              39.536135236907626
            ],
            [
              115.01496,
              39.60146
            ],
            [
              114.92284,
              39.63427
            ],
            [
              114.75458750651637,
              39.594240700917716
            ],
            [
              114.60827,
              39.55943
            ],
            [
              114.49141,
              39.36885
            ],
            [
              114.50465,
              39.30198
            ],
            [
              114.44019,
              39.27918
            ],
            [
              114.43109611948292,
              39.20425469678464
            ],
            [
              114.42392,
              39.14513
            ],
            [
              114.3235,
              39.09976
            ],
            [
              114.25125,
              39.03226
            ],
            [
              114.09442,
              39.02554
            ],
            [
              113.94523,
              39.05236
            ],
            [
              113.94523,
              39.05236
            ],
            [
              113.94523,
              39.05236
            ],
            [
              113.94523,
              39.05236
            ],
            [
              113.98874,
              39.1029
            ],
            [
              113.94523,
              39.05236
            ],
            [
              113.94523,
              39.05236
            ]
          ]
        ]
      }
    },
    {
      "type": "Feature",
      "properties": {
        "kind": "commandery_seat",
        "name": "常山/元氏",
        "role": "郡治"
      },
      "geometry": {
        "type": "Point",
        "coordinates": [
          114.39965,
          37.81346
        ]
      }
    },
    {
      "type": "Feature",
      "properties": {
        "kind": "commandery_seat",
        "name": "巨鹿/廮陶",
        "role": "郡治"
      },
      "geometry": {
        "type": "Point",
        "coordinates": [
          114.77357,
          37.51252
        ]
      }
    },
    {
      "type": "Feature",
      "properties": {
        "kind": "commandery_seat",
        "name": "赵国/邯郸",
        "role": "郡治"
      },
      "geometry": {
        "type": "Point",
        "coordinates": [
          114.38466,
          36.60297
        ]
      }
    },
    {
      "type": "Feature",
      "properties": {
        "kind": "commandery_seat",
        "name": "清河国/甘陵",
        "role": "郡治"
      },
      "geometry": {
        "type": "Point",
        "coordinates": [
          115.68624,
          36.87395
        ]
      }
    },
    {
      "type": "Feature",
      "properties": {
        "kind": "commandery_seat",
        "name": "安平国/信都",
        "role": "郡治"
      },
      "geometry": {
        "type": "Point",
        "coordinates": [
          115.50175,
          37.58715
        ]
      }
    },
    {
      "type": "Feature",
      "properties": {
        "kind": "commandery_seat",
        "name": "渤海郡/南皮",
        "role": "commandery"
      },
      "geometry": {
        "type": "Point",
        "coordinates": [
          116.65482,
          38.09889
        ]
      }
    },
    {
      "type": "Feature",
      "properties": {
        "kind": "commandery_seat",
        "name": "河间国/乐成",
        "role": "commandery"
      },
      "geometry": {
        "type": "Point",
        "coordinates": [
          116.15079,
          38.15785
        ]
      }
    },
    {
      "type": "Feature",
      "properties": {
        "kind": "commandery_seat",
        "name": "魏国/邺县",
        "role": "capital"
      },
      "geometry": {
        "type": "Point",
        "coordinates": [
          114.30581,
          36.30001
        ]
      }
    },
    {
      "type": "Feature",
      "properties": {
        "kind": "commandery_seat",
        "name": "中山国/卢奴",
        "role": "commandery"
      },
      "geometry": {
        "type": "Point",
        "coordinates": [
          114.98078,
          38.49266
        ]
      }
    }
  ]
}