{
  "type": "FeatureCollection",
  "metadata": {
    "state": "青州",
    "color": "#E53935",
    "gcps": 10,
    "max_err_km": 9.7,
    "avg_err_km": 3.9,
    "verified": true
  },
  "pixels": {
    "gcps": [
      {
        "px": 1309,
        "py": 1095,
        "lon": 120.382,
        "lat": 36.067,
        "name": "青岛"
      },
      {
        "px": 944,
        "py": 858,
        "lon": 119.107,
        "lat": 36.709,
        "name": "潍坊"
      },
      {
        "px": 613,
        "py": 817,
        "lon": 118.054,
        "lat": 36.813,
        "name": "淄博"
      },
      {
        "px": 333,
        "py": 878,
        "lon": 117,
        "lat": 36.651,
        "name": "济南"
      },
      {
        "px": 1628,
        "py": 573,
        "lon": 121.392,
        "lat": 37.539,
        "name": "烟台"
      },
      {
        "px": 799,
        "py": 585,
        "lon": 118.675,
        "lat": 37.434,
        "name": "东营"
      },
      {
        "px": 587,
        "py": 604,
        "lon": 118.016,
        "lat": 37.383,
        "name": "滨州"
      },
      {
        "px": 105,
        "py": 584,
        "lon": 116.357,
        "lat": 37.434,
        "name": "德州"
      },
      {
        "px": 323,
        "py": 1046,
        "lon": 117.129,
        "lat": 36.18,
        "name": "泰安"
      },
      {
        "px": 1830,
        "py": 555,
        "lon": 122.12,
        "lat": 37.51,
        "name": "威海"
      }
    ],
    "bnd": [
      [
        1104,
        701
      ],
      [
        1122,
        698
      ],
      [
        1134,
        678
      ],
      [
        1148,
        660
      ],
      [
        1167,
        641
      ],
      [
        1169,
        625
      ],
      [
        1148,
        614
      ],
      [
        1181,
        588
      ],
      [
        1202,
        586
      ],
      [
        1221,
        572
      ],
      [
        1238,
        560
      ],
      [
        1267,
        541
      ],
      [
        1272,
        529
      ],
      [
        1280,
        511
      ],
      [
        1292,
        492
      ],
      [
        1306,
        473
      ],
      [
        1325,
        465
      ],
      [
        1346,
        458
      ],
      [
        1367,
        449
      ],
      [
        1388,
        441
      ],
      [
        1414,
        430
      ],
      [
        1433,
        432
      ],
      [
        1454,
        433
      ],
      [
        1475,
        434
      ],
      [
        1485,
        453
      ],
      [
        1497,
        474
      ],
      [
        1520,
        479
      ],
      [
        1533,
        481
      ],
      [
        1543,
        505
      ],
      [
        1550,
        528
      ],
      [
        1575,
        529
      ],
      [
        1587,
        529
      ],
      [
        1612,
        557
      ],
      [
        1665,
        589
      ],
      [
        1778,
        565
      ],
      [
        1796,
        553
      ],
      [
        1817,
        541
      ],
      [
        1835,
        531
      ],
      [
        1852,
        548
      ],
      [
        1867,
        565
      ],
      [
        1881,
        582
      ],
      [
        1889,
        595
      ],
      [
        1937,
        584
      ],
      [
        1955,
        596
      ],
      [
        1986,
        586
      ],
      [
        2003,
        582
      ],
      [
        2006,
        603
      ],
      [
        1996,
        605
      ],
      [
        1976,
        609
      ],
      [
        1964,
        640
      ],
      [
        1968,
        658
      ],
      [
        1972,
        684
      ],
      [
        1957,
        688
      ],
      [
        1937,
        691
      ],
      [
        1920,
        741
      ],
      [
        1955,
        737
      ],
      [
        1956,
        749
      ],
      [
        1958,
        771
      ],
      [
        1930,
        777
      ],
      [
        1926,
        809
      ],
      [
        1908,
        808
      ],
      [
        1881,
        809
      ],
      [
        1863,
        804
      ],
      [
        1850,
        801
      ],
      [
        1844,
        737
      ],
      [
        1822,
        774
      ],
      [
        1805,
        779
      ],
      [
        1799,
        756
      ],
      [
        1764,
        756
      ],
      [
        1743,
        781
      ],
      [
        1663,
        842
      ],
      [
        1645,
        837
      ],
      [
        1636,
        826
      ],
      [
        1624,
        842
      ],
      [
        1589,
        854
      ],
      [
        1549,
        865
      ],
      [
        1532,
        879
      ],
      [
        1499,
        903
      ],
      [
        1481,
        902
      ],
      [
        1471,
        892
      ],
      [
        1483,
        882
      ],
      [
        1454,
        867
      ],
      [
        1428,
        884
      ],
      [
        1415,
        909
      ],
      [
        1425,
        919
      ],
      [
        1447,
        891
      ],
      [
        1488,
        920
      ],
      [
        1477,
        943
      ],
      [
        1469,
        964
      ],
      [
        1461,
        983
      ],
      [
        1444,
        957
      ],
      [
        1429,
        939
      ],
      [
        1409,
        953
      ],
      [
        1414,
        993
      ],
      [
        1398,
        1030
      ],
      [
        1401,
        1051
      ],
      [
        1403,
        1071
      ],
      [
        1396,
        1075
      ],
      [
        1375,
        1082
      ],
      [
        1353,
        1088
      ],
      [
        1331,
        1095
      ],
      [
        1310,
        1102
      ],
      [
        1295,
        1106
      ],
      [
        1291,
        1063
      ],
      [
        1306,
        1048
      ],
      [
        1288,
        1018
      ],
      [
        1287,
        1052
      ],
      [
        1263,
        1047
      ],
      [
        1258,
        1034
      ],
      [
        1229,
        1041
      ],
      [
        1220,
        1053
      ],
      [
        1225,
        1083
      ],
      [
        1243,
        1097
      ],
      [
        1249,
        1127
      ],
      [
        1286,
        1112
      ],
      [
        1285,
        1132
      ],
      [
        1244,
        1152
      ],
      [
        1208,
        1157
      ],
      [
        1201,
        1147
      ],
      [
        1135,
        1113
      ],
      [
        1068,
        1116
      ],
      [
        1027,
        1105
      ],
      [
        1014,
        1115
      ],
      [
        1000,
        1134
      ],
      [
        975,
        1137
      ],
      [
        966,
        1117
      ],
      [
        966,
        1091
      ],
      [
        980,
        1065
      ],
      [
        986,
        1043
      ],
      [
        1002,
        1030
      ],
      [
        996,
        1018
      ],
      [
        934,
        1016
      ],
      [
        905,
        1025
      ],
      [
        836,
        1015
      ],
      [
        810,
        1019
      ],
      [
        790,
        1008
      ],
      [
        784,
        1003
      ],
      [
        761,
        1007
      ],
      [
        742,
        1016
      ],
      [
        699,
        954
      ],
      [
        657,
        908
      ],
      [
        572,
        907
      ],
      [
        483,
        915
      ],
      [
        404,
        960
      ],
      [
        371,
        963
      ],
      [
        311,
        944
      ],
      [
        266,
        916
      ],
      [
        224,
        888
      ],
      [
        202,
        894
      ],
      [
        183,
        911
      ],
      [
        162,
        964
      ],
      [
        139,
        974
      ],
      [
        123,
        968
      ],
      [
        104,
        952
      ],
      [
        104,
        933
      ],
      [
        92,
        893
      ],
      [
        76,
        865
      ],
      [
        73,
        847
      ],
      [
        101,
        826
      ],
      [
        106,
        803
      ],
      [
        106,
        739
      ],
      [
        82,
        715
      ],
      [
        79,
        694
      ],
      [
        90,
        677
      ],
      [
        95,
        661
      ],
      [
        104,
        650
      ],
      [
        95,
        624
      ],
      [
        90,
        600
      ],
      [
        97,
        576
      ],
      [
        90,
        556
      ],
      [
        95,
        527
      ],
      [
        107,
        512
      ],
      [
        109,
        495
      ],
      [
        118,
        476
      ],
      [
        139,
        463
      ],
      [
        152,
        469
      ],
      [
        156,
        491
      ],
      [
        169,
        508
      ],
      [
        174,
        526
      ],
      [
        190,
        548
      ],
      [
        219,
        575
      ],
      [
        262,
        566
      ],
      [
        271,
        550
      ],
      [
        286,
        543
      ],
      [
        295,
        533
      ],
      [
        312,
        526
      ],
      [
        324,
        503
      ],
      [
        338,
        498
      ],
      [
        348,
        492
      ],
      [
        362,
        491
      ],
      [
        373,
        479
      ],
      [
        385,
        473
      ],
      [
        405,
        474
      ],
      [
        422,
        456
      ],
      [
        445,
        464
      ],
      [
        460,
        464
      ],
      [
        476,
        468
      ],
      [
        490,
        488
      ],
      [
        510,
        494
      ],
      [
        532,
        505
      ],
      [
        569,
        515
      ],
      [
        594,
        498
      ],
      [
        608,
        477
      ],
      [
        614,
        481
      ],
      [
        653,
        500
      ],
      [
        718,
        558
      ],
      [
        718,
        578
      ],
      [
        683,
        601
      ],
      [
        647,
        610
      ],
      [
        620,
        638
      ],
      [
        677,
        630
      ],
      [
        710,
        613
      ],
      [
        724,
        598
      ],
      [
        724,
        582
      ],
      [
        801,
        588
      ],
      [
        845,
        620
      ],
      [
        846,
        653
      ],
      [
        864,
        670
      ],
      [
        862,
        698
      ],
      [
        942,
        739
      ],
      [
        984,
        741
      ],
      [
        1030,
        729
      ],
      [
        1078,
        728
      ],
      [
        1103,
        733
      ]
    ],
    "seats": [
      {
        "px": 116,
        "py": 720,
        "name": "平原郡/平原",
        "role": "commandery"
      },
      {
        "px": 419,
        "py": 835,
        "name": "济南国/东平陵",
        "role": "commandery"
      },
      {
        "px": 572,
        "py": 696,
        "name": "乐安国/临济",
        "role": "commandery"
      },
      {
        "px": 700,
        "py": 788,
        "name": "齐国/临淄",
        "role": "capital"
      },
      {
        "px": 827,
        "py": 853,
        "name": "北海国/剧县",
        "role": "commandery"
      },
      {
        "px": 1391,
        "py": 501,
        "name": "东莱郡/黄县",
        "role": "commandery"
      }
    ]
  },
  "features": [
    {
      "type": "Feature",
      "properties": {
        "kind": "state_boundary",
        "state": "青州",
        "color": "#E53935"
      },
      "geometry": {
        "type": "Polygon",
        "coordinates": [
          [
            [
              119.6803,
              37.13545
            ],
            [
              119.74034,
              37.14393
            ],
            [
              119.78061,
              37.19839
            ],
            [
              119.82752,
              37.24748
            ],
            [
              119.89111,
              37.29936
            ],
            [
              119.898,
              37.3428
            ],
            [
              119.82815,
              37.37224
            ],
            [
              119.9385,
              37.44337
            ],
            [
              120.00852,
              37.44919
            ],
            [
              120.07204,
              37.48751
            ],
            [
              120.12887,
              37.52038
            ],
            [
              120.22579,
              37.57245
            ],
            [
              120.24262,
              37.60509
            ],
            [
              120.26953,
              37.65406
            ],
            [
              120.30979,
              37.70582
            ],
            [
              120.35671,
              37.75761
            ],
            [
              120.42015,
              37.77966
            ],
            [
              120.49025,
              37.79904
            ],
            [
              120.56037,
              37.82384
            ],
            [
              120.63047,
              37.84593
            ],
            [
              120.71729,
              37.87625
            ],
            [
              120.78059,
              37.87118
            ],
            [
              120.85057,
              37.86886
            ],
            [
              120.92056,
              37.86654
            ],
            [
              120.95363,
              37.81519
            ],
            [
              120.99335,
              37.75846
            ],
            [
              121.06994,
              37.74532
            ],
            [
              121.11325,
              37.74014
            ],
            [
              121.14626,
              37.67523
            ],
            [
              121.16928,
              37.61298
            ],
            [
              121.25259,
              37.61074
            ],
            [
              121.29259,
              37.61096
            ],
            [
              121.37554,
              37.53548
            ],
            [
              121.55177,
              37.44968
            ],
            [
              121.92875,
              37.51688
            ],
            [
              121.98891,
              37.54976
            ],
            [
              122.05907,
              37.5827
            ],
            [
              122.11921,
              37.61016
            ],
            [
              122.17564,
              37.56437
            ],
            [
              122.22541,
              37.51854
            ],
            [
              122.27184,
              37.47269
            ],
            [
              122.29833,
              37.43758
            ],
            [
              122.45848,
              37.46831
            ],
            [
              122.51831,
              37.4361
            ],
            [
              122.62178,
              37.4638
            ],
            [
              122.6785,
              37.47497
            ],
            [
              122.68821,
              37.41806
            ],
            [
              122.65485,
              37.41245
            ],
            [
              122.58814,
              37.40123
            ],
            [
              122.54772,
              37.31693
            ],
            [
              122.5608,
              37.26818
            ],
            [
              122.57378,
              37.19774
            ],
            [
              122.52373,
              37.18661
            ],
            [
              122.45703,
              37.1781
            ],
            [
              122.39968,
              37.04217
            ],
            [
              122.5164,
              37.05367
            ],
            [
              122.51957,
              37.02115
            ],
            [
              122.52594,
              36.96151
            ],
            [
              122.43253,
              36.94472
            ],
            [
              122.41876,
              36.85785
            ],
            [
              122.35877,
              36.86023
            ],
            [
              122.26876,
              36.85701
            ],
            [
              122.20883,
              36.87024
            ],
            [
              122.16554,
              36.87813
            ],
            [
              122.14641,
              37.05161
            ],
            [
              122.07258,
              36.95084
            ],
            [
              122.01584,
              36.93696
            ],
            [
              121.99616,
              36.99923
            ],
            [
              121.87949,
              36.99858
            ],
            [
              121.80916,
              36.93038
            ],
            [
              121.54167,
              36.76345
            ],
            [
              121.48174,
              36.77667
            ],
            [
              121.45189,
              36.80634
            ],
            [
              121.41167,
              36.76272
            ],
            [
              121.29485,
              36.72952
            ],
            [
              121.16137,
              36.69894
            ],
            [
              121.10451,
              36.66065
            ],
            [
              120.99419,
              36.59494
            ],
            [
              120.9342,
              36.59732
            ],
            [
              120.90101,
              36.62426
            ],
            [
              120.94114,
              36.6516
            ],
            [
              120.84468,
              36.69175
            ],
            [
              120.75779,
              36.64515
            ],
            [
              120.71412,
              36.5771
            ],
            [
              120.74731,
              36.55017
            ],
            [
              120.82102,
              36.62652
            ],
            [
              120.95729,
              36.54863
            ],
            [
              120.92032,
              36.48604
            ],
            [
              120.89336,
              36.42894
            ],
            [
              120.86644,
              36.37726
            ],
            [
              120.81013,
              36.44746
            ],
            [
              120.76037,
              36.496
            ],
            [
              120.69352,
              36.45765
            ],
            [
              120.70964,
              36.34926
            ],
            [
              120.65581,
              36.24861
            ],
            [
              120.66552,
              36.19171
            ],
            [
              120.67192,
              36.1375
            ],
            [
              120.64853,
              36.12652
            ],
            [
              120.57844,
              36.10714
            ],
            [
              120.50503,
              36.09046
            ],
            [
              120.4316,
              36.07106
            ],
            [
              120.36151,
              36.05169
            ],
            [
              120.31145,
              36.04056
            ],
            [
              120.2987,
              36.15711
            ],
            [
              120.34891,
              36.19807
            ],
            [
              120.28932,
              36.2791
            ],
            [
              120.28552,
              36.18687
            ],
            [
              120.20559,
              36.19998
            ],
            [
              120.1891,
              36.23515
            ],
            [
              120.09234,
              36.21562
            ],
            [
              120.06218,
              36.18291
            ],
            [
              120.07844,
              36.10163
            ],
            [
              120.13825,
              36.064
            ],
            [
              120.15784,
              35.98274
            ],
            [
              120.28137,
              36.02412
            ],
            [
              120.27777,
              35.96985
            ],
            [
              120.14083,
              35.91484
            ],
            [
              120.02077,
              35.90061
            ],
            [
              119.99757,
              35.9276
            ],
            [
              119.77804,
              36.01859
            ],
            [
              119.55467,
              36.0092
            ],
            [
              119.41816,
              36.03827
            ],
            [
              119.37469,
              36.01091
            ],
            [
              119.32777,
              35.95912
            ],
            [
              119.2444,
              35.95051
            ],
            [
              119.21467,
              36.00459
            ],
            [
              119.21502,
              36.07511
            ],
            [
              119.26204,
              36.14589
            ],
            [
              119.28234,
              36.20567
            ],
            [
              119.33585,
              36.24123
            ],
            [
              119.31601,
              36.27366
            ],
            [
              119.10938,
              36.27793
            ],
            [
              119.01259,
              36.25298
            ],
            [
              118.78273,
              36.27882
            ],
            [
              118.69601,
              36.26748
            ],
            [
              118.6295,
              36.29694
            ],
            [
              118.55989,
              36.30526
            ],
            [
              118.49996,
              36.27983
            ],
            [
              118.46673,
              36.27749
            ],
            [
              118.3126,
              36.4491
            ],
            [
              118.17679,
              36.5634
            ],
            [
              118.02232,
              36.5695
            ],
            [
              117.59059,
              36.5438
            ],
            [
              117.34352,
              36.41994
            ],
            [
              117.23348,
              36.41119
            ],
            [
              117.03375,
              36.4616
            ],
            [
              116.88413,
              36.5367
            ],
            [
              116.74451,
              36.61186
            ],
            [
              116.6711,
              36.59518
            ],
            [
              116.60754,
              36.54872
            ],
            [
              116.53682,
              36.40458
            ],
            [
              116.46002,
              36.37703
            ],
            [
              116.40677,
              36.393
            ],
            [
              116.34366,
              36.43604
            ],
            [
              116.34392,
              36.48758
            ],
            [
              116.30446,
              36.59584
            ],
            [
              116.25151,
              36.67149
            ],
            [
              116.20219,
              36.74364
            ],
            [
              116.31636,
              36.80535
            ],
            [
              116.3304,
              36.86662
            ],
            [
              116.33301,
              37.02983
            ],
            [
              116.25992,
              37.08731
            ],
            [
              116.24338,
              37.14164
            ],
            [
              116.27004,
              37.17576
            ],
            [
              116.29698,
              37.22688
            ],
            [
              116.32805,
              37.26442
            ],
            [
              116.29866,
              37.33229
            ],
            [
              116.28658,
              37.39343
            ],
            [
              116.30938,
              37.45814
            ],
            [
              116.28397,
              37.50223
            ],
            [
              116.29833,
              37.58389
            ],
            [
              116.34682,
              37.62151
            ],
            [
              116.34753,
              37.66571
            ],
            [
              116.38758,
              37.72029
            ],
            [
              116.45337,
              37.75118
            ],
            [
              116.50099,
              37.7344
            ],
            [
              116.50877,
              37.67663
            ],
            [
              116.55595,
              37.63264
            ],
            [
              116.5682,
              37.58169
            ],
            [
              116.65391,
              37.49707
            ],
            [
              116.71856,
              37.45655
            ],
            [
              116.8539,
              37.48096
            ],
            [
              116.88943,
              37.52532
            ],
            [
              116.94195,
              37.54255
            ],
            [
              116.9685,
              37.56987
            ],
            [
              117.02978,
              37.59054
            ],
            [
              117.06983,
              37.64512
            ],
            [
              117.14874,
              37.67947
            ],
            [
              117.14874,
              37.67947
            ],
            [
              117.20103,
              37.6831
            ],
            [
              117.23194,
              37.71044
            ],
            [
              117.28021,
              37.73446
            ],
            [
              117.341,
              37.72453
            ],
            [
              117.39835,
              37.77238
            ],
            [
              117.47198,
              37.74891
            ],
            [
              117.52874,
              37.75936
            ],
            [
              117.57636,
              37.74257
            ],
            [
              117.63214,
              37.69182
            ],
            [
              117.69717,
              37.67511
            ],
            [
              117.75768,
              37.64818
            ],
            [
              117.89221,
              37.62157
            ],
            [
              117.97568,
              37.66954
            ],
            [
              118.02009,
              37.72414
            ],
            [
              118.02009,
              37.72414
            ],
            [
              118.17564477538676,
              37.66813940450944
            ],
            [
              118.39561,
              37.51611
            ],
            [
              118.39534,
              37.46186
            ],
            [
              118.27837,
              37.39883
            ],
            [
              118.15825,
              37.37375
            ],
            [
              118.06787,
              37.2973
            ],
            [
              118.25797,
              37.32006
            ],
            [
              118.3682,
              37.36679
            ],
            [
              118.41507,
              37.40773
            ],
            [
              118.41529,
              37.45113
            ],
            [
              118.67187,
              37.43629
            ],
            [
              118.81809,
              37.35032
            ],
            [
              118.82098,
              37.26083
            ],
            [
              118.88075,
              37.21506
            ],
            [
              118.8737,
              37.13908
            ],
            [
              119.1398,
              37.02937
            ],
            [
              119.27977,
              37.02473
            ],
            [
              119.43326,
              37.05813
            ],
            [
              119.59327,
              37.06174
            ],
            [
              119.67654,
              37.04864
            ],
            [
              119.6803,
              37.13545
            ],
            [
              119.6803,
              37.13545
            ],
            [
              119.6803,
              37.13545
            ],
            [
              119.6803,
              37.13545
            ],
            [
              119.6803,
              37.13545
            ],
            [
              119.6803,
              37.13545
            ]
          ]
        ]
      }
    },
    {
      "type": "Feature",
      "properties": {
        "kind": "commandery_seat",
        "name": "平原郡/平原",
        "role": "commandery"
      },
      "geometry": {
        "type": "Point",
        "coordinates": [
          116.38681,
          37.06551
        ]
      }
    },
    {
      "type": "Feature",
      "properties": {
        "kind": "commandery_seat",
        "name": "济南国/东平陵",
        "role": "commandery"
      },
      "geometry": {
        "type": "Point",
        "coordinates": [
          117.39522,
          36.75925
        ]
      }
    },
    {
      "type": "Feature",
      "properties": {
        "kind": "commandery_seat",
        "name": "乐安国/临济",
        "role": "commandery"
      },
      "geometry": {
        "type": "Point",
        "coordinates": [
          117.90709,
          37.1391
        ]
      }
    },
    {
      "type": "Feature",
      "properties": {
        "kind": "commandery_seat",
        "name": "齐国/临淄",
        "role": "capital"
      },
      "geometry": {
        "type": "Point",
        "coordinates": [
          118.33249,
          36.89196
        ]
      }
    },
    {
      "type": "Feature",
      "properties": {
        "kind": "commandery_seat",
        "name": "北海国/剧县",
        "role": "commandery"
      },
      "geometry": {
        "type": "Point",
        "coordinates": [
          118.75493,
          36.71803
        ]
      }
    },
    {
      "type": "Feature",
      "properties": {
        "kind": "commandery_seat",
        "name": "东莱郡/黄县",
        "role": "commandery"
      },
      "geometry": {
        "type": "Point",
        "coordinates": [
          120.63966,
          37.68325
        ]
      }
    }
  ]
}